PK;NOMBRE;DESCRIPCION-ENTIDAD;HORARIO;EQUIPAMIENTO;TRANSPORTE;DESCRIPCION;ACCESIBILIDAD;CONTENT-URL;NOMBRE-VIA;CLASE-VIAL;TIPO-NUM;NUM;PLANTA;PUERTA;ESCALERAS;ORIENTACION;LOCALIDAD;PROVINCIA;CODIGO-POSTAL;BARRIO;DISTRITO;COORDENADA-X;COORDENADA-Y;LATITUD;LONGITUD;TELEFONO;FAX;EMAIL;TIPO;
3557;Basílica Jesús de Medinaceli;;;;Bus: 10, 14, 26, 27, 32, 34, 37, 45, 6, 27 Metro: Antón Martín (línea 1) Bicimad: Estación 27 (calle Jesús, 1);Cripta. La imagen se podrá visitar en la cripta y en el horario habitual. Las misas se celebrarán también sin cambio de horarios.;3;http://www.madrid.es/sites/v/index.jsp?vgnextchannel=bfa48ab43d6bb410VgnVCM100000171f5a0aRCRD&vgnextoid=a64eef4d7f71c010VgnVCM1000000b205a0aRCRD;JESUS;PLAZA;V;2;;;;;MADRID;MADRID;28014;CORTES;CENTRO;440983;4473944;4.041.401.835.410.490;-3.695.608.378.509.960;914 299 375  914 296 893;;jesusmedinaceli@archimadrid.es;/contenido/entidadesYorganismos/TemplosIglesiasCatolicas; 
3394;Basílica La Milagrosa;;;;Bus: 5, 16, 61, 12.  Metro: Alonso Cano (línea 7), Gregorio Marañón (líneas 7 y 10), Iglesia (línea 1).;;3;http://www.madrid.es/sites/v/index.jsp?vgnextchannel=bfa48ab43d6bb410VgnVCM100000171f5a0aRCRD&vgnextoid=53b313db5b71c010VgnVCM1000000b205a0aRCRD;GARCIA DE PAREDES;CALLE;V;45;;;;;MADRID;MADRID;28010;ALMAGRO;CHAMBERI;440994;4476465;40.436.738.433.323.500;-3.695.724.577.042.380;914 473 248 / 914 473 249;;parroquiamilagrosa@archimadrid.es;/contenido/entidadesYorganismos/TemplosIglesiasCatolicas; 
3371;Basílica Pontificia de San Miguel;;;;Metro: Sol (líneas 1, 2 y 3), Tirso de Molina (línea 1), La Latina (línea 5). Bus: 31, 50, 65, 3. Cercanías Renfe: Sol (líneas C3 y C4). Bicimad: Estación 35 (plaza del Cordón, 1).;;3;http://www.madrid.es/sites/v/index.jsp?vgnextchannel=bfa48ab43d6bb410VgnVCM100000171f5a0aRCRD&vgnextoid=9c383d232e91f010VgnVCM1000000b205a0aRCRD;SAN JUSTO;CALLE;V;4;;;;;MADRID;MADRID;28005;PALACIO;CENTRO;439790;4473973;40.414.203.159.177.600;-37.096.715.906.562.700;915 484 011;;info@miguel.es;/contenido/entidadesYorganismos/MonumentosEdificiosArtisticos; 
11242837;Capilla de San Isidro;;Día 4 de cada mes (si coincide con un sábado, domingo o festivo se traslada la apertura al primer día laborable) de 10 a 14 horas. El día de apertura de la Capilla se celebra misa a las 13 horas.;;Metro: La Latina (línea 5), Puerta de Toledo (línea 5).  Bus: 60, 002, 17, 18, 23, 35.  Bicimad: Estación 38 (carrera de San Francisco, 1).;Descripción monumental: el Oratorio está ubicado en el solar donde, según latradición, nació y pasó su infancia el patrón de la ciudad de Madrid, San IsidroLabrador.;1;http://www.madrid.es/sites/v/index.jsp?vgnextchannel=bfa48ab43d6bb410VgnVCM100000171f5a0aRCRD&vgnextoid=df1bdce835c05710VgnVCM1000001d4a900aRCRD;AGUILA;CALLE;V;1;;;;;MADRID;MADRID;28005;PALACIO;CENTRO;439593;4473511;40.410.034.722.621.200;-3.711.938.408.934.670;913 650 841 / 913 652 160;;info@cementeriodesanisidro.com;/contenido/entidadesYorganismos/MonumentosEdificiosArtisticos; 
3361;Catedral Santa María la Real de la Almudena;Su construcción comienza a finales del siglo XIX por el Marqués de Cubas, sobre el primer recinto amurallado del Madrid musulmán, y finaliza en el año 1993.;;;Metro: Ópera (líneas 2, 5, Ramal), Sol (Línea 1, 2, 3). Bus: 3. Bicimad: Estación 36 (plaza Ramales, 1). Cercanías Renfe: Sol (líneas C3 y C4).;;3;http://www.madrid.es/sites/v/index.jsp?vgnextchannel=bfa48ab43d6bb410VgnVCM100000171f5a0aRCRD&vgnextoid=15647b503a71c010VgnVCM1000000b205a0aRCRD;BAILEN;CALLE;V;10;;;;;MADRID;MADRID;28013;PALACIO;CENTRO;439452;4474125;40.415.547.923.977.500;-3.713.669.638.684.310;915 422 200;;;/contenido/entidadesYorganismos/MonumentosEdificiosArtisticos; 
3355;Concepción Real de Calatrava;;;;Metro: Sevilla (línea 2). Bus: 46, M2, 150, 5, 52, 15, 20, 51, 53, 9, 1, 146, 2, 74, 26, 3, 32, 6. Bicimad: Estación 28 (calle Alcalá, 27).;;3;http://www.madrid.es/sites/v/index.jsp?vgnextchannel=bfa48ab43d6bb410VgnVCM100000171f5a0aRCRD&vgnextoid=e8013d232e91f010VgnVCM1000000b205a0aRCRD;ALCALA;CALLE;V;25;;;;;MADRID;MADRID;28014;CORTES;CENTRO;440702;4474410;40.418.196.333.786.000;-3.698.963.613.858.250;915 218 035;;;/contenido/entidadesYorganismos/MonumentosEdificiosArtisticos; 
3354;Convento de las Comendadoras de Santiago;El templo fue construido entre 1667 y 1679 por Manuel del Olmo y José del Olmo. El convento data del siglo XVIII  y es obra de Francisco de Sabatini. Es destacable la iglesia de planta cruciforme con gran cúpula central y cuatro exedras semicirculares, así como la sacristía de planta elíptica construida entre 1745 y 1754 por Francisco Moradillo.;;;Metro: San Bernardo (líneas 2, 4), Ventura Rodríguez (línea 3) Bus: 1, 2, 21, 44, 74, 133, 147, C;Más información en la página web de Monumenta Madrid;0;http://www.madrid.es/sites/v/index.jsp?vgnextchannel=bfa48ab43d6bb410VgnVCM100000171f5a0aRCRD&vgnextoid=ee6b13db5b71c010VgnVCM1000000b205a0aRCRD;COMENDADORAS;PLAZA;V;10;;;;;MADRID;MADRID;28015;UNIVERSIDAD;CENTRO;439864;4475437;404.273.968.151.307;-3.708.949.668.437.210;;;;/contenido/entidadesYorganismos/MonumentosEdificiosArtisticos; 
6079820;Ermita de San Isidro;;De lunes a sábado de 10 a 14 horas. Sábados misa por los difuntos de la semana a las 12 horas. Cerrada durante el mes de agosto.  Fuente de San Isidro: Abierta desde la semana anterior a la fiesta de San Isidro hasta la semana posterior, en horario de mañana y tarde.;;Metro: Marqués de Vadillo (línea 5).  Bus: 25, 50.;Descripción monumental: santuario cuyo origen se remonta a la Edad Media,ubicado junto al manantial que San Isidro había hecho brotar milagrosamente paradar de beber a su amo Iván de Vargas y que la tradición popular atribuyepropiedades curativas, de una sola nave con pórtico, cúpula hexagonal cubierta depizarra coronada por una linterna, reconstruido según el modelo de 1724.;2;http://www.madrid.es/sites/v/index.jsp?vgnextchannel=bfa48ab43d6bb410VgnVCM100000171f5a0aRCRD&vgnextoid=913cfa8389c10310VgnVCM1000000b205a0aRCRD;ERMITA DEL SANTO;PASEO;V;72;;;;;MADRID;MADRID;28019;SAN ISIDRO;CARABANCHEL;438420;4472476;4.040.061.741.587.040;-3.725.670.113.017.970;913 650 841 / 913 652 160;;info@cementeriodesanisidro.com;/contenido/entidadesYorganismos/MonumentosEdificiosArtisticos; 
3357;Ermita Virgen del Puerto;;;;Metro: Príncipe Pio (líneas 6 y 10). Bus: 148, 3, 41, 62, C2, 138, 25, 33, 39, C1, 31, 65.  Cercanías Renfe: Príncipe Pío (líneas C1, C7 y C10).   Bicimad: Estación 167 (calle Segovia, 45).;Descripción monumental: Construido por Pedro Ribera en 1718.  Se encuadra en un proyecto urbanístico propuesto por el propio arquitecto para toda la ribera del Manzanares. De planta octogonal con exedras, lleva cubierta de pizarra.;3;http://www.madrid.es/sites/v/index.jsp?vgnextchannel=bfa48ab43d6bb410VgnVCM100000171f5a0aRCRD&vgnextoid=fd7755004e91f010VgnVCM2000000c205a0aRCRD;VIRGEN DEL PUERTO;PASEO;V;4;;;;;MADRID;MADRID;28005;PALACIO;CENTRO;438818;4474132;4.041.556.461.689.200;-37.211.426.105.677.400;648 841 991 / 637 388 244;;info@ermitavirgendelpuerto.es;/contenido/entidadesYorganismos/MonumentosEdificiosArtisticos; 
3356;Iglesia Catedral de las Fuerzas Armadas;;;;Metro: Ópera (Líneas , 2, 5 y Ramal). Bus: 31, 50, 65. Bicimad: Estación 35 (plaza del Cordón, 1).;;3;http://www.madrid.es/sites/v/index.jsp?vgnextchannel=bfa48ab43d6bb410VgnVCM100000171f5a0aRCRD&vgnextoid=23e03d232e91f010VgnVCM1000000b205a0aRCRD;SACRAMENTO;CALLE;V;11;;;;;MADRID;MADRID;28005;PALACIO;CENTRO;439571;4474051;40.414.889.947.123.700;-37.122.600.779.776.700;915 473 624;;;/contenido/entidadesYorganismos/MonumentosEdificiosArtisticos; 
3734;Iglesia Convento del Santísimo Cristo del Pardo;;;;;;3;http://www.madrid.es/sites/v/index.jsp?vgnextchannel=bfa48ab43d6bb410VgnVCM100000171f5a0aRCRD&vgnextoid=f4961e79ee71c010VgnVCM1000000b205a0aRCRD;CRISTO DE EL PARDO;PISTA;V;11;;;;;MADRID;MADRID;28048;EL PARDO;FUENCARRAL-EL PARDO;433197;4485709;4.051.942.057.602.380;-37.886.096.812.339.300;913 760 800;;;/contenido/entidadesYorganismos/TemplosIglesiasCatolicas; 
3363;Iglesia Corpus Christi;;;;Metro: Ópera (Lineas Ramal , 2 , 5), La Latina (Línea, 5), Tirso de Molina (línea 1), Sol (líneas 1, 2 y 3). Bus: 3, 50, 65. Cercanías Renfe: Sol (líneas C3 y C4). Bicimad: Estación 35 (plaza del Cordón, 1).;;3;http://www.madrid.es/sites/v/index.jsp?vgnextchannel=bfa48ab43d6bb410VgnVCM100000171f5a0aRCRD&vgnextoid=e5f03d232e91f010VgnVCM1000000b205a0aRCRD;CONDE DE MIRANDA;PLAZA;V;3;;;;;MADRID;MADRID;28005;PALACIO;CENTRO;439778;4474041;4.041.481.486.646.870;-37.098.194.568.632.300;915 480 319;;iglesiadelcorpuschristi@archimadrid.es;/contenido/entidadesYorganismos/MonumentosEdificiosArtisticos; 
3480;Iglesia Cristo Rey de Argüelles;;;;"Metro: Arg&amp;uuml;elles (líneas 3, 4 y 6). Bus: 62, 74. Bicimad: Estación 117 (calle Altamirano, 24).";;3;http://www.madrid.es/sites/v/index.jsp?vgnextchannel=bfa48ab43d6bb410VgnVCM100000171f5a0aRCRD&vgnextoid=94d213db5b71c010VgnVCM1000000b205a0aRCRD;MARTIN DE LOS HEROS;CALLE;V;91;;;;;MADRID;MADRID;28008;ARGUELLES;MONCLOA-ARAVACA;439025;4476146;4.043.185.004.573.440;-3.720.161.174.548.790;915 497 544;;;/contenido/entidadesYorganismos/TemplosIglesiasCatolicas; 
3743;Iglesia de San Antón;;;;Metro: Chueca (línea 5), Tribunal (línea 1 y 10), Alonso Martínez (líneas 4, 5, 10). Bus: 3. Bicimad: Estación 6 (calle Hortaleza, 63).;;3;http://www.madrid.es/sites/v/index.jsp?vgnextchannel=bfa48ab43d6bb410VgnVCM100000171f5a0aRCRD&vgnextoid=2f213d232e91f010VgnVCM1000000b205a0aRCRD;HORTALEZA;CALLE;V;63;;;;;MADRID;MADRID;28004;JUSTICIA;CENTRO;440751;4475069;4.042.413.633.753.990;-36.984.592.609.651.200;915 215 781;;;/contenido/entidadesYorganismos/TemplosIglesiasCatolicas; 
18313;Iglesia del Espíritu Santo;;;;Metro: República Argentina (Línea 6). Bus: 16, 51.;;3;http://www.madrid.es/sites/v/index.jsp?vgnextchannel=bfa48ab43d6bb410VgnVCM100000171f5a0aRCRD&vgnextoid=22413d232e91f010VgnVCM1000000b205a0aRCRD;SERRANO;CALLE;V;125;;;;;MADRID;MADRID;28006;EL VISO;SALAMANCA;441811;4477035;40.441.930.828.600.400;-36.861.445.665.284.100;915 632 024;;iglesiaespiritusanto@archimadrid.es;/contenido/entidadesYorganismos/TemplosIglesiasCatolicas; 
3736;Iglesia Esclavas del Sagrado Corazón de Jesús;;;;Cercanías Renfe: Asamblea de Madrid-Entrevías (línea C2). Bus: 102, 111.;;3;http://www.madrid.es/sites/v/index.jsp?vgnextchannel=bfa48ab43d6bb410VgnVCM100000171f5a0aRCRD&vgnextoid=25513d232e91f010VgnVCM1000000b205a0aRCRD;SANTA RAFAELA MARIA DEL SAGRADO CORAZON;CALLE;V;112;;;;;MADRID;MADRID;28053;ENTREVIAS;PUENTE DE VALLECAS;442845;4469997;4.037.860.811.584.410;-367.330.840.644.835;917 858 014;;;/contenido/entidadesYorganismos/TemplosIglesiasCatolicas; 
18321;Iglesia Madres Dominicas;;;;Metro: Núñez de Balboa (líneas 5 y 9). Bus: 9, 16, 19, 51, 61. Bicimad: Estación 190 (calle Velázquez, 91).;;3;http://www.madrid.es/sites/v/index.jsp?vgnextchannel=bfa48ab43d6bb410VgnVCM100000171f5a0aRCRD&vgnextoid=02306f065851c010VgnVCM2000000c205a0aRCRD;CLAUDIO COELLO;CALLE;V;112;;;;;MADRID;MADRID;28006;CASTELLANA;SALAMANCA;441877;4476322;4.043.551.247.413.870;-36.852.893.701.013.200;915 635 542;;;/contenido/entidadesYorganismos/TemplosIglesiasCatolicas; 
60204;Iglesia Monasterio Santo Domingo el Real;;;;Metro: Núñez de Balboa (Líneas 9 , 5),Ruben Darío (línea 5). Bus: 61, 16, 19, 51, 9. Bicimad: Estación 190 (calle Velázquez, 91).;;3;http://www.madrid.es/sites/v/index.jsp?vgnextchannel=bfa48ab43d6bb410VgnVCM100000171f5a0aRCRD&vgnextoid=6ad13d232e91f010VgnVCM1000000b205a0aRCRD;CLAUDIO COELLO;CALLE;V;141;;;;;MADRID;MADRID;28006;CASTELLANA;SALAMANCA;441863;4476375;4.043.599.250.690.990;-3.685.454.479.794.050;914 117 384;;;/contenido/entidadesYorganismos/TemplosIglesiasCatolicas; 
60210;Iglesia Nuestra Señora de la Bien Aparecida;;;;Metro: Sainz de Baranda (línea 6, 9). Bus: 20, 152, 26, 63, C1, C2. Bicimad: Estación 62 (calle O'Donell, 50).;;3;http://www.madrid.es/sites/v/index.jsp?vgnextchannel=bfa48ab43d6bb410VgnVCM100000171f5a0aRCRD&vgnextoid=edf28ed67151c010VgnVCM2000000c205a0aRCRD;PIO BAROJA;CALLE;V;10;;;;;MADRID;MADRID;28009;NIÑO JESUS;RETIRO;442833;4474045;40.413.185.012.451.300;-36.750.915.628.624.200;915 044 363;;;/contenido/entidadesYorganismos/TemplosIglesiasCatolicas; 
190377;Iglesia Nuestra Señora de la Paz;;;;Metro: O'Donnell (Línea 6). Bus:143, 156, 2, 30, 56, 203, 28, E2, E3, E4, 71. Bicimad: Estación 62 (calle O'Donell, 50).;;3;http://www.madrid.es/sites/v/index.jsp?vgnextchannel=bfa48ab43d6bb410VgnVCM100000171f5a0aRCRD&vgnextoid=b207f5177659f010VgnVCM2000000c205a0aRCRD;DOCTOR ESQUERDO;CALLE;V;44;;;;;MADRID;MADRID;28007;IBIZA;RETIRO;443220;4474654;4.042.057.003.126.170;-3.669.306.926.466.700;914 090 943;;;/contenido/entidadesYorganismos/TemplosIglesiasCatolicas; 
3577;Iglesia Nuestra Señora de Lourdes y San Justino. Iglesia de la Renovación Carismática;;;;Metro: Casa de Campo (Línea 5, 10). Bus: 55, 65, 36, 39.;;3;http://www.madrid.es/sites/v/index.jsp?vgnextchannel=bfa48ab43d6bb410VgnVCM100000171f5a0aRCRD&vgnextoid=db30ef4d7f71c010VgnVCM1000000b205a0aRCRD;SAN JUAN DE MATA;CALLE;V;30;;;;;MADRID;MADRID;28011;LUCERO;LATINA;435679;4472887;4.040.410.342.889.000;-37.580.243.465.540.200;917 113 660;;;/contenido/entidadesYorganismos/TemplosIglesiasCatolicas; 
60211;Iglesia Nuestra Señora de Montserrat;;;;Metro: San Bernardo, (Líneas 2, 4), Bilbao (Líneas 1, 4). Bus: M2, 3, 21. Bicimad: Estación 12 (calle San Bernardo, 85).;;3;http://www.madrid.es/sites/v/index.jsp?vgnextchannel=bfa48ab43d6bb410VgnVCM100000171f5a0aRCRD&vgnextoid=70138ed67151c010VgnVCM2000000c205a0aRCRD;SAN BERNARDO;CALLE;V;79;;;;;MADRID;MADRID;28015;UNIVERSIDAD;CENTRO;440071;4475463;4.042.764.597.271.770;-370.651.199.134.605;914 471 250;;;/contenido/entidadesYorganismos/TemplosIglesiasCatolicas; 
18320;Iglesia Padre Trinitarios;;;;Metro: Antón Martín (línea 1), Sol (líneas 1, 2 y 3). Bus: M1, 26, 32, 6. Cercanías Renfe: Sol (líneas C3 y C4). Bicimad: Estación 6 (calle Hortaleza, 63).;;3;http://www.madrid.es/sites/v/index.jsp?vgnextchannel=bfa48ab43d6bb410VgnVCM100000171f5a0aRCRD&vgnextoid=7f106f065851c010VgnVCM2000000c205a0aRCRD;ECHEGARAY;CALLE;V;30;;;;;MADRID;MADRID;28014;CORTES;CENTRO;440755;4474166;40.414.129.374.303.200;-3.699.605.145.747.940;914 295 689;;;/contenido/entidadesYorganismos/TemplosIglesiasCatolicas; 
3365;Iglesia San Antonio de los Alemanes;;;;Metro: Callao (líneas 3, 5), Gran Vía (líneas 1, 5), Noviciado (línea 2), Santo Domingo (línea 2), Chueca (línea 5). Bus: M2. Bicimad: Estación 52 (plaza Santa Ana, 10).;Descripción monumental:  Proyectada por Pedro Sánchez, año 1624  y Francisco Seseña, año 1624 - 1633.  Fachada, por Juan Gómez de Mora, año 1624 - 1630.  Fundación de Felipe III, 1606.  Magnífico ejemplo del Barroco madrileño con interesantes elementos arquitectónicos y frescos en paredes y cúpula que forman una unidad de espacio irreal.  La gran cúpula oval, decorada con arquitecturas fingidas y escenas de la Apoteosis de San Francisco de Paula, de Francisco Ricci y Carreño de Miranda,refuerza esta impresión.  Lucas Jordán, sin pauta de continuidad, decora los muros curvos con escenas de la vida del San Antonio.  El retablo mayor, de mediados del siglo XVIII, es obra del arquitecto Miguel Fernández con el escultor Francisco Gutiérrez. Obra compleja, fue replanteada por Juan Gómez de Mora quien redibujó la fachada. Muestra un edificio anexo en ladrillo y planta triangular para la Hermandad del Refugio y Piedad de Madrid, fundada en 1615 con su tradicional 'ronda del pan y huevo'.  Dicho edificio data de la década de 1880, quizá por Ruiz de Salces quien proyectó la reforma de la fachada buscando la armonía total.;3;http://www.madrid.es/sites/v/index.jsp?vgnextchannel=bfa48ab43d6bb410VgnVCM100000171f5a0aRCRD&vgnextoid=614013db5b71c010VgnVCM1000000b205a0aRCRD;PUEBLA;CALLE;V;20;;;;;MADRID;MADRID;28004;UNIVERSIDAD;CENTRO;440312;4474867;40.422.294.329.828.900;-3.703.603.319.643.190;915 223 774;;;/contenido/entidadesYorganismos/MonumentosEdificiosArtisticos; 
18319;Iglesia San Ignacio de los Vascos;;;;Metro: Antón Martín (Línea,1), Sol (líneas 1, 2 y 3). Bus: M1, 26, 32, 6. Cercanías Renfe: Sol (líneas C3 y C4). Bicimad: Estación 52 (plaza Santa Ana, 10).;;3;http://www.madrid.es/sites/v/index.jsp?vgnextchannel=bfa48ab43d6bb410VgnVCM100000171f5a0aRCRD&vgnextoid=5aff6f065851c010VgnVCM2000000c205a0aRCRD;PRINCIPE;CALLE;V;31;;;;;MADRID;MADRID;28012;CORTES;CENTRO;440602;4473981;4.041.433.357.305.620;-3.700.102.295.186.210;914 297 236;;;/contenido/entidadesYorganismos/TemplosIglesiasCatolicas; 
3368;Iglesia San Ildefonso;El monumento conmemorativo alberga los restos hallados en la cripta del convento. Con la colocación de los restos de Miguel de Cervantes en la nave de la actual iglesia del siglo XVIII  se cumple la voluntad testamentaria del autor de 'El Quijote'. Miguel de Cervantes, que fue enterrado en la primitiva iglesia el 23 de abril de 1616, expresó en su última voluntad descansar allí en agradecimiento a los Trinitarios que le liberaron de los cinco años y medio de cautiverio en Argel, en manos de los piratas berberiscos.  Descripción monumental. Construido por Marcos López entre 1673 y 1688 con gran austeridad constructiva y decorativa.;;;Metro: Antón Martín (Línea 1). Bus: 26, 32, 6, 10, 14, 27, 34, 37, 45.;;3;http://www.madrid.es/sites/v/index.jsp?vgnextchannel=bfa48ab43d6bb410VgnVCM100000171f5a0aRCRD&vgnextoid=4c1013db5b71c010VgnVCM1000000b205a0aRCRD;LOPE DE VEGA;CALLE;V;18;;;;;MADRID;MADRID;28014;CORTES;CENTRO;440807;4473907;4.041.367.254.153.840;-36.976.792.276.700.900;914 295 671;;;/contenido/entidadesYorganismos/MonumentosEdificiosArtisticos; 
60228;Iglesia San José de la Montaña;;;;Metro: Rubén Darío (Línea 5) , Alonso Martínez (Línea 10 , 4 , 5), Bilbao (línea 1, 4). Bus: 3, 7, 40, 147. Bicimad: Estación 122 (calle Santa Engracia, 14).;;3;http://www.madrid.es/sites/v/index.jsp?vgnextchannel=bfa48ab43d6bb410VgnVCM100000171f5a0aRCRD&vgnextoid=4d638ed67151c010VgnVCM2000000c205a0aRCRD;FERNANDEZ DE LA HOZ;CALLE;V;16;;;;;MADRID;MADRID;28010;ALMAGRO;CHAMBERI;441046;4475839;40.431.102.895.456.200;-36.950.416.528.397.300;913 081 977;;;/contenido/entidadesYorganismos/TemplosIglesiasCatolicas; 
60229;Iglesia San Juan de Sahagún;;;;Bus: 137, 82.;;3;http://www.madrid.es/sites/v/index.jsp?vgnextchannel=bfa48ab43d6bb410VgnVCM100000171f5a0aRCRD&vgnextoid=df738ed67151c010VgnVCM2000000c205a0aRCRD;MADRIGAL;CALLE;V;6;;;;;MADRID;MADRID;28035;CIUDAD UNIVERSITARIA;MONCLOA-ARAVACA;438356;4479343;4.046.246.424.310.460;-37.270.931.879.059.400;913 161 631;;;/contenido/entidadesYorganismos/TemplosIglesiasCatolicas; 
3728;Iglesia San Martín de Tours;;;;Metro: Callao (líneas 3 y 5). Bus: 146, 2, 46, 74, M2. Bicimad: Estación 2 (calle Miguel de Moya, 1).;;3;http://www.madrid.es/sites/v/index.jsp?vgnextchannel=bfa48ab43d6bb410VgnVCM100000171f5a0aRCRD&vgnextoid=df661e79ee71c010VgnVCM1000000b205a0aRCRD;"DESENGA&amp;Ntilde;O";CALLE;V;26;;;;;MADRID;MADRID;28004;UNIVERSIDAD;CENTRO;440223;4474747;40.421.206.925.183.500;-3.704.641.098.245.360;915 227 266;;;/contenido/entidadesYorganismos/TemplosIglesiasCatolicas; 
3732;Iglesia San Pascual;;;;Metro: Banco de España (línea 2). Bus: 14, 150, 27, 37, 45, 5, 53, 1, 146, 15, 2, 20, 203, 51, 52, 74. Renfe: Recoletos (C1, C2, C7, C8, C10).;;3;http://www.madrid.es/sites/v/index.jsp?vgnextchannel=bfa48ab43d6bb410VgnVCM100000171f5a0aRCRD&vgnextoid=62861e79ee71c010VgnVCM1000000b205a0aRCRD;RECOLETOS;PASEO;V;11;;;;;MADRID;MADRID;28004;JUSTICIA;CENTRO;441224;4474733;4.042.115.211.611.730;-36.928.410.119.657.900;915 311 841;;;/contenido/entidadesYorganismos/TemplosIglesiasCatolicas; 
3346;Iglesia San Pedro el Viejo;;;;Metro: La Latina (Línea 5) Tirso de Molina (Línea 1). Bus: 31, 50, 65. Bicimad: Estación 52 (plaza de Santa Ana, 10).;;3;http://www.madrid.es/sites/v/index.jsp?vgnextchannel=bfa48ab43d6bb410VgnVCM100000171f5a0aRCRD&vgnextoid=f35013db5b71c010VgnVCM1000000b205a0aRCRD;NUNCIO;CALLE;V;14;;;;;MADRID;MADRID;28005;PALACIO;CENTRO;439762;4473863;4.041.320.112.124.680;-371.000.286.701.288;913 651 284;;;/contenido/entidadesYorganismos/MonumentosEdificiosArtisticos; 
18314;Madres Carmelitas - Maravillas (capilla);;;;Metro: Velázquez (Línea 4) , Goya (Líneas 2, 4), Príncipe de Vergara (líneas 2, 9). Bus: 29, 52, 21, 53. Bicimad: Estación 91 (calle Hermosilla, 70).;;3;http://www.madrid.es/sites/v/index.jsp?vgnextchannel=bfa48ab43d6bb410VgnVCM100000171f5a0aRCRD&vgnextoid=eb113d232e91f010VgnVCM1000000b205a0aRCRD;PRINCIPE DE VERGARA;CALLE;V;23;;;;;MADRID;MADRID;28001;RECOLETOS;SALAMANCA;442289;4475215;40.425.568.693.198.200;-36.803.433.622.264.900;914 353 932;;;/contenido/entidadesYorganismos/TemplosIglesiasCatolicas; 
3364;Monasterio de Benedictinas;;;;Metro: Noviciado (línea 2), Santo domingo (línea 2), Callao (línea 3 y 5). Bus: M2. Bicimad: Estación 17 (plaza Carlos Carbonero, 2).;;3;http://www.madrid.es/sites/v/index.jsp?vgnextchannel=bfa48ab43d6bb410VgnVCM100000171f5a0aRCRD&vgnextoid=b90013db5b71c010VgnVCM1000000b205a0aRCRD;SAN ROQUE;CALLE;V;9;;;;;MADRID;MADRID;28004;UNIVERSIDAD;CENTRO;440236;4474926;40.422.820.373.636.300;-3.704.504.689.941.360;915 317 999;;;/contenido/entidadesYorganismos/MonumentosEdificiosArtisticos; 
3348;Monasterio de las Descalzas Reales;Convento fundado por la Princesa Juana de Austria, transformando un antiguo palacio de su madre Isabel de Portugal.;Sólo con visita guiada .    De martes a sábado de 10 a 14 horas y de 16 a 18:30 horas. Domingos y festivos, de 10 a 15 horas. Cerrado los lunes. Cierre taquillas y acceso al Monasterio una hora antes.  Para cierres durante el año o motivados por la celebración de actos oficiales o festividad en el municipio consultar la web o telefónicamente.;;Metro: Ópera (líneas 2, 5 y Ramal Ópera-Príncipe Pío)  Bus: 3, 25, 39, 148  Bicimad: Estación 25 a y b (Plaza de Celenque);;3;http://www.madrid.es/sites/v/index.jsp?vgnextchannel=bfa48ab43d6bb410VgnVCM100000171f5a0aRCRD&vgnextoid=12e113db5b71c010VgnVCM1000000b205a0aRCRD;DESCALZAS;PLAZA;V;3;;;;;MADRID;MADRID;28013;SOL;CENTRO;440087;4474418;40.418.233.359.889.400;-3.706.213.134.639.160;914 548 700;;info@patrimonionacional.es;/contenido/entidadesYorganismos/MonumentosEdificiosArtisticos; 
8182988;Nuestra Señora de la Merced - Parroquia personal de habla inglesa;Para personas de habla inglesa;;;Metro: Chamartín (líneas 1, 10)  Bus: 5, T62, 66, 67, SE70,  124, 134, 135, 147, 173, 174, 175, 176, 178  Cercanías: Chamartín (C1, C2, C3, C4, C7, C8, C10);;3;http://www.madrid.es/sites/v/index.jsp?vgnextchannel=bfa48ab43d6bb410VgnVCM100000171f5a0aRCRD&vgnextoid=6521e72dd138f410VgnVCM1000000b205a0aRCRD;MAURICIO LEGENDRE;CALLE;V;10;;;;;MADRID;MADRID;28034;VALVERDE;FUENCARRAL-EL PARDO;441381;4483351;4.049.879.774.855.140;-3.691.798.172.854.840;917 339 409;;ourladyofmercy@archimadrid.es;/contenido/entidadesYorganismos/TemplosIglesiasCatolicas; 
60230;Oratorio San Felipe Neri;;;;Metro: Sáinz de Baranda (líneas 6 y 9). Bus: 15, 215, 2, 143, 156, 30, 56. Bicimad: Estación 71 (calle Doce de Octubre, 28).;;3;http://www.madrid.es/sites/v/index.jsp?vgnextchannel=bfa48ab43d6bb410VgnVCM100000171f5a0aRCRD&vgnextoid=4ad48ed67151c010VgnVCM2000000c205a0aRCRD;ANTONIO ARIAS;CALLE;V;17;;;;;MADRID;MADRID;28009;NIÑO JESUS;RETIRO;443141;4474369;40.416.124.984.841.300;-3.671.478.807.160.190;915 737 272;;;/contenido/entidadesYorganismos/TemplosIglesiasCatolicas; 
3729;Oratorio Santo Niño del Remedio;;;;Metro: Ópera (líneas 2, 5, Ramal). Bus: 75, 3, 147, 148, 146, 44.  Bicimad: Estaciones 25 a y b (plaza de Celenque, 1).;;3;http://www.madrid.es/sites/v/index.jsp?vgnextchannel=bfa48ab43d6bb410VgnVCM100000171f5a0aRCRD&vgnextoid=245def4d7f71c010VgnVCM1000000b205a0aRCRD;DONADOS;CALLE;V;6;;;;;MADRID;MADRID;28013;SOL;CENTRO;439912;4474403;4.041.808.561.532.610;-37.082.743.476.402.800;915 426 112;;ndelremedio@archimadrid.es;/contenido/entidadesYorganismos/TemplosIglesiasCatolicas; 
3428;Parroquia Ascensión del Señor;;;;Bus: 17, 25, 19. Metro: Carpetana (línea 6).;;3;http://www.madrid.es/sites/v/index.jsp?vgnextchannel=bfa48ab43d6bb410VgnVCM100000171f5a0aRCRD&vgnextoid=613313db5b71c010VgnVCM1000000b205a0aRCRD;VIA CARPETANA;CALLE;V;105;;;;;MADRID;MADRID;28047;SAN ISIDRO;CARABANCHEL;437300;4471795;4.039.438.987.765.850;-37.388.151.028.925.500;914 665 940 / 914 716 201;;ascension@archimadrid.es;/contenido/entidadesYorganismos/TemplosIglesiasCatolicas; 
3429;Parroquia Asunción de Nuestra Señora. Calle Gabriel y Galán;;;;Metro: Alfonso XIII (Línea 4) Bus: 43, 120, 9, 40, 72, 73;;3;http://www.madrid.es/sites/v/index.jsp?vgnextchannel=bfa48ab43d6bb410VgnVCM100000171f5a0aRCRD&vgnextoid=4c0313db5b71c010VgnVCM1000000b205a0aRCRD;GABRIEL Y GALAN;CALLE;V;17;;;;;MADRID;MADRID;28002;CIUDAD JARDIN;CHAMARTIN;443301;4478107;4.045.168.186.284.740;-3.668.672.065.334.420;914 151 589;;parrasuncion@archimadrid.es;/contenido/entidadesYorganismos/TemplosIglesiasCatolicas; 
3430;Parroquia Asunción de Nuestra Señora. Calle Pérez de Victoria;;;;Bus: 160.;;3;http://www.madrid.es/sites/v/index.jsp?vgnextchannel=bfa48ab43d6bb410VgnVCM100000171f5a0aRCRD&vgnextoid=de1313db5b71c010VgnVCM1000000b205a0aRCRD;PEREZ DE VICTORIA;CALLE;V;9;;;;;MADRID;MADRID;28023;ARAVACA;MONCLOA-ARAVACA;433696;4479058;40.457.664.609.108.800;-37.832.992.174.433.500;913 078 654;;parroquia@asuncionaravaca.es;/contenido/entidadesYorganismos/TemplosIglesiasCatolicas; 
3437;Parroquia Bautismo del Señor;;;;Bus: 82.;;3;http://www.madrid.es/sites/v/index.jsp?vgnextchannel=bfa48ab43d6bb410VgnVCM100000171f5a0aRCRD&vgnextoid=d5753d232e91f010VgnVCM1000000b205a0aRCRD;GAVILANES;CALLE;V;11;;;;;MADRID;MADRID;28035;FUENTELARREINA;FUENCARRAL-EL PARDO;437329;4481095;4.047.817.899.437.220;-3.739.378.919.991.360;913 731 815;;despacho@parroquiabautismodelseñor.es;/contenido/entidadesYorganismos/TemplosIglesiasCatolicas; 
3591;Parroquia Beata María Ana de Jesús;;;;Metro: Legazpi (líneas 3 y 6). Bus: 62, 148, 18, 6, 78, 76, 247, 59, 8, 47, 19, 45, 85, 86.;;3;http://www.madrid.es/sites/v/index.jsp?vgnextchannel=bfa48ab43d6bb410VgnVCM100000171f5a0aRCRD&vgnextoid=d9edef4d7f71c010VgnVCM1000000b205a0aRCRD;GUILLERMO DE OSMA;CALLE;V;10;;;;;MADRID;MADRID;28045;CHOPERA;ARGANZUELA;440843;4471725;4.039.401.854.488.280;-3.697.052.144.961.610;914 734 973;;infobemajes@archimadrid.es;/contenido/entidadesYorganismos/TemplosIglesiasCatolicas; 
45867;Parroquia Beata María Ana Mogas;;;;Metro: Tres Olivos (línea 10). Bus: 66, 137.;;3;http://www.madrid.es/sites/v/index.jsp?vgnextchannel=bfa48ab43d6bb410VgnVCM100000171f5a0aRCRD&vgnextoid=e528f0bde551c010VgnVCM2000000c205a0aRCRD;BELLA ALTISIDORA;CALLE;V;6;;;;;MADRID;MADRID;28034;VALVERDE;FUENCARRAL-EL PARDO;441381;4483351;4.049.879.774.855.140;-3.691.798.172.854.840;917 359 596;;parroquiasmogas@archimadrid.es;/contenido/entidadesYorganismos/TemplosIglesiasCatolicas; 
3449;Parroquia Buen Pastor;;;;Bus: 57, 136, 144, 10. Cercanías Renfe: El Pozo (líneas C2, C7).;;3;http://www.madrid.es/sites/v/index.jsp?vgnextchannel=bfa48ab43d6bb410VgnVCM100000171f5a0aRCRD&vgnextoid=356213db5b71c010VgnVCM1000000b205a0aRCRD;PARQUE DE PALOMERAS BAJAS;AVENIDA;V;22;;;;;MADRID;MADRID;28018;PALOMERAS BAJAS;PUENTE DE VALLECAS;444282;4469859;40.377.454.587.016.800;-36.563.813.721.457.000;917 783 554;;;/contenido/entidadesYorganismos/TemplosIglesiasCatolicas; 
60216;Parroquia castrense Nuestra Señora del Carmen;;;;Bus: 7, 29, 107.;;3;http://www.madrid.es/sites/v/index.jsp?vgnextchannel=bfa48ab43d6bb410VgnVCM100000171f5a0aRCRD&vgnextoid=03238ed67151c010VgnVCM2000000c205a0aRCRD;SERRANO GALVACHE;CALLE;V;7;;;;;MADRID;MADRID;28033;COSTILLARES;CIUDAD LINEAL;443285;4480258;4.047.105.798.433.230;-36.690.529.649.688.800;917 674 508;;parroquiamadamadrid@mde.es;/contenido/entidadesYorganismos/TemplosIglesiasCatolicas; 
60184;Parroquia Castrense Santa María de la Dehesa;;;;Metro: Cuatro Vientos (línea 10 ). Bus: 139. Cercanías Renfe: Cuatro Vientos (línea C5).;;3;http://www.madrid.es/sites/v/index.jsp?vgnextchannel=bfa48ab43d6bb410VgnVCM100000171f5a0aRCRD&vgnextoid=fb728ed67151c010VgnVCM2000000c205a0aRCRD;ARQUEROS;AVENIDA;V;19;;;;;MADRID;MADRID;28024;CAMPAMENTO;LATINA;432716;4470304;40.380.600.824.380.800;-37.926.550.496.727.800;915 092 372 / 917 068 307;;;/contenido/entidadesYorganismos/TemplosIglesiasCatolicas; 
3465;Parroquia Concepción de Nuestra Señora;;;;Bus:  21, 53, 1, 19, 51, 74, 9, 29, 52.  Metro: Velázquez (línea 4). Bicimad: Estación 90 (calle Goya, 18).;;3;http://www.madrid.es/sites/v/index.jsp?vgnextchannel=bfa48ab43d6bb410VgnVCM100000171f5a0aRCRD&vgnextoid=c77213db5b71c010VgnVCM1000000b205a0aRCRD;GOYA;CALLE;V;26;;;;;MADRID;MADRID;28001;RECOLETOS;SALAMANCA;442128;4475148;4.042.495.393.979.160;-36.822.351.000.291.900;915 773 438 / 917 815 995;;concepciongoya@archimadrid.es;/contenido/entidadesYorganismos/TemplosIglesiasCatolicas; 
3478;Parroquia Cristo de la Paz;;;;Metro: Opañel (línea 6), Urgel (línea 5). Bus: 118.;;3;http://www.madrid.es/sites/v/index.jsp?vgnextchannel=bfa48ab43d6bb410VgnVCM100000171f5a0aRCRD&vgnextoid=5a8213db5b71c010VgnVCM1000000b205a0aRCRD;PORTALEGRE;CALLE;V;8;;;;;MADRID;MADRID;28019;OPAÑEL;CARABANCHEL;438566;4471273;40.389.790.810.630.900;-37.238.485.218.136.100;914 690 512;;cristodelapaz@archimadrid.es;/contenido/entidadesYorganismos/TemplosIglesiasCatolicas; 
3479;Parroquia Cristo Resucitado;;;;Metro: Lucero (línea 6). Bus: 138.;;3;http://www.madrid.es/sites/v/index.jsp?vgnextchannel=bfa48ab43d6bb410VgnVCM100000171f5a0aRCRD&vgnextoid=7fa213db5b71c010VgnVCM1000000b205a0aRCRD;CEBREROS;CALLE;V;56;;;;;MADRID;MADRID;28011;LUCERO;LATINA;436533;4472941;40.404.655.420.723.000;-37.479.662.983.162.900;914 630 716;;cristoresucitado@archimadrid.es;/contenido/entidadesYorganismos/TemplosIglesiasCatolicas; 
3481;Parroquia Cristo Rey de Usera;;;;Metro: Usera (línea 6). Bus: 47, 247.;;3;http://www.madrid.es/sites/v/index.jsp?vgnextchannel=bfa48ab43d6bb410VgnVCM100000171f5a0aRCRD&vgnextoid=02c213db5b71c010VgnVCM1000000b205a0aRCRD;AMOR HERMOSO;CALLE;V;15;;;;;MADRID;MADRID;28026;MOSCARDO;USERA;440244;4470911;4.038.665.179.240.180;-3.704.045.218.309.680;914 761 814;;cristorey@archimadrid.es;/contenido/entidadesYorganismos/TemplosIglesiasCatolicas; 
189085;Parroquia Cristo Sacerdote;;;;Bus: 146.;;3;http://www.madrid.es/sites/v/index.jsp?vgnextchannel=bfa48ab43d6bb410VgnVCM100000171f5a0aRCRD&vgnextoid=afb48aa6bd91f010VgnVCM1000000b205a0aRCRD;LOPEZ DE ARANDA;CALLE;V;52;;;;;MADRID;MADRID;28027;EL SALVADOR;SAN BLAS-CANILLEJAS;446304;4477296;4.044.458.442.670.160;-36.331.790.433.879.800;917 421 106;;cristosacerdote@gmail.com;/contenido/entidadesYorganismos/TemplosIglesiasCatolicas; 
3483;Parroquia Cristo Salvador;;;;Metro: San Lorenzo (línea 4) Bus: 72, 87, T11;;3;http://www.madrid.es/sites/v/index.jsp?vgnextchannel=bfa48ab43d6bb410VgnVCM100000171f5a0aRCRD&vgnextoid=27e213db5b71c010VgnVCM1000000b205a0aRCRD;CARACOLI;CALLE;V;1;;;;;MADRID;MADRID;28033;PINAR DEL REY;HORTALEZA;446093;4480593;4.047.426.288.668.640;-36.359.469.220.399.900;915 024 455;;cristosalvador@archimadrid.es;/contenido/entidadesYorganismos/TemplosIglesiasCatolicas; 
3485;Parroquia Crucifixión del Señor;;;;Metro: Laguna (línea 6). Bus: 119, 31, 55. Cercanías Renfe: Laguna (línea C5).;;3;http://www.madrid.es/sites/v/index.jsp?vgnextchannel=bfa48ab43d6bb410VgnVCM100000171f5a0aRCRD&vgnextoid=b9f213db5b71c010VgnVCM1000000b205a0aRCRD;CUART DE POBLET;CALLE;V;11;;;;;MADRID;MADRID;28047;LUCERO;LATINA;436804;4472229;40.398.262.044.796.300;-37.447.021.524.214;914 654 789;;lacrucifixion@archimadrid.es;/contenido/entidadesYorganismos/TemplosIglesiasCatolicas; 
189087;Parroquia Divino Salvador;;;;Bus: 134, 178. Metro: Montecarmelo (línea 10).;;3;http://www.madrid.es/sites/v/index.jsp?vgnextchannel=bfa48ab43d6bb410VgnVCM100000171f5a0aRCRD&vgnextoid=57e48aa6bd91f010VgnVCM1000000b205a0aRCRD;SANTUARIO DE VALVERDE;AVENIDA;V;37;;;;;MADRID;MADRID;28049;EL GOLOSO;FUENCARRAL-EL PARDO;440771;4484132;4.050.579.002.314.770;-3.699.057.756.302.050;917 280 183;;divinosalvador@archimadrid.es;/contenido/entidadesYorganismos/TemplosIglesiasCatolicas; 
3494;Parroquia Dulce Nombre de María;;;;Bus: 8, 113.;;3;http://www.madrid.es/sites/v/index.jsp?vgnextchannel=bfa48ab43d6bb410VgnVCM100000171f5a0aRCRD&vgnextoid=f34313db5b71c010VgnVCM1000000b205a0aRCRD;SAN FLORENCIO;CALLE;V;1;;;;;MADRID;MADRID;28038;NUMANCIA;PUENTE DE VALLECAS;443962;4472863;4.040.449.501.144.980;-3.660.403.328.017.800;914 333 865;;;/contenido/entidadesYorganismos/TemplosIglesiasCatolicas; 
3680;Parroquia El Salvador y San Nicolás;;;;Bus: 6, 26, 32, M1 Metro: Antón Martín (línea 1) Bicimad: Estación 41 (calle Atocha, 54);;3;http://www.madrid.es/sites/v/index.jsp?vgnextchannel=bfa48ab43d6bb410VgnVCM100000171f5a0aRCRD&vgnextoid=6cfdef4d7f71c010VgnVCM1000000b205a0aRCRD;ATOCHA;CALLE;V;58;;;;;MADRID;MADRID;28012;EMBAJADORES;CENTRO;440818;4473936;4.041.206.198.418.380;-36.988.294.216.852.500;913 690 579;;sansalvadorysannicolás@archimadrid.es;/contenido/entidadesYorganismos/TemplosIglesiasCatolicas; 
3499;Parroquia Encarnación del Señor;;;;Metro: García Noblejas (línea 7). Bus: 38, 4, 48, 70, 28.;;3;http://www.madrid.es/sites/v/index.jsp?vgnextchannel=bfa48ab43d6bb410VgnVCM100000171f5a0aRCRD&vgnextoid=865313db5b71c010VgnVCM1000000b205a0aRCRD;"INSTITUCION LIBRE DE ENSE&amp;Ntilde;ANZA";AVENIDA;V;49;;;;;MADRID;MADRID;28037;SIMANCAS;SAN BLAS-CANILLEJAS;446405;4475666;4.042.990.697.255.840;-36.318.506.467.724.900;913 040 308;;parroquiaencarnacion@archimadrid.es;/contenido/entidadesYorganismos/TemplosIglesiasCatolicas; 
3502;Parroquia Epifanía del Señor;;;;Metro: Eugenia de Montijo (línea 5). Bus: 17, 35.;;3;http://www.madrid.es/sites/v/index.jsp?vgnextchannel=bfa48ab43d6bb410VgnVCM100000171f5a0aRCRD&vgnextoid=196313db5b71c010VgnVCM1000000b205a0aRCRD;NUESTRA SEÑORA DE LA LUZ;CALLE;V;64;;;;;MADRID;MADRID;28047;VISTA ALEGRE;CARABANCHEL;436508;4470738;40.384.807.971.737.900;-37.480.412.420.331.500;914 616 613;;parroquia.epifania@archimadrid.es;/contenido/entidadesYorganismos/TemplosIglesiasCatolicas; 
3504;Parroquia Espíritu Santo;;;;Bus: 110, 210,106, 146, 38.  Metro: El Carmen (línea 5) .;;3;http://www.madrid.es/sites/v/index.jsp?vgnextchannel=bfa48ab43d6bb410VgnVCM100000171f5a0aRCRD&vgnextoid=3e8313db5b71c010VgnVCM1000000b205a0aRCRD;RICARDO ORTIZ;CALLE;V;1;;;;;MADRID;MADRID;28017;VENTAS;CIUDAD LINEAL;444234;4475721;4.043.025.065.554.580;-36.574.603.020.312.400;917 251 015;;parroespiritusanto@archimadrid.es;/contenido/entidadesYorganismos/TemplosIglesiasCatolicas; 
3505;Parroquia Espíritu Santo y Nuestra Señora de la Araucana;;;;Metro:  Colombia (línea 9)  Bus: 52;;3;http://www.madrid.es/sites/v/index.jsp?vgnextchannel=bfa48ab43d6bb410VgnVCM100000171f5a0aRCRD&vgnextoid=ab7313db5b71c010VgnVCM1000000b205a0aRCRD;PUERTO RICO;CALLE;V;29;;;;;MADRID;MADRID;28016;HISPANOAMERICA;CHAMARTIN;442809;4478673;4.045.675.595.691.310;-367.452.499.541.458;914 579 965 / 914 581 212;;araucana@archimadrid.es;/contenido/entidadesYorganismos/TemplosIglesiasCatolicas; 
3540;Parroquia Hispanoamericana de la Merced;;;;Bus: 5, 149, 3, 43. Metro:  Nuevos Ministerios (líneas 6, 8 y 10).  Cercanías Renfe: Nuevos Ministerios(líneas C3, C4).;;3;http://www.madrid.es/sites/v/index.jsp?vgnextchannel=bfa48ab43d6bb410VgnVCM100000171f5a0aRCRD&vgnextoid=fe0eef4d7f71c010VgnVCM1000000b205a0aRCRD;EDGAR NEVILLE;CALLE;V;23;;;;;MADRID;MADRID;28020;CUATRO CAMINOS;TETUAN;441003;4478087;4.044.947.827.910.870;-36.970.352.082.266.800;915 335 844 / 915 340 629;;parroquia.delamerced@archimadrid.es;/contenido/entidadesYorganismos/TemplosIglesiasCatolicas; 
3544;Parroquia Inmaculada Concepción (El Pardo);;;;Bus:  601, 602.;;3;http://www.madrid.es/sites/v/index.jsp?vgnextchannel=bfa48ab43d6bb410VgnVCM100000171f5a0aRCRD&vgnextoid=812eef4d7f71c010VgnVCM1000000b205a0aRCRD;MANUEL ALONSO;CALLE;V;2;;;;;MADRID;MADRID;28048;EL PARDO;FUENCARRAL-EL PARDO;434193;4485838;40.520.653.260.852.600;-37.768.662.423.327.700;913 760 055;;icpelpardo@archimadrid.es;/contenido/entidadesYorganismos/TemplosIglesiasCatolicas; 
3545;Parroquia Inmaculado Corazón de María;;;;"Metro: Arg&amp;uuml;elles (líneas 3, 4, 6). Bus: 74, 62, 21. Bicimad: Estación 113 (paseo del Pintor Rosales, 38).";;3;http://www.madrid.es/sites/v/index.jsp?vgnextchannel=bfa48ab43d6bb410VgnVCM100000171f5a0aRCRD&vgnextoid=143eef4d7f71c010VgnVCM1000000b205a0aRCRD;FERRAZ;CALLE;V;74;;;;;MADRID;MADRID;28008;ARGUELLES;MONCLOA-ARAVACA;438954;4475596;404.287.628.744.355;-37.196.920.478.784.300;917 589 530;;parcorazon@gmail.com;/contenido/entidadesYorganismos/TemplosIglesiasCatolicas; 
3558;Parroquia Jesús de Nazaret;;;;Bus: 7, 29, 129       Metro: Manoteras (línea 4);;3;http://www.madrid.es/sites/v/index.jsp?vgnextchannel=bfa48ab43d6bb410VgnVCM100000171f5a0aRCRD&vgnextoid=395eef4d7f71c010VgnVCM1000000b205a0aRCRD;CUEVAS DEL ALMANZORA;CALLE;V;18;;;;;MADRID;MADRID;28033;APOSTOL SANTIAGO;HORTALEZA;444129;4480870;4.047.663.737.407.200;-3.659.151.307.753.860;913 024 619 / 913 024 619;;pjn@archimadrid.es;/contenido/entidadesYorganismos/TemplosIglesiasCatolicas; 
3555;Parroquia Jesús Obrero;;;;Metro: Simancas (línea 7). Bus: 109.;;3;http://www.madrid.es/sites/v/index.jsp?vgnextchannel=bfa48ab43d6bb410VgnVCM100000171f5a0aRCRD&vgnextoid=cb6eef4d7f71c010VgnVCM1000000b205a0aRCRD;CASTILLO DE UCLES;CALLE;V;26;;;;;MADRID;MADRID;28037;SIMANCAS;SAN BLAS-CANILLEJAS;446937;4475419;4.042.771.595.638.500;-3.625.558.447.095.080;913 044 109 / 913 405 355;;parrojesusobrero@gmail.com;/contenido/entidadesYorganismos/TemplosIglesiasCatolicas; 
3556;Parroquia Jesús y María;;;;Metro: Aluche (línea 5). Bus: 138, 121, 117, 17. Renfe: Aluche (línea C5).;;3;http://www.madrid.es/sites/v/index.jsp?vgnextchannel=bfa48ab43d6bb410VgnVCM100000171f5a0aRCRD&vgnextoid=5e7eef4d7f71c010VgnVCM1000000b205a0aRCRD;MAQUEDA;CALLE;V;129;;;;;MADRID;MADRID;28024;ALUCHE;LATINA;435390;4471113;4.038.810.017.241.460;-3.761.249.872.255.830;917 177 973;;parroquiajesusymarie@archimadrid.es;/contenido/entidadesYorganismos/TemplosIglesiasCatolicas; 
3462;Parroquia La Cena del Señor;;;;Metro: Antonio Machado (línea 7). Bus: 132, 127, 126.;;3;http://www.madrid.es/sites/v/index.jsp?vgnextchannel=bfa48ab43d6bb410VgnVCM100000171f5a0aRCRD&vgnextoid=c0a313db5b71c010VgnVCM1000000b205a0aRCRD;ANTONIO MACHADO;CALLE;V;24;;;;;MADRID;MADRID;28035;VALDEZARZA;MONCLOA-ARAVACA;439014;4479891;4.046.744.931.105.530;-371.939.710.046.197;913 733 032;;lacena@archimadrid.es;/contenido/entidadesYorganismos/TemplosIglesiasCatolicas; 
3490;Parroquia Los Doce Apóstoles;;;;Metro: Núñez de Balboa (líneas 5 y 9) . Bus: 9, 19, 51. Bicimad: Estación 88 (calle Velázquez, 75).;;3;http://www.madrid.es/sites/v/index.jsp?vgnextchannel=bfa48ab43d6bb410VgnVCM100000171f5a0aRCRD&vgnextoid=e5c313db5b71c010VgnVCM1000000b205a0aRCRD;VELAZQUEZ;CALLE;V;88;;;;;MADRID;MADRID;28006;CASTELLANA;SALAMANCA;442147;4476151;4.043.210.942.547.460;-3.683.368.479.020.080;915 764 549 / 915 769 674;;doceapostoles@archimadrid.es;/contenido/entidadesYorganismos/TemplosIglesiasCatolicas; 
3584;Parroquia Madre del Buen Pastor;;;;Metro: Hospital 12 de Octubre (línea 3). Bus: 23, 78, 123.;;3;http://www.madrid.es/sites/v/index.jsp?vgnextchannel=bfa48ab43d6bb410VgnVCM100000171f5a0aRCRD&vgnextoid=e09eef4d7f71c010VgnVCM1000000b205a0aRCRD;SAN MARIO;CALLE;V;81;;;;;MADRID;MADRID;28041;SAN FERMIN;USERA;441425;4469763;4.037.639.384.878.800;-3.690.026.344.329.710;915 002 466;;parroquiamadredelbuenpastor@hotmail.com;/contenido/entidadesYorganismos/TemplosIglesiasCatolicas; 
3593;Parroquia María Auxiliadora;;;;Metro: Embajadores (línea 3), Estación del Arte (línea 1). Bus: 119, 27, 34, 36, 41, C1, C2. Cercanías Renfe: Embajadores (línea C5), Atocha Renfe (líneas C1, C2, C3, C4, C5 y C10). Bicimad: Estación 49 (ronda de Atocha, 34).;;3;http://www.madrid.es/sites/v/index.jsp?vgnextchannel=bfa48ab43d6bb410VgnVCM100000171f5a0aRCRD&vgnextoid=06beef4d7f71c010VgnVCM1000000b205a0aRCRD;ATOCHA;RONDA;V;25;;;;;MADRID;MADRID;28012;PALOS DE MOGUER;ARGANZUELA;441099;4473183;4.040.718.011.197.080;-36.941.708.773.769.900;915 062 100 / 915 062 119 / 915 062 107;;santuario.atochai@archimadrid.es;/contenido/entidadesYorganismos/TemplosIglesiasCatolicas; 
3603;Parroquia María Inmaculada y Santa Vicenta;;;;Metro: Cuzco (línea 10). Bus: 11, 149. Bicimad: Estación 156 (calle Sor Ángela de la Cruz).;;3;http://www.madrid.es/sites/v/index.jsp?vgnextchannel=bfa48ab43d6bb410VgnVCM100000171f5a0aRCRD&vgnextoid=98ceef4d7f71c010VgnVCM1000000b205a0aRCRD;BRASIL;AVENIDA;V;25;;;;;MADRID;MADRID;28020;CASTILLEJOS;TETUAN;441242;4478873;404.584.483.257.105;-36.930.235.105.410.000;915 556 218;;parrmarinm@archimadrid.es;/contenido/entidadesYorganismos/TemplosIglesiasCatolicas; 
3604;Parroquia María Madre del Amor Hermoso;;;;Bus: 85, 123. Cercanía Renfe: Villaverde Bajo (líneas C3, C4).;;3;http://www.madrid.es/sites/v/index.jsp?vgnextchannel=bfa48ab43d6bb410VgnVCM100000171f5a0aRCRD&vgnextoid=2bdeef4d7f71c010VgnVCM1000000b205a0aRCRD;VICENTE CARBALLAL;CALLE;V;11;;;;;MADRID;MADRID;28021;BUTARQUE;VILLAVERDE;442098;4467198;4.035.333.390.565.560;-36.818.542.661.914.000;917 967 276;;madreamorhermoso@archimadrid.es;/contenido/entidadesYorganismos/TemplosIglesiasCatolicas; 
3609;Parroquia María Mediadora;;;;Metro: Miguel Hernández (línea 1). Bus: 144, 103, 143, 142, 54, 58.;;3;http://www.madrid.es/sites/v/index.jsp?vgnextchannel=bfa48ab43d6bb410VgnVCM100000171f5a0aRCRD&vgnextoid=bdeeef4d7f71c010VgnVCM1000000b205a0aRCRD;RAFAEL ALBERTI;AVENIDA;V;25;BAJO;;;;MADRID;MADRID;28018;PALOMERAS SURESTE;PUENTE DE VALLECAS;445619;4470878;4.038.672.277.856.080;-36.407.073.669.949.200;913 034 496;;pamame@archimadrid.es;/contenido/entidadesYorganismos/TemplosIglesiasCatolicas; 
3617;Parroquia María Reina;;;;Metro: Portazgo (línea 1). Bus: 103, 136, 54, 58.;;3;http://www.madrid.es/sites/v/index.jsp?vgnextchannel=bfa48ab43d6bb410VgnVCM100000171f5a0aRCRD&vgnextoid=400fef4d7f71c010VgnVCM1000000b205a0aRCRD;PICO DE LA MALICIOSA;CALLE;V;5;;;;;MADRID;MADRID;28038;NUMANCIA;PUENTE DE VALLECAS;444233;4471656;40.393.630.768.528.100;-36.571.157.825.001.500;914 780 996;;;/contenido/entidadesYorganismos/TemplosIglesiasCatolicas; 
3450;Parroquia María Reina y San Buenaventura;;;;Bus: 141.   Metro: Nueva Numancia (línea 1).;;3;http://www.madrid.es/sites/v/index.jsp?vgnextchannel=bfa48ab43d6bb410VgnVCM100000171f5a0aRCRD&vgnextoid=8af713db5b71c010VgnVCM1000000b205a0aRCRD;LOPEZ GRASS;CALLE;V;44;;;;;MADRID;MADRID;28038;NUMANCIA;PUENTE DE VALLECAS;444194;4472324;40.397.773.872.070.300;-3.658.888.260.291.090;914 302 531;;;/contenido/entidadesYorganismos/TemplosIglesiasCatolicas; 
59882;Parroquia María Virgen Madre;;;;Bus: 112, 122, 153 Metro: Canillas (línea 4);;3;http://www.madrid.es/sites/v/index.jsp?vgnextchannel=bfa48ab43d6bb410VgnVCM100000171f5a0aRCRD&vgnextoid=3c558ed67151c010VgnVCM2000000c205a0aRCRD;MACHUPICHU;AVENIDA;V;50;;;;;MADRID;MADRID;28043;PIOVERA;HORTALEZA;446479;4479108;4.046.091.920.011.020;-3.631.268.315.627.040;913 882 341;;parroquiamariavirgenmadre@archimadrid.es;/contenido/entidadesYorganismos/TemplosIglesiasCatolicas; 
3632;Parroquia Natividad de Nuestra Señora;;;;Bus: 71, 32  Metro: Vinateros (línea 9);;3;http://www.madrid.es/sites/v/index.jsp?vgnextchannel=bfa48ab43d6bb410VgnVCM100000171f5a0aRCRD&vgnextoid=d21fef4d7f71c010VgnVCM1000000b205a0aRCRD;MARROQUINA;CALLE;V;41;;;;;MADRID;MADRID;28030;MARROQUINA;MORATALAZ;444908;4473206;4.040.763.908.414.180;-3.649.285.083.788.040;914 390 215;;parroquialanatividad@archimadrid.es;/contenido/entidadesYorganismos/TemplosIglesiasCatolicas; 
3586;Parroquia Nuestra Madre del Dolor;;;;Bus: 74.  Metro: Ventas (líneas 2 y 5). Bicimad: Estación 193 (avenida de los Toreros, 49).;;3;http://www.madrid.es/sites/v/index.jsp?vgnextchannel=bfa48ab43d6bb410VgnVCM100000171f5a0aRCRD&vgnextoid=652fef4d7f71c010VgnVCM1000000b205a0aRCRD;TOREROS;AVENIDA;V;45;;;;;MADRID;MADRID;28028;GUINDALERA;SALAMANCA;443455;4475970;4.043.244.118.606.630;-3.666.665.822.126.940;917 256 272;;madredeldolor@archimadrid.es;/contenido/entidadesYorganismos/TemplosIglesiasCatolicas; 
3403;Parroquia Nuestra Señora de África;;;;Metro: Urgel (líneas 5). Bus: 119.;;3;http://www.madrid.es/sites/v/index.jsp?vgnextchannel=bfa48ab43d6bb410VgnVCM100000171f5a0aRCRD&vgnextoid=78d313db5b71c010VgnVCM1000000b205a0aRCRD;ALGORTA;CALLE;V;14;;;;;MADRID;MADRID;28019;SAN ISIDRO;CARABANCHEL;438039;4471547;4.039.222.009.520.400;-37.300.839.992.650.900;913 359 255;;parroquia.africa@archimadrid.es;/contenido/entidadesYorganismos/TemplosIglesiasCatolicas; 
3410;Parroquia Nuestra Señora de Altagracia;;;;Bus: 128.  Metro: Valdezarza (línea 7).;;3;http://www.madrid.es/sites/v/index.jsp?vgnextchannel=bfa48ab43d6bb410VgnVCM100000171f5a0aRCRD&vgnextoid=0be313db5b71c010VgnVCM1000000b205a0aRCRD;AZUAGA;CALLE;V;15;;;;;MADRID;MADRID;28039;VALDEZARZA;MONCLOA-ARAVACA;439810;4479699;40.463.905.118.155.400;-37.112.559.895.927.300;914 509 421;;altagracia@archimadrid.es;/contenido/entidadesYorganismos/TemplosIglesiasCatolicas; 
3427;Parroquia Nuestra Señora de Aránzazu;;;;Metro: Francos Rodríguez (línea 7). Bus: 132, 126, 127, 44, 128.;;3;http://www.madrid.es/sites/v/index.jsp?vgnextchannel=bfa48ab43d6bb410VgnVCM100000171f5a0aRCRD&vgnextoid=201413db5b71c010VgnVCM1000000b205a0aRCRD;JOSE ROMERO;CALLE;V;5;;;;;MADRID;MADRID;28039;VALDEZARZA;MONCLOA-ARAVACA;439738;4479005;4.045.952.079.057.520;-37.107.615.595.869.700;914 503 992 / 914 509 750;;nsdearanzazu@archimadrid.es;/contenido/entidadesYorganismos/TemplosIglesiasCatolicas; 
3439;Parroquia Nuestra Señora de Begoña;;;;Metro: Begoña (línea 10). Bus: 124, 135, 137.;;3;http://www.madrid.es/sites/v/index.jsp?vgnextchannel=bfa48ab43d6bb410VgnVCM100000171f5a0aRCRD&vgnextoid=453413db5b71c010VgnVCM1000000b205a0aRCRD;MARCOS DE ORUETA;CALLE;V;15;;;;C;MADRID;MADRID;28034;VALVERDE;FUENCARRAL-EL PARDO;441770;4481799;4.048.483.511.396.780;-3.687.065.035.609.150;913 582 856 / 913 582 763;;jperalbo@yahoo.es;/contenido/entidadesYorganismos/TemplosIglesiasCatolicas; 
3440;Parroquia Nuestra Señora de Belén;;;;Metro: Estrella (línea 9) Bus: 20, 113, 8;;3;http://www.madrid.es/sites/v/index.jsp?vgnextchannel=bfa48ab43d6bb410VgnVCM100000171f5a0aRCRD&vgnextoid=d74413db5b71c010VgnVCM1000000b205a0aRCRD;CORREGIDOR RODRIGO RODRIGUEZ;CALLE;V;12;;;;;MADRID;MADRID;28030;MEDIA LEGUA;MORATALAZ;444245;4473465;4.040.805.601.523.500;-3.658.399.250.161.940;914 390 881;;nsbelen@archimadrid.es;/contenido/entidadesYorganismos/TemplosIglesiasCatolicas; 
3470;Parroquia Nuestra Señora de Covadonga;;;;Bus: 143, 156, 110, 38, 12, 210, 43, 56, C1, C2, 106, 146, 21, 53, 48, 2, 71, 1, 74.  Metro: Manuel Becerra (líneas 2 y 6). Bicimad: Estación 145 (calle Ortega y Gasset, 87).;;3;http://www.madrid.es/sites/v/index.jsp?vgnextchannel=bfa48ab43d6bb410VgnVCM100000171f5a0aRCRD&vgnextoid=6a5413db5b71c010VgnVCM1000000b205a0aRCRD;FRANCISCO SILVELA;CALLE;V;2;;;;;MADRID;MADRID;28028;GUINDALERA;SALAMANCA;443355;4475778;4.042.883.255.368.320;-3.669.094.104.747.930;917 252 032;;parroquiacovadonga@gmail.com;/contenido/entidadesYorganismos/TemplosIglesiasCatolicas; 
3511;Parroquia Nuestra Señora de Europa;;;;Bus: 62.  Metro: Acacias (línea 5), Pirámides (línea 5). Cercanías Renfe: Pirámides (líneas C1, C7, C10).;;3;http://www.madrid.es/sites/v/index.jsp?vgnextchannel=bfa48ab43d6bb410VgnVCM100000171f5a0aRCRD&vgnextoid=fc6413db5b71c010VgnVCM1000000b205a0aRCRD;JUAN ANTONIO VALLEJO-NAJERA BOTAS;PASEO;V;23;;;;;MADRID;MADRID;28005;ACACIAS;ARGANZUELA;439998;4472568;40.401.561.268.022.900;-37.070.876.793.777.000;914 748 843;;postmaster@parroquia-ns-europa.com;/contenido/entidadesYorganismos/TemplosIglesiasCatolicas; 
3536;Parroquia Nuestra Señora de Guadalupe;;;;Metro:  Concha Espina (línea 9) Bus: 43, 52, 120;;3;http://www.madrid.es/sites/v/index.jsp?vgnextchannel=bfa48ab43d6bb410VgnVCM100000171f5a0aRCRD&vgnextoid=f73fef4d7f71c010VgnVCM1000000b205a0aRCRD;PUERTO RICO;CALLE;V;1;;;;;MADRID;MADRID;28016;HISPANOAMERICA;CHAMARTIN;442788;4478193;4.045.242.150.757.440;-36.747.175.156.984.500;914 570 039 / 914 575 228;;;/contenido/entidadesYorganismos/TemplosIglesiasCatolicas; 
3434;Parroquia Nuestra Señora de la Aurora y Santo Ángel;;;;Bus: 24, 10, 111, 310. Metro: Nueva Numancia (línea 1).;;3;http://www.madrid.es/sites/v/index.jsp?vgnextchannel=bfa48ab43d6bb410VgnVCM100000171f5a0aRCRD&vgnextoid=8f7413db5b71c010VgnVCM1000000b205a0aRCRD;GREGORIO SANZ;CALLE;V;8;;;;;MADRID;MADRID;28053;SAN DIEGO;PUENTE DE VALLECAS;443281;4471521;40.392.350.323.611.500;-36.683.204.818.956.800;914 774 456 / 914 775 923;;nsauroraysaguarda@archimadrid.es;/contenido/entidadesYorganismos/TemplosIglesiasCatolicas; 
3466;Parroquia Nuestra Señora de la Concepción (Pueblo Nuevo);;;;Metro: Ciudad Lineal (línea 5). Bus: 48, 70, 104, 109, 113, 4, 77, 105, 38.;;3;http://www.madrid.es/sites/v/index.jsp?vgnextchannel=bfa48ab43d6bb410VgnVCM100000171f5a0aRCRD&vgnextoid=129413db5b71c010VgnVCM1000000b205a0aRCRD;ARTURO SORIA;CALLE;V;5;;;;;MADRID;MADRID;28027;QUINTANA;CIUDAD LINEAL;445821;4476632;40.438.562.339.326.900;-36.388.292.850.809.100;913 674 016;;concepcionpn@archimadrid.es;/contenido/entidadesYorganismos/TemplosIglesiasCatolicas; 
3467;Parroquia Nuestra Señora de la Consolación;;;;Bus: 215 Metro: Sainz de Baranda (líneas 6 y 9);;3;http://www.madrid.es/sites/v/index.jsp?vgnextchannel=bfa48ab43d6bb410VgnVCM100000171f5a0aRCRD&vgnextoid=a4a413db5b71c010VgnVCM1000000b205a0aRCRD;JUAN ESPLANDIU;CALLE;V;2;;;;C;MADRID;MADRID;28007;ESTRELLA;RETIRO;443728;4474136;4.041.594.712.272.740;-36.632.734.049.052.000;915 749 281 / 915 042 800;;par.consolacion@archimadrid.es;/contenido/entidadesYorganismos/TemplosIglesiasCatolicas; 
3507;Parroquia Nuestra Señora de la Estrella;;;;Bus: 32, 56, 143, 156, 14, 145, 63, E  Metro: Conde de Casal (línea 6) Bicimad: Estación 82 (calle Doctor Esquerdo, 161);;3;http://www.madrid.es/sites/v/index.jsp?vgnextchannel=bfa48ab43d6bb410VgnVCM100000171f5a0aRCRD&vgnextoid=37b413db5b71c010VgnVCM1000000b205a0aRCRD;LIRA;CALLE;V;4;;;;;MADRID;MADRID;28007;ESTRELLA;RETIRO;443191;4473294;4.040.831.636.998.830;-3.669.539.085.165.390;915 041 284;;parroquiadelaestrella@archimadrid.es;/contenido/entidadesYorganismos/TemplosIglesiasCatolicas; 
3527;Parroquia Nuestra Señora de la Fuencisla;;;;Metro: Almendrales (línea 3).   Bus: 18, 22, 59, 76, 79, 85, 86, 6, 78.;;3;http://www.madrid.es/sites/v/index.jsp?vgnextchannel=bfa48ab43d6bb410VgnVCM100000171f5a0aRCRD&vgnextoid=c9c413db5b71c010VgnVCM1000000b205a0aRCRD;ANGELICA SEÑORA;PLAZA;V;1;;;;;MADRID;MADRID;28026;ALMENDRALES;USERA;440716;4470539;4.038.332.533.256.060;-36.984.498.911.589.000;914 765 727;;pnssoledad@archimadrid.es;/contenido/entidadesYorganismos/TemplosIglesiasCatolicas; 
3535;Parroquia Nuestra Señora de la Granada;;;;Metro: Alsacia (línea 2).  Bus:  106, 70, 38, 4, 48.;;3;http://www.madrid.es/sites/v/index.jsp?vgnextchannel=bfa48ab43d6bb410VgnVCM100000171f5a0aRCRD&vgnextoid=8a4fef4d7f71c010VgnVCM1000000b205a0aRCRD;VILLASILOS;CALLE;V;3;;;;;MADRID;MADRID;28017;PUEBLO NUEVO;CIUDAD LINEAL;446634;4474720;4.042.139.055.687.810;-36.290.715.518.506.200;913 043 400;;nslagranada@gmail.com;/contenido/entidadesYorganismos/TemplosIglesiasCatolicas; 
3537;Parroquia Nuestra Señora de la Guía;;;;Metro: Begoña (línea 10)  Bus: 66, SE70, 173, 174, 176, 175, 178, 124, 134, 135, 67;;3;http://www.madrid.es/sites/v/index.jsp?vgnextchannel=bfa48ab43d6bb410VgnVCM100000171f5a0aRCRD&vgnextoid=1d5fef4d7f71c010VgnVCM1000000b205a0aRCRD;CONDE DE TORRALBA;CALLE;V;18;;;;;MADRID;MADRID;28046;CASTILLA;CHAMARTIN;441899;4480889;4.047.665.558.059.810;-3.685.447.979.564.620;913 235 137 / 913 235 137;;nuestrasenoradelaguia@archimadrid.es;/contenido/entidadesYorganismos/TemplosIglesiasCatolicas; 
3583;Parroquia Nuestra Señora de la Luz;;;;Bus: 40 Metro: Avenida de la Paz (línea 4);;3;http://www.madrid.es/sites/v/index.jsp?vgnextchannel=bfa48ab43d6bb410VgnVCM100000171f5a0aRCRD&vgnextoid=af6fef4d7f71c010VgnVCM1000000b205a0aRCRD;FERNAN NUÑEZ;CALLE;V;4;;;;;MADRID;MADRID;28016;HISPANOAMERICA;CHAMARTIN;443355;4478702;4.045.705.459.870.030;-3.668.088.452.254.940;913 504 574;;laluz@archimadrid.es;/contenido/entidadesYorganismos/TemplosIglesiasCatolicas; 
3636;Parroquia Nuestra Señora de la Merced;;;;Metro: Artilleros (línea 9) Bus: 8, 20;;3;http://www.madrid.es/sites/v/index.jsp?vgnextchannel=bfa48ab43d6bb410VgnVCM100000171f5a0aRCRD&vgnextoid=328fef4d7f71c010VgnVCM1000000b205a0aRCRD;CORREGIDOR JUAN FRANCISCO DE LUJAN;CALLE;V;101;;;;;MADRID;MADRID;28030;FONTARRON;MORATALAZ;445257;4472569;4.040.192.362.979.380;-36.451.174.140.611.600;917 739 829;;nuestrasenoradelamercer@archimadrid,es;/contenido/entidadesYorganismos/TemplosIglesiasCatolicas; 
3628;Parroquia Nuestra Señora de la Misericordia;;;;Metro: Buenos Aires (línea 1). Bus: 10, 103.;;3;http://www.madrid.es/sites/v/index.jsp?vgnextchannel=bfa48ab43d6bb410VgnVCM100000171f5a0aRCRD&vgnextoid=c49fef4d7f71c010VgnVCM1000000b205a0aRCRD;ARROYO DEL OLIVAR;CALLE;V;100;;;;;MADRID;MADRID;28018;PALOMERAS BAJAS;PUENTE DE VALLECAS;444132;4471308;40.390.498.084.308.700;-36.582.635.717.212.400;917 773 597;;nsmisericordia@archimadrid.es;/contenido/entidadesYorganismos/TemplosIglesiasCatolicas; 
3630;Parroquia Nuestra Señora de la Montaña;;;;Metro: Vinateros (línea 9) Bus: 71;;3;http://www.madrid.es/sites/v/index.jsp?vgnextchannel=bfa48ab43d6bb410VgnVCM100000171f5a0aRCRD&vgnextoid=57afef4d7f71c010VgnVCM1000000b205a0aRCRD;CORREGIDOR JOSE DE PASAMONTE;CALLE;V;15;;;;;MADRID;MADRID;28030;MARROQUINA;MORATALAZ;445070;4473706;4.041.028.203.945.750;-3.648.697.619.851.560;913 282 981;;pamontan@archimadrid.es;/contenido/entidadesYorganismos/TemplosIglesiasCatolicas; 
18323;Parroquia Nuestra Señora de la Palabra;Su actividad pastoral la realiza junto a Santa María del Camino;;;Metro: Pavones (línea 9)   Bus: 20, 30, 32, 71;;3;http://www.madrid.es/sites/v/index.jsp?vgnextchannel=bfa48ab43d6bb410VgnVCM100000171f5a0aRCRD&vgnextoid=610a444a2951c010VgnVCM2000000c205a0aRCRD;VALDEBERNARDO;CALLE;V;29;;;;;MADRID;MADRID;28030;PAVONES;MORATALAZ;446378;4472549;4.040.182.534.803.040;-36.319.179.727.289.900;917 721 569;;smcaminoynspalabra@archimadrid.es;/contenido/entidadesYorganismos/TemplosIglesiasCatolicas; 
3640;Parroquia Nuestra Señora de la Paz;;;;Metro: Pacífico (líneas 1 y 6), Menendez Pelayo (línea 1), Conde de Casal (línea 6). Bus: 10, 141, 24, 37, 54, 57, 14, 32, 63.;;3;http://www.madrid.es/sites/v/index.jsp?vgnextchannel=bfa48ab43d6bb410VgnVCM100000171f5a0aRCRD&vgnextoid=e9bfef4d7f71c010VgnVCM1000000b205a0aRCRD;VALDERRIBAS;CALLE;V;37;;;;;MADRID;MADRID;28007;PACIFICO;RETIRO;442731;4473120;40.404.845.091.517.300;-36.762.102.912.144.000;915 514 817;;paz@archimadrid.es;/contenido/entidadesYorganismos/TemplosIglesiasCatolicas; 
3647;Parroquia Nuestra Señora de la Peña y San Felipe Neri;;;;Metro: Nueva Numancia (línea 1).;;3;http://www.madrid.es/sites/v/index.jsp?vgnextchannel=bfa48ab43d6bb410VgnVCM100000171f5a0aRCRD&vgnextoid=7ccfef4d7f71c010VgnVCM1000000b205a0aRCRD;PUERTO DE CANFRANC;CALLE;V;19;;;;;MADRID;MADRID;28038;NUMANCIA;PUENTE DE VALLECAS;443722;4472086;40.397.479.094.982.800;-3.663.174.621.176.330;913 284 530;;nspneri@archimadrid.es;/contenido/entidadesYorganismos/TemplosIglesiasCatolicas; 
3649;Parroquia Nuestra Señora de la Piedad;;;;Bus: 10, 57, 103, 310.;;3;http://www.madrid.es/sites/v/index.jsp?vgnextchannel=bfa48ab43d6bb410VgnVCM100000171f5a0aRCRD&vgnextoid=0fdfef4d7f71c010VgnVCM1000000b205a0aRCRD;ANTONIO FOLGUERAS;CALLE;V;24;;;;;MADRID;MADRID;28018;PALOMERAS BAJAS;PUENTE DE VALLECAS;443851;4471192;40.389.425.117.562.900;-36.615.757.072.519.300;914 783 737;;;/contenido/entidadesYorganismos/TemplosIglesiasCatolicas; 
3685;Parroquia Nuestra Señora de la Soledad;;;;Metro: Almendrales (línea 3) . Bus: 6, 78.;;3;http://www.madrid.es/sites/v/index.jsp?vgnextchannel=bfa48ab43d6bb410VgnVCM100000171f5a0aRCRD&vgnextoid=91ffef4d7f71c010VgnVCM1000000b205a0aRCRD;VISITACION;CALLE;V;1;;;;;MADRID;MADRID;28026;ALMENDRALES;USERA;440419;4470480;4.038.278.165.234.560;-3.701.943.242.826.910;917 924 245;;pnssoledad@archimadrid.es;/contenido/entidadesYorganismos/TemplosIglesiasCatolicas; 
3696;Parroquia Nuestra Señora de la Vega;;;;Metro: Peñagrande (Línea 7). Bus: 42, 126, 49, 128.;;3;http://www.madrid.es/sites/v/index.jsp?vgnextchannel=bfa48ab43d6bb410VgnVCM100000171f5a0aRCRD&vgnextoid=2400ef4d7f71c010VgnVCM1000000b205a0aRCRD;CHANTADA;CALLE;V;28;;;;;MADRID;MADRID;28029;EL PILAR;FUENCARRAL-EL PARDO;439615;4480550;4.047.342.973.121.860;-3.712.371.011.419.380;917 383 506;;parroquia.vega@gmail.com;/contenido/entidadesYorganismos/TemplosIglesiasCatolicas; 
3413;Parroquia Nuestra Señora de las Américas;;;;Bus: 153 Metro: Canillejas (línea 5);;3;http://www.madrid.es/sites/v/index.jsp?vgnextchannel=bfa48ab43d6bb410VgnVCM100000171f5a0aRCRD&vgnextoid=5cd413db5b71c010VgnVCM1000000b205a0aRCRD;ESPIREA;CALLE;V;1;;;;y 3;MADRID;MADRID;28042;PALOMAS;HORTALEZA;447554;4477991;4.045.091.617.161.170;-3.618.497.275.627.040;917 412 898;;nuestrasradelasamericas@archimadrid.es;/contenido/entidadesYorganismos/TemplosIglesiasCatolicas; 
3420;Parroquia Nuestra Señora de las Angustias;;;;Metro: Palos de la Frontera (línea 3), Atocha-Renfe (línea 1). Bus: 27, 102, 247, 8, 55, 47. Cercanías Renfe: Atocha (C1, C2, C3, C4, C5, C7, C8, C10).;;3;http://www.madrid.es/sites/v/index.jsp?vgnextchannel=bfa48ab43d6bb410VgnVCM100000171f5a0aRCRD&vgnextoid=eee413db5b71c010VgnVCM1000000b205a0aRCRD;RAFAEL DE RIEGO;CALLE;V;16;;;;;MADRID;MADRID;28045;PALOS DE MOGUER;ARGANZUELA;441373;4473101;40.404.570.222.656;-36.922.113.517.835.200;914 678 126;;nsangustias@archimadrid.es;/contenido/entidadesYorganismos/TemplosIglesiasCatolicas; 
3487;Parroquia Nuestra Señora de las Delicias;;;;Metro: Delicias (línea 3). Bus: 19, 47, 59, 86, 247, 45, 85. Cercanías Renfe: Delicias (C1, C7, C10).;;3;http://www.madrid.es/sites/v/index.jsp?vgnextchannel=bfa48ab43d6bb410VgnVCM100000171f5a0aRCRD&vgnextoid=710513db5b71c010VgnVCM1000000b205a0aRCRD;DELICIAS;PASEO;V;61;;;;;MADRID;MADRID;28045;DELICIAS;ARGANZUELA;441124;4472418;40.400.281.290.485.500;-3.693.817.192.160.560;915 392 036;;parroquiadelicias@hotmail.com;/contenido/entidadesYorganismos/TemplosIglesiasCatolicas; 
3528;Parroquia Nuestra Señora de las Fuentes;;;;Metro: Barrio del Pilar (línea 9). Bus: 134, 137.;;3;http://www.madrid.es/sites/v/index.jsp?vgnextchannel=bfa48ab43d6bb410VgnVCM100000171f5a0aRCRD&vgnextoid=041513db5b71c010VgnVCM1000000b205a0aRCRD;VILLA DE MARIN;CALLE;V;39;;;;;MADRID;MADRID;28029;LA PAZ;FUENCARRAL-EL PARDO;440761;4481136;40.478.791.247.256.000;-3.698.895.603.938.760;913 147 361;;parroquialsfts@archimadrid.es;/contenido/entidadesYorganismos/TemplosIglesiasCatolicas; 
3633;Parroquia Nuestra Señora de las Nieves;;;;Bus: 133.;;3;http://www.madrid.es/sites/v/index.jsp?vgnextchannel=bfa48ab43d6bb410VgnVCM100000171f5a0aRCRD&vgnextoid=b610ef4d7f71c010VgnVCM1000000b205a0aRCRD;NURIA;CALLE;V;47;;;;;MADRID;MADRID;28034;MIRASIERRA;FUENCARRAL-EL PARDO;440252;4482540;4.049.140.244.900.580;-37.050.444.338.904.100;917 345 210;;parroquianieves@archimadrid.es;/contenido/entidadesYorganismos/TemplosIglesiasCatolicas; 
59885;Parroquia Nuestra Señora de las Rosas;;;;Metro: Las Rosas (línea 2). Bus: 38, 140, 153.;;3;http://www.madrid.es/sites/v/index.jsp?vgnextchannel=bfa48ab43d6bb410VgnVCM100000171f5a0aRCRD&vgnextoid=51858ed67151c010VgnVCM2000000c205a0aRCRD;SUECIA;CALLE;V;44;3ª;C;;;MADRID;MADRID;28022;ROSAS;SAN BLAS-CANILLEJAS;448778;4475076;4.042.474.138.741.860;-36.038.284.716.396.200;917 600 847;;parroquia_rosas@adsis.org;/contenido/entidadesYorganismos/TemplosIglesiasCatolicas; 
3699;Parroquia Nuestra Señora de las Victorias;;;;Metro: Valdeacederas (línea 1). Bus: 49, 11, 124, 66.;;3;http://www.madrid.es/sites/v/index.jsp?vgnextchannel=bfa48ab43d6bb410VgnVCM100000171f5a0aRCRD&vgnextoid=4920ef4d7f71c010VgnVCM1000000b205a0aRCRD;AZUCENAS;CALLE;V;34;;;;;MADRID;MADRID;28039;VALDEACEDERAS;TETUAN;440644;4479482;4.046.388.293.930.120;-37.001.328.900.210.600;915 791 418;;lasvictorias@archimadrid.es;/contenido/entidadesYorganismos/TemplosIglesiasCatolicas; 
3378;Parroquia Nuestra Señora de Loreto;;;;Bus: 105, 115, 166 Metro: Barajas (línea 9);;3;http://www.madrid.es/sites/v/index.jsp?vgnextchannel=bfa48ab43d6bb410VgnVCM100000171f5a0aRCRD&vgnextoid=962513db5b71c010VgnVCM1000000b205a0aRCRD;ALAS;CALLE;V;21;;;;;MADRID;MADRID;28042;TIMON;BARAJAS;450536;4480397;40.472.782.707.983.800;-3.583.519.841.567.790;913 010 183;;parroquialoreto@archimadrid.es;/contenido/entidadesYorganismos/TemplosIglesiasCatolicas; 
3406;Parroquia Nuestra Señora de los Álamos;;;;"Metro: Miguel Hernández (l&amp;igrave;nea 1). Bus: 103, 142, 143, 54, 58, 144.";;3;http://www.madrid.es/sites/v/index.jsp?vgnextchannel=bfa48ab43d6bb410VgnVCM100000171f5a0aRCRD&vgnextoid=293513db5b71c010VgnVCM1000000b205a0aRCRD;LEON FELIPE;CALLE;V;1;;;;;MADRID;MADRID;28038;PALOMERAS SURESTE;PUENTE DE VALLECAS;445882;4471065;40.388.415.511.526.400;-36.376.247.314.054.800;913 801 819;;nsalamos@telefonica.net;/contenido/entidadesYorganismos/TemplosIglesiasCatolicas; 
3419;Parroquia Nuestra Señora de los Ángeles;;;;Metro: Cuatro Caminos (línea 1, 2 y 6). Bus: 149, 3, 45, 37, F, 127, C1, 124, C2, 128, 64, 66. Bicimad: Estación 132 (calle Santa Engracia, 168).;;3;http://www.madrid.es/sites/v/index.jsp?vgnextchannel=bfa48ab43d6bb410VgnVCM100000171f5a0aRCRD&vgnextoid=bb4513db5b71c010VgnVCM1000000b205a0aRCRD;BRAVO MURILLO;CALLE;V;93;;;;;MADRID;MADRID;28003;VALLEHERMOSO;CHAMBERI;440283;4477480;4.044.582.194.466.380;-3.704.249.536.061.220;915 334 343;;nsdelosangeles@archimadrid.es;/contenido/entidadesYorganismos/TemplosIglesiasCatolicas; 
3426;Parroquia Nuestra Señora de los Apóstoles;;;;Metro: Pavones (línea 9), Artilleros (línea 9) Bus: 32, 71;;3;http://www.madrid.es/sites/v/index.jsp?vgnextchannel=bfa48ab43d6bb410VgnVCM100000171f5a0aRCRD&vgnextoid=4e5513db5b71c010VgnVCM1000000b205a0aRCRD;LUIS DE HOYOS SAINZ;CALLE;V;94;;BIS;;;MADRID;MADRID;28030;VINATEROS;MORATALAZ;445926;4472692;4.040.308.441.341.840;-36.372.446.005.644.700;913 714 411;;nsapostoles@archimadrid.es;/contenido/entidadesYorganismos/TemplosIglesiasCatolicas; 
3488;Parroquia Nuestra Señora de los Desamparados y San Lucas;;;;Metro: San Cristóbal (línea 3). Bus: 59, 79.;;3;http://www.madrid.es/sites/v/index.jsp?vgnextchannel=bfa48ab43d6bb410VgnVCM100000171f5a0aRCRD&vgnextoid=d07513db5b71c010VgnVCM1000000b205a0aRCRD;PINAZO;PLAZA;V;8;;;;;MADRID;MADRID;28021;SAN CRISTOBAL;VILLAVERDE;441333;4466023;4.034.269.836.877.540;-3.690.748.444.170.570;917 950 874;;unidadpastoralsancristobal@archimadrid.es;/contenido/entidadesYorganismos/TemplosIglesiasCatolicas; 
3400;Parroquia Nuestra Señora de los Dolores;;;;Metro: San Bernardo (líneas 2 y 4), Quevedo (línea 2), Bilbao (línea 1, 4). Bus: 37, 149, 3, 147. Bicimad: Estación 3 (plaza del Conde Suchil 2-4).;;3;http://www.madrid.es/sites/v/index.jsp?vgnextchannel=bfa48ab43d6bb410VgnVCM100000171f5a0aRCRD&vgnextoid=638513db5b71c010VgnVCM1000000b205a0aRCRD;SAN BERNARDO;CALLE;V;103;;;;;MADRID;MADRID;28015;ARAPILES;CHAMBERI;440273;4476060;4.043.115.695.362.470;-37.054.523.141.302.100;914 454 922 (despacho) / 915 938 245 (sacristía);;virgendelosdolores@archimadrid.es;/contenido/entidadesYorganismos/TemplosIglesiasCatolicas; 
3582;Parroquia Nuestra Señora de Luján;;;;Metro: Peñagrande (línea 7). Bus: 42, 126, 147, 49, 128, 132, 137.;;3;http://www.madrid.es/sites/v/index.jsp?vgnextchannel=bfa48ab43d6bb410VgnVCM100000171f5a0aRCRD&vgnextoid=6e40ef4d7f71c010VgnVCM1000000b205a0aRCRD;PONFERRADA;CALLE;V;49;;;;;MADRID;MADRID;28029;EL PILAR;FUENCARRAL-EL PARDO;439586;4480840;4.047.604.004.759.660;-3.712.740.722.111.240;913 860 478;;lujan@archimadrid.es;/contenido/entidadesYorganismos/TemplosIglesiasCatolicas; 
3587;Parroquia Nuestra Señora de Madrid;;;;Metro: Plaza de Castilla (líneas 1, 9 y 10), Chamartín (línea 1, 10). Bus: 177, 124, 134, 135, 147, 173, 175, 176, 178, 67, 107, 66, 174, T62. Renfe: Chamartín (C1, C2, C3, C4, C7, C8, C10).;;3;http://www.madrid.es/sites/v/index.jsp?vgnextchannel=bfa48ab43d6bb410VgnVCM100000171f5a0aRCRD&vgnextoid=f060ef4d7f71c010VgnVCM1000000b205a0aRCRD;CASTELLANA;PASEO;V;207;;;;;MADRID;MADRID;28046;ALMENARA;TETUAN;441602;4480125;4.046.974.331.401.810;-36.888.811.723.416.300;913 152 018;;lamadonademadrid@archimadrid.es;/contenido/entidadesYorganismos/TemplosIglesiasCatolicas; 
3631;Parroquia Nuestra Señora de Moratalaz;;;;Bus: 20, 30, 113   Metro: Vinateros (línea 9);;3;http://www.madrid.es/sites/v/index.jsp?vgnextchannel=bfa48ab43d6bb410VgnVCM100000171f5a0aRCRD&vgnextoid=8370ef4d7f71c010VgnVCM1000000b205a0aRCRD;ENTRE ARROYOS;CALLE;V;19;;;;;MADRID;MADRID;28030;MEDIA LEGUA;MORATALAZ;444463;4473316;40.408.600.459.377.900;-36.545.388.944.947.900;914 390 732;;;/contenido/entidadesYorganismos/TemplosIglesiasCatolicas; 
3686;Parroquia Nuestra Señora de Sonsoles;;;;Metro: Quintana (línea 5). Bus: 109.;;3;http://www.madrid.es/sites/v/index.jsp?vgnextchannel=bfa48ab43d6bb410VgnVCM100000171f5a0aRCRD&vgnextoid=1680ef4d7f71c010VgnVCM1000000b205a0aRCRD;TIMOTEO DOMINGO;CALLE;V;38;;;;;MADRID;MADRID;28017;PUEBLO NUEVO;CIUDAD LINEAL;445334;4475975;4.043.262.085.711.330;-36.445.146.633.230.400;913 675 693;;despacho@parroquiasonsoles.com;/contenido/entidadesYorganismos/TemplosIglesiasCatolicas; 
3405;Parroquia Nuestra Señora del Aire;;;;Bus: 34, 155.;;3;http://www.madrid.es/sites/v/index.jsp?vgnextchannel=bfa48ab43d6bb410VgnVCM100000171f5a0aRCRD&vgnextoid=ea853d232e91f010VgnVCM1000000b205a0aRCRD;MAESTRA JUSTA FREIRE;CALLE;V;72;;;;;MADRID;MADRID;28044;LAS AGUILAS;LATINA;435006;4469533;4.037.384.611.247.720;-3.765.600.966.674.100;917 055 400;;;/contenido/entidadesYorganismos/TemplosIglesiasCatolicas; 
3351;Parroquia Nuestra Señora del Buen Consejo y San Isidro;;;;Metro: La Latina (línea 5), Tirso de Molina (línea 1) Bus: 17, 18, 23, 35;;3;http://www.madrid.es/sites/v/index.jsp?vgnextchannel=bfa48ab43d6bb410VgnVCM100000171f5a0aRCRD&vgnextoid=88a513db5b71c010VgnVCM1000000b205a0aRCRD;TOLEDO;CALLE;V;37;;;;;MADRID;MADRID;28005;EMBAJADORES;CENTRO;439984;4473834;40.412.964.921.671.900;-3.707.383.827.213.780;913 692 037;;pquiabuenconsejoysanisidro@archimadrid.es;/contenido/entidadesYorganismos/MonumentosEdificiosArtisticos; 
3468;Parroquia Nuestra Señora del Buen Suceso;;;;"Metro: Arg&amp;uuml;elles (líneas 3, 4 y 6). Bus: 132, C2, 1, 138, 44, C1, 21, M2.";;3;http://www.madrid.es/sites/v/index.jsp?vgnextchannel=bfa48ab43d6bb410VgnVCM100000171f5a0aRCRD&vgnextoid=42cdb069a541f010VgnVCM1000000b205a0aRCRD;PRINCESA;CALLE;V;43;;;;;MADRID;MADRID;28008;ARGUELLES;MONCLOA-ARAVACA;439280;4475655;40.429.309.223.105.900;-37.158.546.113.947.400;915 482 245;;;/contenido/entidadesYorganismos/TemplosIglesiasCatolicas; 
3453;Parroquia Nuestra Señora del Camino;;;;Bus: 28, 48.;;3;http://www.madrid.es/sites/v/index.jsp?vgnextchannel=bfa48ab43d6bb410VgnVCM100000171f5a0aRCRD&vgnextoid=1bb513db5b71c010VgnVCM1000000b205a0aRCRD;FENELON;CALLE;V;20;;;;;MADRID;MADRID;28022;CANILLEJAS;SAN BLAS-CANILLEJAS;448016;4476469;4.043.724.312.359.380;-36.129.247.183.261.300;917 416 273;;sradelcamino@gmail.com;/contenido/entidadesYorganismos/TemplosIglesiasCatolicas; 
3456;Parroquia Nuestra Señora del Carmen y San Luis Obispo;;;;Metro: Sol (línea 1, 2, 3) Callao (línea 3, 5), Gran Vía (línea 1, 5) Bus: 51, 26, 3, 32, 6 Renfe: Sol (C3, C4) Bicimad: Estación 56 (Plaza del Carmen, 1);;3;http://www.madrid.es/sites/v/index.jsp?vgnextchannel=bfa48ab43d6bb410VgnVCM100000171f5a0aRCRD&vgnextoid=30e513db5b71c010VgnVCM1000000b205a0aRCRD;CARMEN;CALLE;V;10;;;;;MADRID;MADRID;28013;SOL;CENTRO;440271;4474413;4.041.820.147.265.780;-37.040.557.419.650.400;915 226 769;;parrocarmen@archimadrid.es;/contenido/entidadesYorganismos/TemplosIglesiasCatolicas; 
3455;Parroquia Nuestra Señora del Carmen (El Plantío);;;;;;3;http://www.madrid.es/sites/v/index.jsp?vgnextchannel=bfa48ab43d6bb410VgnVCM100000171f5a0aRCRD&vgnextoid=adc513db5b71c010VgnVCM1000000b205a0aRCRD;VICTORIA;AVENIDA;V;51;;;;;MADRID;MADRID;28023;EL PLANTIO;MONCLOA-ARAVACA;429664;4480506;40.472.250.375.109.800;-3.829.734.993.889.670;913 077 222;;parroquiaelplantio@gmail.com;/contenido/entidadesYorganismos/TemplosIglesiasCatolicas; 
18329;Parroquia Nuestra Señora del Consuelo;;;;Bus: 136, 144. Cercanías Renfe: Asamblea Madrid - Entrevías (líneas C2, C7).;;3;http://www.madrid.es/sites/v/index.jsp?vgnextchannel=bfa48ab43d6bb410VgnVCM100000171f5a0aRCRD&vgnextoid=f31a444a2951c010VgnVCM2000000c205a0aRCRD;CLEOPATRA;CALLE;V;13;;;;;MADRID;MADRID;28018;PALOMERAS BAJAS;PUENTE DE VALLECAS;444248;4470414;40.382.443.086.711.500;-36.568.303.430.346.200;917 783 554;;nsconsuelo@archimadrid.es;/contenido/entidadesYorganismos/TemplosIglesiasCatolicas; 
3500;Parroquia Nuestra Señora del Encuentro;;;;Metro: Alvarado (línea 1). Bus: 44, 127.;;3;http://www.madrid.es/sites/v/index.jsp?vgnextchannel=bfa48ab43d6bb410VgnVCM100000171f5a0aRCRD&vgnextoid=550613db5b71c010VgnVCM1000000b205a0aRCRD;PEDRO BARREDA;CALLE;V;22;;;;;MADRID;MADRID;28039;BELLAS VISTAS;TETUAN;440164;4478123;40.449.733.492.947.100;-3.706.931.935.930.270;915 533 959;;;/contenido/entidadesYorganismos/TemplosIglesiasCatolicas; 
3503;Parroquia Nuestra Señora del Espino;;;;Metro: Plaza de Castilla (líneas 1, 9 y 10). Bus: 42, 49,124, 66, 149.;;3;http://www.madrid.es/sites/v/index.jsp?vgnextchannel=bfa48ab43d6bb410VgnVCM100000171f5a0aRCRD&vgnextoid=e71613db5b71c010VgnVCM1000000b205a0aRCRD;CONDE DEL SERRALLO;CALLE;V;17;;;;;MADRID;MADRID;28029;ALMENARA;TETUAN;441345;4479781;4.046.668.866.504.900;-36.919.994.096.952.900;917 331 734;;jacenacu@yahoo.es;/contenido/entidadesYorganismos/TemplosIglesiasCatolicas; 
3538;Parroquia Nuestra Señora del Henar;;;;Bus: 72, 73. Metro: Diego de León (líneas 4, 5 y 6) .;;3;http://www.madrid.es/sites/v/index.jsp?vgnextchannel=bfa48ab43d6bb410VgnVCM100000171f5a0aRCRD&vgnextoid=a890ef4d7f71c010VgnVCM1000000b205a0aRCRD;AGUSTIN DURAN;CALLE;V;20;;;;;MADRID;MADRID;28028;GUINDALERA;SALAMANCA;442884;4476418;4.043.644.698.832.370;-3.673.437.710.416.200;913 564 162;;parroquiahenar@hotmail.com;/contenido/entidadesYorganismos/TemplosIglesiasCatolicas; 
3398;Parroquia Nuestra Señora del Perpetuo Socorro;;;;Metro: Bilbao (líneas 1 y 4).   Bus: 40, 147, 37, 21.   Bicimad: Estación 124 (calle Manuel Silvela, 20).;;3;http://www.madrid.es/sites/v/index.jsp?vgnextchannel=bfa48ab43d6bb410VgnVCM100000171f5a0aRCRD&vgnextoid=7a2613db5b71c010VgnVCM1000000b205a0aRCRD;MANUEL SILVELA;CALLE;V;14;;;;;MADRID;MADRID;28010;TRAFALGAR;CHAMBERI;440714;4475740;40.430.178.452.666.600;-36.989.461.839.797.200;914 469 550;;perpetuosocorro@archimadrid.es;/contenido/entidadesYorganismos/TemplosIglesiasCatolicas; 
3650;Parroquia Nuestra Señora del Pilar. Calle Juan Bravo;;;;Bus: 29, 52, 61.  Metro: Núñez de Balboa (líneas 5 y 9), Diego de León (4, 5 y 6). Bicimad: Estación 142 (paseo de la Castellana, 42).;;3;http://www.madrid.es/sites/v/index.jsp?vgnextchannel=bfa48ab43d6bb410VgnVCM100000171f5a0aRCRD&vgnextoid=3ba0ef4d7f71c010VgnVCM1000000b205a0aRCRD;JUAN BRAVO;CALLE;V;40;;;;BIS;MADRID;MADRID;28006;LISTA;SALAMANCA;442581;4476182;4.043.241.881.961.900;-36.782.548.807.627.100;914 010 959 / 914 026 302;;parroquiapilar@archimadrid.es;/contenido/entidadesYorganismos/TemplosIglesiasCatolicas; 
3651;Parroquia Nuestra Señora del Pilar. (Campamento);;;;Metro: Colonia Jardín (líneas 10, ML2, ML1).   Bus: 65, 36, 39.;;3;http://www.madrid.es/sites/v/index.jsp?vgnextchannel=bfa48ab43d6bb410VgnVCM100000171f5a0aRCRD&vgnextoid=cdb0ef4d7f71c010VgnVCM1000000b205a0aRCRD;PATRICIO MARTINEZ;PLAZA;V;5;;;;;MADRID;MADRID;28024;CAMPAMENTO;LATINA;434570;4472091;4.039.685.544.652.780;-3.770.999.126.231.350;915 182 862;;pilarcampamento@archimadrid.es;/contenido/entidadesYorganismos/TemplosIglesiasCatolicas; 
3652;Parroquia Nuestra Señora del Pino;;;;Metro: Villaverde Alto (línea 3). Bus: 22, 79. Cercanías Renfe: Villaverde Alto (C4, C5).;;3;http://www.madrid.es/sites/v/index.jsp?vgnextchannel=bfa48ab43d6bb410VgnVCM100000171f5a0aRCRD&vgnextoid=50d0ef4d7f71c010VgnVCM1000000b205a0aRCRD;DOROTEO LABORDA;CALLE;V;8;;;;;MADRID;MADRID;28021;SAN ANDRES;VILLAVERDE;439328;4466060;40.342.885.272.155.800;-37.143.632.798.543.100;917 971 589;;parroquiadelpino@archimadrid.es;/contenido/entidadesYorganismos/TemplosIglesiasCatolicas; 
3656;Parroquia Nuestra Señora del Puig;;;;Metro: Villa de Vallecas (línea 1). Bus: 103, T31. Cercanías Renfe: Vallecas (líneas C2 y C7).;;3;http://www.madrid.es/sites/v/index.jsp?vgnextchannel=bfa48ab43d6bb410VgnVCM100000171f5a0aRCRD&vgnextoid=e2e0ef4d7f71c010VgnVCM1000000b205a0aRCRD;SIERRA DE GREDOS;CALLE;V;26;;;;;MADRID;MADRID;28031;CASCO H.VALLECAS;VILLA DE VALLECAS;446807;4470035;4.037.920.690.725.890;-362.664.065.299.432;913 039 525;;santimoteo@archimadrid.es;/contenido/entidadesYorganismos/TemplosIglesiasCatolicas; 
3688;Parroquia Nuestra Señora del Puig y San Timoteo;;;;Metro: Villa de Vallecas (línea 1), Sierra de Guadalupe (línea 1). Bus: 130, T31. Cercanías Renfe: Vallecas (línea C2).;;3;http://www.madrid.es/sites/v/index.jsp?vgnextchannel=bfa48ab43d6bb410VgnVCM100000171f5a0aRCRD&vgnextoid=c84fb069a541f010VgnVCM1000000b205a0aRCRD;SIERRA DE GREDOS;CALLE;V;26;;;;;MADRID;MADRID;28031;CASCO H.VALLECAS;VILLA DE VALLECAS;446807;4470035;4.037.919.610.256.710;-36.266.526.817.915.900;913 039 525;;santimoteo@archimadrid.es;/contenido/entidadesYorganismos/TemplosIglesiasCatolicas; 
3662;Parroquia Nuestra Señora del Recuerdo;;;;Metro: Avenida de Guadalajara (línea 2).  Bus: 106, 140, E2, 4, 153.;;3;http://www.madrid.es/sites/v/index.jsp?vgnextchannel=bfa48ab43d6bb410VgnVCM100000171f5a0aRCRD&vgnextoid=75f0ef4d7f71c010VgnVCM1000000b205a0aRCRD;ARGENTA;CALLE;V;8;;;;;MADRID;MADRID;28037;ARCOS;SAN BLAS-CANILLEJAS;447766;4474807;4.042.225.514.769.750;-361.573.564.826.962;913 135 061;;parroquiarecuerdo@archimadrid.es;/contenido/entidadesYorganismos/TemplosIglesiasCatolicas; 
3670;Parroquia Nuestra Señora del Rosario;;;;Metro: Batán (línea 10). Bus: 65, 39, 36, 33, 55.;;3;http://www.madrid.es/sites/v/index.jsp?vgnextchannel=bfa48ab43d6bb410VgnVCM100000171f5a0aRCRD&vgnextoid=9a11ef4d7f71c010VgnVCM1000000b205a0aRCRD;FRANCISCANOS;PLAZA;V;3;;;;;MADRID;MADRID;28011;LUCERO;LATINA;436317;4473270;40.405.738.691.193.100;-37.517.966.348.238.200;914 647 630;;rosario@archimadrid.es;/contenido/entidadesYorganismos/TemplosIglesiasCatolicas; 
18322;Parroquia Nuestra Señora del Rosario de Fátima;;;;Metro: Quintana (línea 5). Bus: 113, 38.;;3;http://www.madrid.es/sites/v/index.jsp?vgnextchannel=bfa48ab43d6bb410VgnVCM100000171f5a0aRCRD&vgnextoid=862a444a2951c010VgnVCM2000000c205a0aRCRD;ALCALA;CALLE;V;292;;;;;MADRID;MADRID;28027;VENTAS;CIUDAD LINEAL;444791;4475976;40.432.594.065.961.500;-36.509.044.490.781.900;913 263 404;;nsrfatima@hotmail.com;/contenido/entidadesYorganismos/TemplosIglesiasCatolicas; 
3671;Parroquia Nuestra Señora del Rosario de Filipinas;;;;Metro: Lista (línea 4). Bus: 1, 74, 26, 61.;;3;http://www.madrid.es/sites/v/index.jsp?vgnextchannel=bfa48ab43d6bb410VgnVCM100000171f5a0aRCRD&vgnextoid=0801ef4d7f71c010VgnVCM1000000b205a0aRCRD;"CONDE DE PE&amp;Ntilde;ALVER";CALLE;V;40;;;;;MADRID;MADRID;28006;LISTA;SALAMANCA;442733;4475617;4.042.922.086.398.190;-367.513.399.595.699;914 013 250;;parosariofilipinas@archimadrid.es;/contenido/entidadesYorganismos/TemplosIglesiasCatolicas; 
3675;Parroquia Nuestra Señora del Sagrado Corazón;;;;Metro: Pío XII (línea 9) Bus: 16, 29, 150;;3;http://www.madrid.es/sites/v/index.jsp?vgnextchannel=bfa48ab43d6bb410VgnVCM100000171f5a0aRCRD&vgnextoid=2d21ef4d7f71c010VgnVCM1000000b205a0aRCRD;PIO XII;AVENIDA;V;29;;;;;MADRID;MADRID;28016;NUEVA ESPAÑA;CHAMARTIN;442673;4479409;4.046.337.687.896.550;-3.676.183.562.198.950;913 530 732;;pnssc@archimadrid.es;/contenido/entidadesYorganismos/TemplosIglesiasCatolicas; 
3679;Parroquia Nuestra Señora del Sagrario;;;;Metro: San Francisco (línea 11). Bus: 108, 131, 47, 121.;;3;http://www.madrid.es/sites/v/index.jsp?vgnextchannel=bfa48ab43d6bb410VgnVCM100000171f5a0aRCRD&vgnextoid=bf31ef4d7f71c010VgnVCM1000000b205a0aRCRD;EL SIGLO FUTURO;CALLE;V;14;;;;;MADRID;MADRID;28025;PUERTA BONITA;CARABANCHEL;436722;4469841;403.767.527.625.397;-3.745.419.455.017.200;914 623 723;;sagrariomadrid@archimadrid.es;/contenido/entidadesYorganismos/TemplosIglesiasCatolicas; 
3673;Parroquia Nuestra Señora del Santísimo Sacramento;;;;Metro: Prosperidad (línea 4), Alfonso XIII (línea 4), Cartagena (línea 7)  Bus: 43, 72;;3;http://www.madrid.es/sites/v/index.jsp?vgnextchannel=bfa48ab43d6bb410VgnVCM100000171f5a0aRCRD&vgnextoid=4251ef4d7f71c010VgnVCM1000000b205a0aRCRD;CLARA DEL REY;CALLE;V;38;;;;;MADRID;MADRID;28002;PROSPERIDAD;CHAMARTIN;443315;4477263;4.044.408.872.949.290;-36.684.199.378.352.100;914 156 077;;;/contenido/entidadesYorganismos/TemplosIglesiasCatolicas; 
3692;Parroquia Nuestra Señora del Tránsito;;;;Metro:  Esperanza (Línea, 4), Pinar del Rey (línea 1, 8) Bus: 73;;3;http://www.madrid.es/sites/v/index.jsp?vgnextchannel=bfa48ab43d6bb410VgnVCM100000171f5a0aRCRD&vgnextoid=d461ef4d7f71c010VgnVCM1000000b205a0aRCRD;CANILLAS;CARRETERA;V;40;;;;;MADRID;MADRID;28043;CANILLAS;HORTALEZA;444828;4479327;4.046.278.407.808.580;-3.650.759.358.504.410;913 002 930;;parroquiatransito@archimadrid.es;/contenido/entidadesYorganismos/TemplosIglesiasCatolicas; 
3695;Parroquia Nuestra Señora del Valle;;;;Metro: Pacífico (líneas 1 y 6).;;3;http://www.madrid.es/sites/v/index.jsp?vgnextchannel=bfa48ab43d6bb410VgnVCM100000171f5a0aRCRD&vgnextoid=6771ef4d7f71c010VgnVCM1000000b205a0aRCRD;VALDERRIBAS;CALLE;V;72;;;;;MADRID;MADRID;28007;ADELFAS;RETIRO;443115;4472595;4.040.202.327.872.960;-367.036.056.093.216;915 517 986;;parroquiavalle@archimadrid.es;/contenido/entidadesYorganismos/TemplosIglesiasCatolicas; 
3520;Parroquia Nuestra Señora Flor del Carmelo;;;;Metro: Barrio del Pilar (línea 9). Bus: 147.;;3;http://www.madrid.es/sites/v/index.jsp?vgnextchannel=bfa48ab43d6bb410VgnVCM100000171f5a0aRCRD&vgnextoid=0d3613db5b71c010VgnVCM1000000b205a0aRCRD;EL FERROL;AVENIDA;V;49;;;;;MADRID;MADRID;28029;EL PILAR;FUENCARRAL-EL PARDO;440204;4481032;40.475.950.874.541.500;-3.706.723.155.193.890;917 391 056;;flordelcarmelo@archimadrid.es;/contenido/entidadesYorganismos/TemplosIglesiasCatolicas; 
3744;Parroquia Nuestra Señora Reina del Cielo;;;;Metro: Conde de Casal (Línea 6), Sainz de Baranda (línea 6, 9) Bus: 20, 30, 32;;3;http://www.madrid.es/sites/v/index.jsp?vgnextchannel=bfa48ab43d6bb410VgnVCM100000171f5a0aRCRD&vgnextoid=f981ef4d7f71c010VgnVCM1000000b205a0aRCRD;CAN MENOR;PASAJE;V;5;;;;;MADRID;MADRID;28007;ESTRELLA;RETIRO;443425;4473782;40.412.737.487.349.100;-36.668.249.158.135.000;915 736 131 / 915 736 690;;reinacielo@archimadrid.es;/contenido/entidadesYorganismos/TemplosIglesiasCatolicas; 
3377;Parroquia Padre Nuestro;;;;Metro: El Capricho (línea 5), Alameda de Osuna (línea 5) Bus: 101, 112, 114, 115, 151, 166;;3;http://www.madrid.es/sites/v/index.jsp?vgnextchannel=bfa48ab43d6bb410VgnVCM100000171f5a0aRCRD&vgnextoid=9f4613db5b71c010VgnVCM1000000b205a0aRCRD;CANTABRIA;AVENIDA;V;4;;;;;MADRID;MADRID;28042;ALAMEDA DE OSUNA;BARAJAS;450166;4478338;4.045.421.187.450.620;-35.877.227.710.520.600;917 652 110;;p.nuestro@archimadrid.es;/contenido/entidadesYorganismos/TemplosIglesiasCatolicas; 
3638;Parroquia Patrocinio de San José;;;;Bus: 310, 136.;;3;http://www.madrid.es/sites/v/index.jsp?vgnextchannel=bfa48ab43d6bb410VgnVCM100000171f5a0aRCRD&vgnextoid=8c91ef4d7f71c010VgnVCM1000000b205a0aRCRD;PEDRO LABORDE;CALLE;V;78;;;;;MADRID;MADRID;28018;PORTAZGO;PUENTE DE VALLECAS;444707;4470661;4.038.470.787.762.050;-3.651.432.903.529.860;917 774 399;;parroquia.patrociniosanjose@archimadrid.es;/contenido/entidadesYorganismos/TemplosIglesiasCatolicas; 
3654;Parroquia Preciosa Sangre;;;;Bus: 78, 116, 81. Cercanías Renfe: Orcasitas (línea C5).;;3;http://www.madrid.es/sites/v/index.jsp?vgnextchannel=bfa48ab43d6bb410VgnVCM100000171f5a0aRCRD&vgnextoid=1fa1ef4d7f71c010VgnVCM1000000b205a0aRCRD;GRAN AVENIDA;CALLE;V;0;;;;;MADRID;MADRID;28041;ORCASITAS;USERA;439686;4469039;40.369.747.706.830.300;-3.710.430.045.598.520;913 416 451;;;/contenido/entidadesYorganismos/TemplosIglesiasCatolicas; 
3655;Parroquia Presentación de Nuestra Señora;;;;Metro: Estrella (línea 9)  Bus: 20, 30, 32;;3;http://www.madrid.es/sites/v/index.jsp?vgnextchannel=bfa48ab43d6bb410VgnVCM100000171f5a0aRCRD&vgnextoid=a1c1ef4d7f71c010VgnVCM1000000b205a0aRCRD;CORREGIDOR DIEGO DE VALDERRABANO;CALLE;V;62;;;;;MADRID;MADRID;28030;MEDIA LEGUA;MORATALAZ;444201;4473635;4.041.146.568.064.940;-36.576.546.005.832.500;914 390 322  914 390 174;;presentacion.ns@archimadrid.es;/contenido/entidadesYorganismos/TemplosIglesiasCatolicas; 
3657;Parroquia Purificación de Nuestra Señora;;;;Metro: Carabanchel (línea 5). Bus: 17, 35.;;3;http://www.madrid.es/sites/v/index.jsp?vgnextchannel=bfa48ab43d6bb410VgnVCM100000171f5a0aRCRD&vgnextoid=34d1ef4d7f71c010VgnVCM1000000b205a0aRCRD;EDUARDO UROSA;CALLE;V;5;;;;;MADRID;MADRID;28025;VISTA ALEGRE;CARABANCHEL;436896;4471250;40.389.458.854.793.300;-37.435.094.321.933.900;914 629 129;;purificacion@archimadrid.es;/contenido/entidadesYorganismos/TemplosIglesiasCatolicas; 
3658;Parroquia Purísimo Corazón de María;;;;Metro: Embajadores (línea 3). Bus: 60, 78, 148, 6, 55, 59, 85. Cercanías Renfe: Embajadores (línea C3), Delicias (líneas C1, C7 y C10).;;3;http://www.madrid.es/sites/v/index.jsp?vgnextchannel=bfa48ab43d6bb410VgnVCM100000171f5a0aRCRD&vgnextoid=c6e1ef4d7f71c010VgnVCM1000000b205a0aRCRD;EMBAJADORES;CALLE;V;81;;;;;MADRID;MADRID;28012;PALOS DE MOGUER;ARGANZUELA;440596;4472628;4.040.214.465.561.920;-3.700.046.707.562.940;915 274 784;;purisimocorazon@archimadrid.es;/contenido/entidadesYorganismos/TemplosIglesiasCatolicas; 
3664;Parroquia Resurrección del Señor;;;;Metro: Carpetana (línea 6), Laguna (línea 6). Bus: 25, 17. Cercanías Renfe: Laguna (línea C5).;;3;http://www.madrid.es/sites/v/index.jsp?vgnextchannel=bfa48ab43d6bb410VgnVCM100000171f5a0aRCRD&vgnextoid=59f1ef4d7f71c010VgnVCM1000000b205a0aRCRD;ESCALONILLA;CALLE;V;26;;;;;MADRID;MADRID;28047;LOS CARMENES;LATINA;437160;4471981;40.396.063.978.555;-374.047.128.482.202;914 623 518;;resurreccion@archimadrid.es;/contenido/entidadesYorganismos/TemplosIglesiasCatolicas; 
3674;Parroquia Sagrada Familia;;;;Metro: O'Donnell (línea 6).   Bus: C2, 143, 156, 2, 56.;;3;http://www.madrid.es/sites/v/index.jsp?vgnextchannel=bfa48ab43d6bb410VgnVCM100000171f5a0aRCRD&vgnextoid=eb02ef4d7f71c010VgnVCM1000000b205a0aRCRD;ANTONIO TOLEDANO;CALLE;V;23;;;;;MADRID;MADRID;28028;FUENTE DEL BERRO;SALAMANCA;443436;4475013;4.042.382.904.749.130;-36.667.855.547.624.400;915 744 459;;parrosafa@hotmail.com;/contenido/entidadesYorganismos/TemplosIglesiasCatolicas; 
3677;Parroquia Sagrado Corazón de Jesús de Usera;;;;Metro: Usera (línea 6). Bus: 55, 60.;;3;http://www.madrid.es/sites/v/index.jsp?vgnextchannel=bfa48ab43d6bb410VgnVCM100000171f5a0aRCRD&vgnextoid=0132ef4d7f71c010VgnVCM1000000b205a0aRCRD;SANTA MARIA DE LA CABEZA;PASEO;V;115;;;;;MADRID;MADRID;28026;MOSCARDO;USERA;439760;4471338;4.039.046.363.855.020;-37.097.757.984.876.500;915 696 687;;capuchinousera@archimadrid.es;/contenido/entidadesYorganismos/TemplosIglesiasCatolicas; 
3676;Parroquia Sagrado Corazón de Jesús. Calle General Zabala;;;;Bus: 1, 9, 73.  Metro: Cruz del Rayo (línea 9).;;3;http://www.madrid.es/sites/v/index.jsp?vgnextchannel=bfa48ab43d6bb410VgnVCM100000171f5a0aRCRD&vgnextoid=7e12ef4d7f71c010VgnVCM1000000b205a0aRCRD;GENERAL ZABALA;CALLE;V;10;;;;;MADRID;MADRID;28002;CIUDAD JARDIN;CHAMARTIN;442702;4477208;40.443.551.243.370.500;-3.675.642.894.883.650;915 611 641;;sagradocorazondemadrid@gmail.com;/contenido/entidadesYorganismos/TemplosIglesiasCatolicas; 
3678;Parroquia Sagrados Corazones;;;;Bus:14, 43, 120, 150.  Metro: Santiago Bernabeu (línea 10).;;3;http://www.madrid.es/sites/v/index.jsp?vgnextchannel=bfa48ab43d6bb410VgnVCM100000171f5a0aRCRD&vgnextoid=9342ef4d7f71c010VgnVCM1000000b205a0aRCRD;LA HABANA;PASEO;V;31;;;;;MADRID;MADRID;28036;HISPANOAMERICA;CHAMARTIN;441885;4478233;40.452.728.207.562.600;-36.853.698.888.820.300;915 647 900;;parroquia.sscc.madrid@gmail.com;/contenido/entidadesYorganismos/TemplosIglesiasCatolicas; 
3404;Parroquia San Agustín;;;;Metro: Nuevos Ministerios (líneas 6, 8, 10).  Cercanías Renfe: Nuevos Ministerios (líneas C1, C2, C3, C4, C7, C10).   Bus: 7, C1, C2, 16, 19, 51.;;3;http://www.madrid.es/sites/v/index.jsp?vgnextchannel=bfa48ab43d6bb410VgnVCM100000171f5a0aRCRD&vgnextoid=226613db5b71c010VgnVCM1000000b205a0aRCRD;JOAQUIN COSTA;CALLE;V;10;;;;;MADRID;MADRID;28002;EL VISO;CHAMARTIN;441720;4477467;40.445.816.180.158.400;-36.872.453.596.632.300;915 613 838;;parroco@parroquiasanagustin.es;/contenido/entidadesYorganismos/TemplosIglesiasCatolicas; 
3407;Parroquia San Alberto Magno;;;;Bus: 141, 143, 54.  Metro: Buenos Aires (línea 1).;;3;http://www.madrid.es/sites/v/index.jsp?vgnextchannel=bfa48ab43d6bb410VgnVCM100000171f5a0aRCRD&vgnextoid=b47613db5b71c010VgnVCM1000000b205a0aRCRD;BENJAMIN PALENCIA;CALLE;V;9;;;;;MADRID;MADRID;28038;PORTAZGO;PUENTE DE VALLECAS;444782;4471834;40.395.279.953.741.000;-36.506.510.379.823.100;917 782 018;;sanalberto@archimadrid.es;/contenido/entidadesYorganismos/TemplosIglesiasCatolicas; 
3408;Parroquia San Alejandro;;;;Bus: 21, 48.  Metro: Barrio de la Concepción (línea 7), El Carmen (línea 5).;;3;http://www.madrid.es/sites/v/index.jsp?vgnextchannel=bfa48ab43d6bb410VgnVCM100000171f5a0aRCRD&vgnextoid=478613db5b71c010VgnVCM1000000b205a0aRCRD;VIRGEN DE LOURDES;CALLE;V;21;;;;;MADRID;MADRID;28027;SAN PASCUAL;CIUDAD LINEAL;444253;4476384;4.043.623.366.178.030;-3.657.282.770.049.090;914 030 976;;psanalejandro@archimadrid.es;/contenido/entidadesYorganismos/TemplosIglesiasCatolicas; 
3409;Parroquia San Alfonso María de Ligorio;;;;Metro: Campamento (línea 5).   Bus: 131, 121, H, 36.;;3;http://www.madrid.es/sites/v/index.jsp?vgnextchannel=bfa48ab43d6bb410VgnVCM100000171f5a0aRCRD&vgnextoid=d99613db5b71c010VgnVCM1000000b205a0aRCRD;ESCALONA;CALLE;V;109;;;;;MADRID;MADRID;28024;ALUCHE;LATINA;434957;4471855;4.039.475.978.460.340;-3.766.415.165.109.860;917 111 935;;sanalfonso@archimadrid.es;/contenido/entidadesYorganismos/TemplosIglesiasCatolicas; 
3412;Parroquia San Ambrosio;;;;Metro: Miguel Hernández (línea 1)  Bus: 57,103, 142, 143, 58.;;3;http://www.madrid.es/sites/v/index.jsp?vgnextchannel=bfa48ab43d6bb410VgnVCM100000171f5a0aRCRD&vgnextoid=6ca613db5b71c010VgnVCM1000000b205a0aRCRD;RIOJANOS;CALLE;V;1;;;;;MADRID;MADRID;28018;PALOMERAS SURESTE;PUENTE DE VALLECAS;445329;4470977;4.038.759.565.218.790;-36.441.323.881.469.200;913 033 024;;sanambrosio@archimadrid.es;/contenido/entidadesYorganismos/TemplosIglesiasCatolicas; 
3416;Parroquia San Andrés Apóstol. Calle Oxígeno;;;;Bus: 130, 131, 22, 86, 79. Cercanías Renfe: Puente Alcocer (línea C5).;;3;http://www.madrid.es/sites/v/index.jsp?vgnextchannel=bfa48ab43d6bb410VgnVCM100000171f5a0aRCRD&vgnextoid=feb613db5b71c010VgnVCM1000000b205a0aRCRD;OXIGENO;CALLE;V;15;;;;;MADRID;MADRID;28021;SAN ANDRES;VILLAVERDE;440101;4466500;403.469.048.265.546;-37.053.155.524.242;917 971 442;;pandresvillaverde@archimadrid.es;/contenido/entidadesYorganismos/TemplosIglesiasCatolicas; 
3415;Parroquia San Andrés Apóstol. Plaza San Andrés;;;;Metro: La Latina (línea 5) Bus: 31, 50, 65, 60;;3;http://www.madrid.es/sites/v/index.jsp?vgnextchannel=bfa48ab43d6bb410VgnVCM100000171f5a0aRCRD&vgnextoid=81d613db5b71c010VgnVCM1000000b205a0aRCRD;SAN ANDRES;PLAZA;V;1;;;;;MADRID;MADRID;28005;PALACIO;CENTRO;439691;4473738;4.041.207.900.253.880;-37.108.161.027.466.300;913 654 871;;realiglesiadesanandres@archimadrid.es;/contenido/entidadesYorganismos/TemplosIglesiasCatolicas; 
3421;Parroquia San Antonio;;;;Metro: Alvarado (línea 1). Bus: 124, 128, 3, 64, 66, 43.;;3;http://www.madrid.es/sites/v/index.jsp?vgnextchannel=bfa48ab43d6bb410VgnVCM100000171f5a0aRCRD&vgnextoid=14e613db5b71c010VgnVCM1000000b205a0aRCRD;BRAVO MURILLO;CALLE;V;150;;;;;MADRID;MADRID;28020;CUATRO CAMINOS;TETUAN;440372;4478026;4.045.075.629.938.430;-3.703.192.513.074.160;915 346 407;;sanantoniocuatrocaminos@archimadrid.es;/contenido/entidadesYorganismos/TemplosIglesiasCatolicas; 
59892;Parroquia San Antonio de las Cárcavas;;;;Bus: 87.;;3;http://www.madrid.es/sites/v/index.jsp?vgnextchannel=bfa48ab43d6bb410VgnVCM100000171f5a0aRCRD&vgnextoid=e3958ed67151c010VgnVCM2000000c205a0aRCRD;MARUJA MALLO;AVENIDA;V;26;;;;;MADRID;MADRID;28055;VALDEFUENTES;HORTALEZA;446541;4481209;40.479.850.095.346.400;-36.307.141.330.687.100;911 450 344;;sanantoniocarcavas@gmail.com;/contenido/entidadesYorganismos/TemplosIglesiasCatolicas; 
3423;Parroquia San Antonio del Retiro;;;;Metro: Príncipe de Vergara (líneas 2, 9), Goya (líneas 2, 4). Bus: 146, 152, 2, 28, 15, C1.;;3;http://www.madrid.es/sites/v/index.jsp?vgnextchannel=bfa48ab43d6bb410VgnVCM100000171f5a0aRCRD&vgnextoid=390713db5b71c010VgnVCM1000000b205a0aRCRD;DUQUE DE SESTO;CALLE;V;9;;;;;MADRID;MADRID;28009;GOYA;SALAMANCA;442519;4474889;40.422.647.911.264.400;-36.775.909.074.956.400;914 351 051;;sanantoniodelretiro@archimadrid.es;/contenido/entidadesYorganismos/TemplosIglesiasCatolicas; 
3424;Parroquia San Antonio María Claret;;;;Metro: Cartagena (línea 7). Bus: 72, 1, 114, 115, 122.;;3;http://www.madrid.es/sites/v/index.jsp?vgnextchannel=bfa48ab43d6bb410VgnVCM100000171f5a0aRCRD&vgnextoid=cb1713db5b71c010VgnVCM1000000b205a0aRCRD;CORAZON DE MARIA;CALLE;V;1;;;;;MADRID;MADRID;28002;PROSPERIDAD;CHAMARTIN;442998;4476855;4.044.039.159.191.050;-3.672.121.095.794.980;914 163 540;;pclaretmadrid@gmail.com;/contenido/entidadesYorganismos/TemplosIglesiasCatolicas; 
3425;Parroquia San Antonio María Zaccaría;;;;Metro: Aviación Española (línea 10). Bus: 17.;;3;http://www.madrid.es/sites/v/index.jsp?vgnextchannel=bfa48ab43d6bb410VgnVCM100000171f5a0aRCRD&vgnextoid=5e2713db5b71c010VgnVCM1000000b205a0aRCRD;FUENTE DEL TIRO;CALLE;V;27;;;;;MADRID;MADRID;28024;LAS AGUILAS;LATINA;433830;4470573;403.831.222.910.335;-377.956.050.881.134;917 056 976 / 917 066 445;;sanantoniomariazacaria@archimadrid.es;/contenido/entidadesYorganismos/TemplosIglesiasCatolicas; 
3435;Parroquia San Bartolomé;;;;Bus:  6, 60, 116, 121, 131.;;3;http://www.madrid.es/sites/v/index.jsp?vgnextchannel=bfa48ab43d6bb410VgnVCM100000171f5a0aRCRD&vgnextoid=066713db5b71c010VgnVCM1000000b205a0aRCRD;GUETARIA;CALLE;V;1;;;;;MADRID;MADRID;28041;ORCASITAS;USERA;439261;4469391;40.372.887.846.815.200;-37.154.692.271.064.800;913 413 510;;sbartolomeorcasitas@archimadrid.es;/contenido/entidadesYorganismos/TemplosIglesiasCatolicas; 
3436;Parroquia San Basilio el Grande;;;;Metro: Legazpi (líneas 3, 6) Delicias (línea 3). Bus:  148, 6, 78, 18, 62. Cercanías Renfe: Delicias (líneas C1, C7 y C10). Bicimad: Estación 175 (Jaime I el Conquistador).;;3;http://www.madrid.es/sites/v/index.jsp?vgnextchannel=bfa48ab43d6bb410VgnVCM100000171f5a0aRCRD&vgnextoid=987713db5b71c010VgnVCM1000000b205a0aRCRD;FERNANDO POO;CALLE;V;36;;;;;MADRID;MADRID;28045;CHOPERA;ARGANZUELA;440594;4472017;40.396.640.315.998.800;-37.000.132.614.769.500;914 732 135;;sbartolomeorcasitas@archimadrid.es;/contenido/entidadesYorganismos/TemplosIglesiasCatolicas; 
3441;Parroquia San Benito Abad;;;;Metro: Pan Bendito (línea 11). Bus: 118, 47, 108.;;3;http://www.madrid.es/sites/v/index.jsp?vgnextchannel=bfa48ab43d6bb410VgnVCM100000171f5a0aRCRD&vgnextoid=2b8713db5b71c010VgnVCM1000000b205a0aRCRD;BESOLLA;CALLE;V;7;;;;;MADRID;MADRID;28025;ABRANTES;CARABANCHEL;437567;4469834;40.376.753.359.555.800;-37.354.771.695.190.100;914 628 961;;benitoabad@archimadrid.es;/contenido/entidadesYorganismos/TemplosIglesiasCatolicas; 
8096441;Parroquia San Benito Menni;;;;Bus: 35, 118.;;3;http://www.madrid.es/sites/v/index.jsp?vgnextchannel=bfa48ab43d6bb410VgnVCM100000171f5a0aRCRD&vgnextoid=f4e0789b266fd410VgnVCM2000000c205a0aRCRD;CATORCE OLIVAS;CALLE;V;12;;;;;MADRID;MADRID;28054;BUENAVISTA;CARABANCHEL;437075;4468677;40.366.293.634.293.200;-37.411.465.321.988.300;695 558 875;;sanbenitomenii@archimadrid.es;/contenido/entidadesYorganismos/TemplosIglesiasCatolicas; 
3442;Parroquia San Bernabé;;;;Metro: Alto del Arenal (línea 1). Bus: 54, 103, 143, 58, 57.;;3;http://www.madrid.es/sites/v/index.jsp?vgnextchannel=bfa48ab43d6bb410VgnVCM100000171f5a0aRCRD&vgnextoid=bd9713db5b71c010VgnVCM1000000b205a0aRCRD;SAN FELIU DE GUIXOLS;CALLE;V;9;;;;;MADRID;MADRID;28038;PORTAZGO;PUENTE DE VALLECAS;445196;4471531;40.392.577.689.145.100;-36.457.469.646.765.400;913 037 484;;sanbernabe@archimadrid.es;/contenido/entidadesYorganismos/TemplosIglesiasCatolicas; 
3445;Parroquia San Blas;;;;Bus: 38  Metro: San Blas (línea 7);;3;http://www.madrid.es/sites/v/index.jsp?vgnextchannel=bfa48ab43d6bb410VgnVCM100000171f5a0aRCRD&vgnextoid=40b713db5b71c010VgnVCM1000000b205a0aRCRD;ALCONERA;CALLE;V;1;;;;;MADRID;MADRID;28037;HELLIN;SAN BLAS-CANILLEJAS;447598;4475687;40.430.172.163.423.800;-36.177.884.581.166.500;913 062 901;;sanblas@archimadrid.es;/contenido/entidadesYorganismos/TemplosIglesiasCatolicas; 
3446;Parroquia San Bonifacio;;;;Metro:  Parque Avenidas (línea 7) Bus: 43, 48, 53, 74;;3;http://www.madrid.es/sites/v/index.jsp?vgnextchannel=bfa48ab43d6bb410VgnVCM100000171f5a0aRCRD&vgnextoid=d2c713db5b71c010VgnVCM1000000b205a0aRCRD;BREMEN;CALLE;V;2;;;;;MADRID;MADRID;28028;GUINDALERA;SALAMANCA;443602;4476503;4.043.726.178.209.760;-36.649.684.335.311.200;913 566 525;;;/contenido/entidadesYorganismos/TemplosIglesiasCatolicas; 
3448;Parroquia San Bruno;;;;Metro: Guzmán el Bueno (líneas 6, 7). Bus: F, C2, C1, 2.;;3;http://www.madrid.es/sites/v/index.jsp?vgnextchannel=bfa48ab43d6bb410VgnVCM100000171f5a0aRCRD&vgnextoid=f7e713db5b71c010VgnVCM1000000b205a0aRCRD;BEATRIZ DE BOBADILLA;CALLE;V;3;;;;;MADRID;MADRID;28040;CIUDAD UNIVERSITARIA;MONCLOA-ARAVACA;440508;4476180;4.044.747.952.456.470;-37.145.379.499.431.900;915 344 266;;sanbruno@archimadrid.es;/contenido/entidadesYorganismos/TemplosIglesiasCatolicas; 
3452;Parroquia San Camilo de Lelis;;;;Metro: Villaverde Bajo-Cruce (línea 3).   Bus: 18, 86, 116.;;3;http://www.madrid.es/sites/v/index.jsp?vgnextchannel=bfa48ab43d6bb410VgnVCM100000171f5a0aRCRD&vgnextoid=2d080713fb71c010VgnVCM1000000b205a0aRCRD;ANOETA;CALLE;V;12;;;;;MADRID;MADRID;28041;LOS ANGELES;VILLAVERDE;440938;4467152;40.352.838.175.956.500;-3.695.509.230.461.290;917 960 271;;sancamilo@archimadrid.es;/contenido/entidadesYorganismos/TemplosIglesiasCatolicas; 
3464;Parroquia San Clemente Romano;;;;Metro: Ciudad de los Ángeles (línea 3).   Bus: 23, 123.;;1;http://www.madrid.es/sites/v/index.jsp?vgnextchannel=bfa48ab43d6bb410VgnVCM100000171f5a0aRCRD&vgnextoid=d4480713fb71c010VgnVCM1000000b205a0aRCRD;COALICION;CALLE;V;17;;;;;MADRID;MADRID;28041;LOS ROSALES;VILLAVERDE;441583;4467736;40.358.144.620.097.100;-36.879.677.546.359.500;913 182 833;;sanclementeromano@archimadrid.es;/contenido/entidadesYorganismos/TemplosIglesiasCatolicas; 
3484;Parroquia San Cristóbal;;;;Bus:  77, 114, 115, 101, 151   Metro: El Capricho (línea 1);;3;http://www.madrid.es/sites/v/index.jsp?vgnextchannel=bfa48ab43d6bb410VgnVCM100000171f5a0aRCRD&vgnextoid=f9680713fb71c010VgnVCM1000000b205a0aRCRD;TRES;CALLE;V;2;;;;;MADRID;MADRID;28022;REJAS;SAN BLAS-CANILLEJAS;449458;4477777;4.044.911.529.121.040;-3.596.027.567.232.920;917 410 773;;sancristobalpegaso@archimadrid.es;/contenido/entidadesYorganismos/TemplosIglesiasCatolicas; 
3391;Parroquia San Cristóbal y San Rafael;;;;Metro: Canal (línea 2, 7). Bus: 149, 37, 3, 12.;;3;http://www.madrid.es/sites/v/index.jsp?vgnextchannel=bfa48ab43d6bb410VgnVCM100000171f5a0aRCRD&vgnextoid=67580713fb71c010VgnVCM1000000b205a0aRCRD;BRAVO MURILLO;CALLE;V;39;;;;;MADRID;MADRID;28015;ARAPILES;CHAMBERI;440176;4476486;4.043.686.924.047.930;-370.535.874.004.978;914 467 366;;;/contenido/entidadesYorganismos/TemplosIglesiasCatolicas; 
3486;Parroquia San Dámaso;;;;Metro: Chamartín (líneas 1, 10) . Bus: 66, 5, T62, 124, 135, 147, 173, 174, 175, 176, 178, 67. Renfe: Chamartín (C1, C2, C3, C4, C7, C8, C10).;;3;http://www.madrid.es/sites/v/index.jsp?vgnextchannel=bfa48ab43d6bb410VgnVCM100000171f5a0aRCRD&vgnextoid=8c780713fb71c010VgnVCM1000000b205a0aRCRD;MAURICIO LEGENDRE;CALLE;V;10;;;;;MADRID;MADRID;28046;CASTILLA;CHAMARTIN;441864;4480268;4.047.105.890.467.390;-3.685.803.945.044.350;917 339 409;;parroquiasandamaso@gmail.com;/contenido/entidadesYorganismos/TemplosIglesiasCatolicas; 
3489;Parroquia San Diego;;;;Bus: 24. Cercanías Renfe: Asamblea de Madrid-Entrevías (líneas C2 y C7).;;3;http://www.madrid.es/sites/v/index.jsp?vgnextchannel=bfa48ab43d6bb410VgnVCM100000171f5a0aRCRD&vgnextoid=1f880713fb71c010VgnVCM1000000b205a0aRCRD;SAN DIEGO;AVENIDA;V;61;;;;;MADRID;MADRID;28053;SAN DIEGO;PUENTE DE VALLECAS;443278;4470925;40.386.981.073.427.400;-36.682.909.706.246.400;914 777 244;;sandiego@archimadrid.es;/contenido/entidadesYorganismos/TemplosIglesiasCatolicas; 
3495;Parroquia San Eduardo y San Atanasio;;;;Metro: Tetuán (línea 1). Bus: 11, 124, 66.;;3;http://www.madrid.es/sites/v/index.jsp?vgnextchannel=bfa48ab43d6bb410VgnVCM100000171f5a0aRCRD&vgnextoid=a1a80713fb71c010VgnVCM1000000b205a0aRCRD;GENERAL MARGALLO;CALLE;V;6;;;;;MADRID;MADRID;28020;CASTILLEJOS;TETUAN;440878;4479153;40.460.944.935.751.100;-3.697.330.636.365.740;915 702 700;;;/contenido/entidadesYorganismos/TemplosIglesiasCatolicas; 
3497;Parroquia San Eloy;;;;Metro: Avenida de la Ilustración (línea 7). Bus:  133, 64, 83, 49, 127, 67.;;3;http://www.madrid.es/sites/v/index.jsp?vgnextchannel=bfa48ab43d6bb410VgnVCM100000171f5a0aRCRD&vgnextoid=34b80713fb71c010VgnVCM1000000b205a0aRCRD;DOCTOR BARRAQUER;PLAZA;V;1;;;;;MADRID;MADRID;28035;PEÑA GRANDE;FUENCARRAL-EL PARDO;438939;4481353;4.048.062.309.020.120;-37.204.107.760.659.800;917 389 740;;saneloy@archimadrid.es;/contenido/entidadesYorganismos/TemplosIglesiasCatolicas; 
3498;Parroquia San Emilio;;;;Metro:  La Elipa (línea 2) Bus: 15, 28, 110, 210;;3;http://www.madrid.es/sites/v/index.jsp?vgnextchannel=bfa48ab43d6bb410VgnVCM100000171f5a0aRCRD&vgnextoid=c6c80713fb71c010VgnVCM1000000b205a0aRCRD;JOSE NORIEGA;TRAVESIA;V;4;;;;;MADRID;MADRID;28017;VENTAS;CIUDAD LINEAL;444408;4475256;4.042.608.240.516.170;-365.535.670.717.386;914 048 459;;parrosanemilio@archimadrid.es;/contenido/entidadesYorganismos/TemplosIglesiasCatolicas; 
3506;Parroquia San Estanislao de Kostka;;;;Metro: Conde de Casal (línea 6), Sáinz de Baranda (líneas 6, 9) Bus: 2, 15, 30, 56, 143, 156, 215 Bicimad: Estación 72 (calle Doctor Esquerdo, 99);;3;http://www.madrid.es/sites/v/index.jsp?vgnextchannel=bfa48ab43d6bb410VgnVCM100000171f5a0aRCRD&vgnextoid=59d80713fb71c010VgnVCM1000000b205a0aRCRD;DOCTOR ESQUERDO;CALLE;V;97;;;;;MADRID;MADRID;28007;ESTRELLA;RETIRO;443228;4474160;4.041.612.936.981.600;-36.691.686.259.545.100;915 734 603;;parrosek@archimadrid.es;/contenido/entidadesYorganismos/TemplosIglesiasCatolicas; 
3510;Parroquia San Eulogio;;;;Metro: Congosto (línea 1). Bus:  103, 142, 54.;;3;http://www.madrid.es/sites/v/index.jsp?vgnextchannel=bfa48ab43d6bb410VgnVCM100000171f5a0aRCRD&vgnextoid=ebe80713fb71c010VgnVCM1000000b205a0aRCRD;"PE&amp;Ntilde;A DE VARGAS";CALLE;V;10;;;;;MADRID;MADRID;28031;CASCO H.VALLECAS;VILLA DE VALLECAS;447347;4469715;4.037.448.499.960.280;-36.215.202.409.730.400;913 322 843;;saneulogio@archimadrid.es;/contenido/entidadesYorganismos/TemplosIglesiasCatolicas; 
3512;Parroquia San Federico;;;;Metro: Valdezarza (línea 7). Bus: 127, 132, 126.;;3;http://www.madrid.es/sites/v/index.jsp?vgnextchannel=bfa48ab43d6bb410VgnVCM100000171f5a0aRCRD&vgnextoid=7ef80713fb71c010VgnVCM1000000b205a0aRCRD;ALCALDE MARTIN DE ALZAGA;CALLE;V;21;;;;;MADRID;MADRID;28039;VALDEZARZA;MONCLOA-ARAVACA;439282;4479414;4.046.318.103.099.810;-37.161.786.892.624.400;914 593 093;;psanfederico@gmail.com;/contenido/entidadesYorganismos/TemplosIglesiasCatolicas; 
3514;Parroquia San Felipe Neri;;;;Metro: Pacífico (líneas 1 y 6). Bus: 10.;;3;http://www.madrid.es/sites/v/index.jsp?vgnextchannel=bfa48ab43d6bb410VgnVCM100000171f5a0aRCRD&vgnextoid=01190713fb71c010VgnVCM1000000b205a0aRCRD;VALDERRIBAS;CAMINO;V;39;;;;;MADRID;MADRID;28038;NUMANCIA;PUENTE DE VALLECAS;443606;4472430;4.040.057.026.440.820;-36.645.601.311.078.700;913 284 530;;;/contenido/entidadesYorganismos/TemplosIglesiasCatolicas; 
3516;Parroquia San Félix;;;;Bus: 131, 76. Cercanías Renfe: Puente Alcocer (línea C5).;;3;http://www.madrid.es/sites/v/index.jsp?vgnextchannel=bfa48ab43d6bb410VgnVCM100000171f5a0aRCRD&vgnextoid=93290713fb71c010VgnVCM1000000b205a0aRCRD;PUEBLA DE SANABRIA;CALLE;V;18;;;;;MADRID;MADRID;28021;SAN ANDRES;VILLAVERDE;439837;4466923;4.035.069.645.402.920;-37.084.637.703.746.300;917 962 792;;parroquiasanfelix@archimadrid.es;/contenido/entidadesYorganismos/TemplosIglesiasCatolicas; 
3517;Parroquia San Fermín;;;;Metro: San Fermín-Orcasur (línea 3).   Bus: 123, 78, 23.;;3;http://www.madrid.es/sites/v/index.jsp?vgnextchannel=bfa48ab43d6bb410VgnVCM100000171f5a0aRCRD&vgnextoid=b8490713fb71c010VgnVCM1000000b205a0aRCRD;SAN FERMIN;AVENIDA;V;12;;;;;MADRID;MADRID;28041;SAN FERMIN;USERA;441252;4469188;40.371.201.819.320.400;-369.199.937.560.659;912 192 047;;sanfermin@archimadrid.es;/contenido/entidadesYorganismos/TemplosIglesiasCatolicas; 
3374;Parroquia San Fermín de los Navarros;;;;Metro: Rubén Darío (Línea 5). Bus: 40, 147, 7.;;3;http://www.madrid.es/sites/v/index.jsp?vgnextchannel=bfa48ab43d6bb410VgnVCM100000171f5a0aRCRD&vgnextoid=26390713fb71c010VgnVCM1000000b205a0aRCRD;EDUARDO DATO;PASEO;V;10;;;;;MADRID;MADRID;28010;ALMAGRO;CHAMBERI;441257;4476021;40.432.757.364.795.800;-3.692.571.049.214.640;913 197 148;;samuelazcona@gmail.com;/contenido/entidadesYorganismos/MonumentosEdificiosArtisticos; 
3518;Parroquia San Fernando;;;;Metro: Cuzco (línea 10) . Bus:  11, 40, 150.;;3;http://www.madrid.es/sites/v/index.jsp?vgnextchannel=bfa48ab43d6bb410VgnVCM100000171f5a0aRCRD&vgnextoid=4b590713fb71c010VgnVCM1000000b205a0aRCRD;ALBERTO ALCOCER;AVENIDA;V;9;;;;;MADRID;MADRID;28036;NUEVA ESPAÑA;CHAMARTIN;441724;4479019;4.045.979.756.951.080;-36.873.406.402.588.500;913 500 841;;sanfer@sanfer.org;/contenido/entidadesYorganismos/TemplosIglesiasCatolicas; 
3522;Parroquia San Francisco de Asís;;;;Metro: Portazgo (línea 1). Bus: 10, 36, 54, 58, 57.;;3;http://www.madrid.es/sites/v/index.jsp?vgnextchannel=bfa48ab43d6bb410VgnVCM100000171f5a0aRCRD&vgnextoid=dd690713fb71c010VgnVCM1000000b205a0aRCRD;CORPUS BARGA;PLAZA;V;4;;;;;MADRID;MADRID;28053;PALOMERAS BAJAS;PUENTE DE VALLECAS;443825;4471603;4.039.313.538.493.900;-366.190.070.259.511;914 770 396 / 914 780 280;;parroquiasanfranciscodeasis@archimadrid.es;/contenido/entidadesYorganismos/TemplosIglesiasCatolicas; 
3523;Parroquia San Francisco de Borja;;;;Metro: Gregorio Marañón (líneas 7, 10)  Bus:19, 51, 9, 61, 16, 14, 150, 27, 45, 5;;3;http://www.madrid.es/sites/v/index.jsp?vgnextchannel=bfa48ab43d6bb410VgnVCM100000171f5a0aRCRD&vgnextoid=60890713fb71c010VgnVCM1000000b205a0aRCRD;SERRANO;CALLE;V;104;;;;;MADRID;MADRID;28006;CASTELLANA;SALAMANCA;441782;4476194;4.043.435.274.448.170;-36.863.976.493.829.200;915 760 607;;sanfranciscodeborja@archimadrid.es;/contenido/entidadesYorganismos/TemplosIglesiasCatolicas; 
3525;Parroquia San Francisco de Paula;;;;Bus: 11, 24, 102. Cercanías Renfe: Asamblea de Madrid - Entrevías (líneas C2 y C7).;;3;http://www.madrid.es/sites/v/index.jsp?vgnextchannel=bfa48ab43d6bb410VgnVCM100000171f5a0aRCRD&vgnextoid=f2990713fb71c010VgnVCM1000000b205a0aRCRD;RUIDERA;CALLE;V;9;;;;;MADRID;MADRID;28053;ENTREVIAS;PUENTE DE VALLECAS;442792;4470257;4.038.093.911.938.950;-36.739.566.933.670.800;915 071 971;;sanfranciscodepaula@archimadrid.es;/contenido/entidadesYorganismos/TemplosIglesiasCatolicas; 
3526;Parroquia San Francisco de Sales;;;;Metro:  Estrecho (línea 1). Bus: 66, 124, 3, 128, 64, 126, 43. Bicimad: Estación 205 (Navarra, 1).;;3;http://www.madrid.es/sites/v/index.jsp?vgnextchannel=bfa48ab43d6bb410VgnVCM100000171f5a0aRCRD&vgnextoid=85a90713fb71c010VgnVCM1000000b205a0aRCRD;FRANCOS RODRIGUEZ;CALLE;V;5;;;;;MADRID;MADRID;28039;BELLAS VISTAS;TETUAN;440311;4478510;4.045.511.199.387.370;-3.703.957.333.971.560;914 593 695;;parroco@salesianosestrecho.es;/contenido/entidadesYorganismos/TemplosIglesiasCatolicas; 
3524;Parroquia San Francisco Javier y San Luis Gonzaga;;;;Metro: Ventilla (línea 9), Plaza de Castilla (líneas, 1, 9 y 10). Bus: 177, 175, 178, 67, 135, 147, 124, 134, 173, 176.;;3;http://www.madrid.es/sites/v/index.jsp?vgnextchannel=bfa48ab43d6bb410VgnVCM100000171f5a0aRCRD&vgnextoid=18b90713fb71c010VgnVCM1000000b205a0aRCRD;MARTIRES DE LA VENTILLA;CALLE;V;34;;;;;MADRID;MADRID;28029;ALMENARA;TETUAN;441369;4480256;404.709.160.111.128;-3.691.641.723.695.140;917 336 796;;sfxslgparroquia@archimadrid.es;/contenido/entidadesYorganismos/TemplosIglesiasCatolicas; 
3529;Parroquia San Fulgencio y San Bernardo;;;;Metro: Marqués de Vadillo  (línea 5). Bus: 25, 50.;;3;http://www.madrid.es/sites/v/index.jsp?vgnextchannel=bfa48ab43d6bb410VgnVCM100000171f5a0aRCRD&vgnextoid=aac90713fb71c010VgnVCM1000000b205a0aRCRD;SAN ILLAN;PASEO;V;9;;;;;MADRID;MADRID;28019;SAN ISIDRO;CARABANCHEL;438542;4472612;4.040.185.144.721.780;-37.242.487.320.428.600;915 690 058;;psfysb@archimadrid.es;/contenido/entidadesYorganismos/TemplosIglesiasCatolicas; 
3530;Parroquia San Gabriel Arcángel;;;;Metro: Valdezarza (línea 7). Bus: 64, 137, 82.;;3;http://www.madrid.es/sites/v/index.jsp?vgnextchannel=bfa48ab43d6bb410VgnVCM100000171f5a0aRCRD&vgnextoid=3dd90713fb71c010VgnVCM1000000b205a0aRCRD;ISLA DE OZA;CALLE;V;49;;;;;MADRID;MADRID;28035;VALDEZARZA;MONCLOA-ARAVACA;438801;4479759;4.046.438.085.899.140;-372.315.064.401.853;913 161 300;;sgabrielarcangel@gmail.com;/contenido/entidadesYorganismos/TemplosIglesiasCatolicas; 
3531;Parroquia San Gabriel de la Dolorosa;;;;Metro: Pinar de Chamartín (líneas 1, 4, ML1).  Bus: 125, 129, 150. 158.;;3;http://www.madrid.es/sites/v/index.jsp?vgnextchannel=bfa48ab43d6bb410VgnVCM100000171f5a0aRCRD&vgnextoid=cfe90713fb71c010VgnVCM1000000b205a0aRCRD;ARTE;CALLE;V;4;;;;;MADRID;MADRID;28033;COSTILLARES;CIUDAD LINEAL;443074;4481535;4.048.255.640.295.350;-3.671.644.797.011.840;913 020 607;;parroquiasangabrieldeladolorosa@hotmail.com;/contenido/entidadesYorganismos/TemplosIglesiasCatolicas; 
3533;Parroquia San Gerardo María Mayela;;;;Metro: Empalme (línea 5). Bus: H.;;3;http://www.madrid.es/sites/v/index.jsp?vgnextchannel=bfa48ab43d6bb410VgnVCM100000171f5a0aRCRD&vgnextoid=2652ef4d7f71c010VgnVCM1000000b205a0aRCRD;MAQUEDA;CALLE;V;45;;;;;MADRID;MADRID;28024;ALUCHE;LATINA;435200;4471564;40.392.157.285.737.500;-37.635.224.769.486.800;917 182 497;;parroquiasangerardomayela@archimadrid.es;/contenido/entidadesYorganismos/TemplosIglesiasCatolicas; 
3534;Parroquia San Germán;;;;Metro: Cuzco (línea 10). Bus: 3, 126, 5, 149.;;3;http://www.madrid.es/sites/v/index.jsp?vgnextchannel=bfa48ab43d6bb410VgnVCM100000171f5a0aRCRD&vgnextoid=b862ef4d7f71c010VgnVCM1000000b205a0aRCRD;SAN GERMAN;CALLE;V;26;;;;;MADRID;MADRID;28020;CASTILLEJOS;TETUAN;441073;4478663;4.045.654.466.048.960;-3.694.985.327.082.360;915 554 656;;sangerman@archimadrid.es;/contenido/entidadesYorganismos/TemplosIglesiasCatolicas; 
3352;Parroquia San Ginés;;;;Metro: Opera (líneas 2, 5, Ramal) Bus:  3 Renfe: Sol Bicimad:  Estación 25b (plaza de Celenque, 1) Estación 31 (calle Mayor, 20);;3;http://www.madrid.es/sites/v/index.jsp?vgnextchannel=bfa48ab43d6bb410VgnVCM100000171f5a0aRCRD&vgnextoid=520a0713fb71c010VgnVCM1000000b205a0aRCRD;ARENAL;CALLE;V;13;;;;;MADRID;MADRID;28013;SOL;CENTRO;440017;4474313;4.041.728.242.858.590;-3.707.028.284.837.050;913 664 875;;parroquiadesangines@madrid.es;/contenido/entidadesYorganismos/MonumentosEdificiosArtisticos; 
59899;Parroquia San Gregorio Magno;;;;Metro: Valdebernardo (línea 9) Bus: 8, 71, 130;;3;http://www.madrid.es/sites/v/index.jsp?vgnextchannel=bfa48ab43d6bb410VgnVCM100000171f5a0aRCRD&vgnextoid=76a58ed67151c010VgnVCM2000000c205a0aRCRD;INDALECIO PRIETO;BULEVAR;V;13;;;;;MADRID;MADRID;28032;CASCO H.VICALVARO;VICALVARO;447346;4472538;40.401.788.093.270.200;-3.620.498.564.205.400;917 512 960;;sangregoriomagno@archimadrid.es;/contenido/entidadesYorganismos/TemplosIglesiasCatolicas; 
3539;Parroquia San Hermenegildo y Santa María de la Cabeza;;;;Bus: 36, 50, 62, 41.;;3;http://www.madrid.es/sites/v/index.jsp?vgnextchannel=bfa48ab43d6bb410VgnVCM100000171f5a0aRCRD&vgnextoid=4b72ef4d7f71c010VgnVCM1000000b205a0aRCRD;FOSFORO;CALLE;V;4;;;;;MADRID;MADRID;28005;IMPERIAL;ARGANZUELA;438909;4473626;40.411.013.028.585.900;-3.720.021.499.596.330;913 662 971;;sanhermenegildo@archimadrid.es;/contenido/entidadesYorganismos/TemplosIglesiasCatolicas; 
189083;Parroquia San Hilario de Poitiers;;;;Metro: Aluche (línea 5).   Bus: 117, 139, 155, 17, 131, H.  Cercanías Renfe: Aluche (línea C5).;;3;http://www.madrid.es/sites/v/index.jsp?vgnextchannel=bfa48ab43d6bb410VgnVCM100000171f5a0aRCRD&vgnextoid=62d48aa6bd91f010VgnVCM1000000b205a0aRCRD;LUIS CHAMIZO;CALLE;V;7;;;;;MADRID;MADRID;28044;LAS AGUILAS;LATINA;434997;4470943;4.038.654.718.095.010;-37.658.625.807.637.500;917 569 680;;sanhilario@archimadrid.es;/contenido/entidadesYorganismos/TemplosIglesiasCatolicas; 
3541;Parroquia San Ignacio de Loyola;;;;Metro: Ventilla (línea 9). Bus: 49.;;3;http://www.madrid.es/sites/v/index.jsp?vgnextchannel=bfa48ab43d6bb410VgnVCM100000171f5a0aRCRD&vgnextoid=dd82ef4d7f71c010VgnVCM1000000b205a0aRCRD;PINOS ALTA;CALLE;V;79;;;;;MADRID;MADRID;28029;VALDEACEDERAS;TETUAN;440749;4480000;40.468.565.866.733.700;-36.989.311.423.195.100;913 153 302;;;/contenido/entidadesYorganismos/TemplosIglesiasCatolicas; 
3542;Parroquia San Ildefonso y Santos Justo y Pastor;;;;Metro: Tribunal (líneas 1, 10) . Bus: M2. Bicimad: Estación 55 (plaza de San Ildenfonso, 3).;;3;http://www.madrid.es/sites/v/index.jsp?vgnextchannel=bfa48ab43d6bb410VgnVCM100000171f5a0aRCRD&vgnextoid=60a2ef4d7f71c010VgnVCM1000000b205a0aRCRD;COLON;CALLE;V;16;;;;;MADRID;MADRID;28004;UNIVERSIDAD;CENTRO;440473;4475040;4.042.386.432.820.310;-37.017.217.786.628.300;915 220 860;;sanildefonsomadrid@archimadrid.es;/contenido/entidadesYorganismos/TemplosIglesiasCatolicas; 
3548;Parroquia San Ireneo;;;;Bus: 21   Metro: Barrio de la Concepción (línea 7);;3;http://www.madrid.es/sites/v/index.jsp?vgnextchannel=bfa48ab43d6bb410VgnVCM100000171f5a0aRCRD&vgnextoid=f2b2ef4d7f71c010VgnVCM1000000b205a0aRCRD;CARLOTA O'NEILL;CALLE;V;26;;;;bis;MADRID;MADRID;28027;SAN PASCUAL;CIUDAD LINEAL;444925;4477135;40.443.043.847.037.700;-36.494.251.662.051.900;913 677 727;;parroquiasanireneo@madrid.es;/contenido/entidadesYorganismos/TemplosIglesiasCatolicas; 
3549;Parroquia San Isidoro y San Pedro Claver;;;;Metro: Pinar del Rey (línea 8). Bus: 9, 72, 107, 125, 172.;;3;http://www.madrid.es/sites/v/index.jsp?vgnextchannel=bfa48ab43d6bb410VgnVCM100000171f5a0aRCRD&vgnextoid=85c2ef4d7f71c010VgnVCM1000000b205a0aRCRD;BALAGUER;CALLE;V;1;;;;;MADRID;MADRID;28033;PINAR DEL REY;HORTALEZA;444800;4480257;4.047.116.011.484.340;-36.511.705.107.261.800;913 831 443;;pinardelrey@archimarid.es;/contenido/entidadesYorganismos/TemplosIglesiasCatolicas; 
3550;Parroquia San Isidro;;;;Bus: 34, 121, 131, 139, 47.;;3;http://www.madrid.es/sites/v/index.jsp?vgnextchannel=bfa48ab43d6bb410VgnVCM100000171f5a0aRCRD&vgnextoid=18d2ef4d7f71c010VgnVCM1000000b205a0aRCRD;PARQUE EUGENIA DE MONTIJO;CALLE;V;54;;;;;MADRID;MADRID;28047;VISTA ALEGRE;CARABANCHEL;436323;4470248;4.037.851.572.353.140;-37.514.232.625.433.600;914 621 304;;;/contenido/entidadesYorganismos/TemplosIglesiasCatolicas; 
3552;Parroquia San Jaime;;;;Metro: Villaverde Bajo Cruce (línea 3). Bus: 85, 123. Renfe: Villaverde Bajo (líneas C3, C4).;;3;http://www.madrid.es/sites/v/index.jsp?vgnextchannel=bfa48ab43d6bb410VgnVCM100000171f5a0aRCRD&vgnextoid=aae2ef4d7f71c010VgnVCM1000000b205a0aRCRD;JUAN JOSE MARTINEZ SECO;CALLE;V;54;;;;;MADRID;MADRID;28021;LOS ROSALES;VILLAVERDE;441563;4466998;4.035.148.579.491.900;-3.688.147.368.960.390;917 979 535;;parroquiasanjaimemadrid@gmail.com;/contenido/entidadesYorganismos/TemplosIglesiasCatolicas; 
3553;Parroquia San Jenaro;;;;Metro: Ascao (línea 7) Bus: 4, 38, 48, 70, 105;;1;http://www.madrid.es/sites/v/index.jsp?vgnextchannel=bfa48ab43d6bb410VgnVCM100000171f5a0aRCRD&vgnextoid=3df2ef4d7f71c010VgnVCM1000000b205a0aRCRD;VITAL AZA;CALLE;V;81;;;;;MADRID;MADRID;28017;PUEBLO NUEVO;CIUDAD LINEAL;445904;4476113;40.433.901.372.590.700;-36.377.948.138.217.800;913 672 238;;par.sanjenaro@archimadrid.es;/contenido/entidadesYorganismos/TemplosIglesiasCatolicas; 
3554;Parroquia San Jerónimo el Real (Los Jerónimos);;;;Bus: 19. Bicimad: Estación 68 (calle Espalter, 1).;;3;http://www.madrid.es/sites/v/index.jsp?vgnextchannel=bfa48ab43d6bb410VgnVCM100000171f5a0aRCRD&vgnextoid=cf03ef4d7f71c010VgnVCM1000000b205a0aRCRD;MORETO;CALLE;V;4;;;;;MADRID;MADRID;28014;LOS JERONIMOS;RETIRO;441414;4473977;4.041.435.509.318.010;-3.690.531.846.398.850;914 203 078;;sanjeronimoelreal@archimadrid.es;/contenido/entidadesYorganismos/TemplosIglesiasCatolicas; 
3559;Parroquia San Joaquín;;;;Metro: San Blas (línea 7), Simancas (línea 7) Bus: 38, 48;;3;http://www.madrid.es/sites/v/index.jsp?vgnextchannel=bfa48ab43d6bb410VgnVCM100000171f5a0aRCRD&vgnextoid=5223ef4d7f71c010VgnVCM1000000b205a0aRCRD;AMPOSTA;CALLE;V;24;;;;;MADRID;MADRID;28037;AMPOSTA;SAN BLAS-CANILLEJAS;447286;4475181;40.425.594.096.303.500;-36.214.245.911.710.200;913 130 145;;;/contenido/entidadesYorganismos/TemplosIglesiasCatolicas; 
3560;Parroquia San Jorge;;;;Metro: Cuzco (línea 10). Bus: 150.;;3;http://www.madrid.es/sites/v/index.jsp?vgnextchannel=bfa48ab43d6bb410VgnVCM100000171f5a0aRCRD&vgnextoid=e433ef4d7f71c010VgnVCM1000000b205a0aRCRD;PADRE DAMIAN;CALLE;V;22;;;;;MADRID;MADRID;28036;HISPANOAMERICA;CHAMARTIN;441882;4478793;40.455.891.271.634.600;-3.686.734.728.579.390;914 582 531;;sanjorgemartir@yahoo.es;/contenido/entidadesYorganismos/TemplosIglesiasCatolicas; 
3370;Parroquia San José;;;;Metro: Banco de España (línea 2). Bus: 146, 74, 1, 2, 51, 53, 150, 5, 52, 9, M2, 46, 20, 15. Bicimad: Estación 20a (calle Alcalá 49).;Descripción monumental. Convento de Carmelitas Descalzas trazado por Pedro de Ribera entre los años 1730 y 1742.;3;http://www.madrid.es/sites/v/index.jsp?vgnextchannel=bfa48ab43d6bb410VgnVCM100000171f5a0aRCRD&vgnextoid=e41a0713fb71c010VgnVCM1000000b205a0aRCRD;ALCALA;CALLE;V;43;;;;;MADRID;MADRID;28014;JUSTICIA;CENTRO;441006;4474710;4.041.904.792.380.410;-36.966.856.794.698.700;915 226 784;;sanjose@archimadrid.es;/contenido/entidadesYorganismos/MonumentosEdificiosArtisticos; 
3561;Parroquia San José de Calasanz;;;;Bus: 103, 111, 144. Cercanías Renfe: Asamblea de Madrid - Entrevías (líneas C2 y C7).;;3;http://www.madrid.es/sites/v/index.jsp?vgnextchannel=bfa48ab43d6bb410VgnVCM100000171f5a0aRCRD&vgnextoid=7743ef4d7f71c010VgnVCM1000000b205a0aRCRD;IMAGEN;CALLE;V;12;;;;;MADRID;MADRID;28018;SAN DIEGO;PUENTE DE VALLECAS;443391;4470648;40.384.493.380.359.100;-3.666.935.091.842.640;914 778 315;;;/contenido/entidadesYorganismos/TemplosIglesiasCatolicas; 
4914933;Parroquia San José María Escrivá de Balaguer;;;;Bus: 161.;;3;http://www.madrid.es/sites/v/index.jsp?vgnextchannel=bfa48ab43d6bb410VgnVCM100000171f5a0aRCRD&vgnextoid=a0b7a1bd396e9110VgnVCM2000000c205a0aRCRD;GANIMEDES;CALLE;V;19;;;;;MADRID;MADRID;28023;VALDEMARIN;MONCLOA-ARAVACA;433366;4479781;4.046.603.358.226.540;-37.860.032.500.253.600;913 575 565;;info@sanjosemariaparroquia.org;/contenido/entidadesYorganismos/TemplosIglesiasCatolicas; 
3562;Parroquia San José Obrero;;;;Metro: Abrantes (línea 11). Bus: 118, 247.;;3;http://www.madrid.es/sites/v/index.jsp?vgnextchannel=bfa48ab43d6bb410VgnVCM100000171f5a0aRCRD&vgnextoid=0a53ef4d7f71c010VgnVCM1000000b205a0aRCRD;JULIO ANTONIO;CALLE;V;3;BAJA;;;;MADRID;MADRID;28025;PUERTA BONITA;CARABANCHEL;438012;4470507;40.382.840.349.062.900;-37.302.890.287.830.900;914 657 274;;sjobrero@archimadrid.es;/contenido/entidadesYorganismos/TemplosIglesiasCatolicas; 
3564;Parroquia San Juan Bautista;;;;Metro: Avenida de la Paz (línea 4). Bus: 53, 120, 72, 73, 9.;;3;http://www.madrid.es/sites/v/index.jsp?vgnextchannel=bfa48ab43d6bb410VgnVCM100000171f5a0aRCRD&vgnextoid=9c63ef4d7f71c010VgnVCM1000000b205a0aRCRD;"FAUSTINA PE&amp;Ntilde;ALVER";CALLE;V;1;;;;;MADRID;MADRID;28043;SAN JUAN BAUTISTA;CIUDAD LINEAL;444106;4478222;4.045.278.137.219.360;-3.659.189.384.942.850;914 135 171;;sajuba@sjb.e.telefonica.net;/contenido/entidadesYorganismos/TemplosIglesiasCatolicas; 
107401;Parroquia San Juan Bautista de la Concepción;;;;Bus: 25, 31.;;3;http://www.madrid.es/sites/v/index.jsp?vgnextchannel=bfa48ab43d6bb410VgnVCM100000171f5a0aRCRD&vgnextoid=66235f463b81c010VgnVCM1000000b205a0aRCRD;CAMARENA;CALLE;V;57;;;;;MADRID;MADRID;28047;ALUCHE;LATINA;435902;4471876;40.395.022.148.365.700;-37.552.948.542.232.000;917 195 134;;sjbautistaconcepcion@archimadrid.es;/contenido/entidadesYorganismos/TemplosIglesiasCatolicas; 
3565;Parroquia San Juan Bosco;;;;Metro: Alto de Extremadura (línea 6). Bus: 33, 31, 39, 65, 36.;;3;http://www.madrid.es/sites/v/index.jsp?vgnextchannel=bfa48ab43d6bb410VgnVCM100000171f5a0aRCRD&vgnextoid=2f73ef4d7f71c010VgnVCM1000000b205a0aRCRD;DOCTOR LARRA Y CEREZO;CALLE;V;;;;;S/N;MADRID;MADRID;28011;PUERTA DEL ANGEL;LATINA;437630;4473540;40.410.134.369.605.300;-3.735.097.948.426.090;914 634 189;;parjuanbosco@archimadrid.es;/contenido/entidadesYorganismos/TemplosIglesiasCatolicas; 
3393;Parroquia San Juan Crisóstomo;;;;Metro: Islas Filipinas (línea 7). Bus: 2, 44, 12. Bicimad: Estación 203 (General Ampudia, 2).;;3;http://www.madrid.es/sites/v/index.jsp?vgnextchannel=bfa48ab43d6bb410VgnVCM100000171f5a0aRCRD&vgnextoid=772a0713fb71c010VgnVCM1000000b205a0aRCRD;DOMENICO SCARLATTI;CALLE;V;2;;;;;MADRID;MADRID;28003;VALLEHERMOSO;CHAMBERI;439263;4477017;40.441.838.983.283.900;-37.161.407.988.931.400;915 495 328;;sanjuancrisostomo@archimadrid.es;/contenido/entidadesYorganismos/TemplosIglesiasCatolicas; 
3563;Parroquia San Juan de Ávila;;;;Metro: Plaza Elíptica (línea 6, 11). Bus: 6, 60, 81.;;3;http://www.madrid.es/sites/v/index.jsp?vgnextchannel=bfa48ab43d6bb410VgnVCM100000171f5a0aRCRD&vgnextoid=b193ef4d7f71c010VgnVCM1000000b205a0aRCRD;FORNILLOS;CALLE;V;5;;;;;MADRID;MADRID;28026;ZOFIO;USERA;439404;4470481;40.382.717.533.912.200;-37.138.885.312.540.300;914 693 307;;sanjuandeavila@archimadrid.es;/contenido/entidadesYorganismos/TemplosIglesiasCatolicas; 
3566;Parroquia San Juan de Dios;;;;Metro: Villa de Vallecas (línea 1). Bus: 58.;;3;http://www.madrid.es/sites/v/index.jsp?vgnextchannel=bfa48ab43d6bb410VgnVCM100000171f5a0aRCRD&vgnextoid=44a3ef4d7f71c010VgnVCM1000000b205a0aRCRD;MONTE DE MONTJUICH;CALLE;V;19;;;;;MADRID;MADRID;28031;SANTA EUGENIA;VILLA DE VALLECAS;447835;4470205;403.807.925.678.668;-3.614.556.896.185.740;913 013 421;;parroquiasanjuandedios@archimadrid.es;/contenido/entidadesYorganismos/TemplosIglesiasCatolicas; 
3401;Parroquia San Juan de la Cruz;;;;Metro: Gregorio Marañón (líneas 7, 10), Nuevos Ministerios (líneas 6, 8, 10) Bus: 14, 40, 7, 147, 27, 150, 45, 12. Bicimad: Estación 135 (plaza de San Juan de la Cruz, 11).;;3;http://www.madrid.es/sites/v/index.jsp?vgnextchannel=bfa48ab43d6bb410VgnVCM100000171f5a0aRCRD&vgnextoid=0a3a0713fb71c010VgnVCM1000000b205a0aRCRD;SAN JUAN DE LA CRUZ;PLAZA;V;2;;;;;MADRID;MADRID;28003;RIOS ROSAS;CHAMBERI;441187;4476946;4.044.099.515.864.820;-3.693.480.968.127.320;915 339 417;;juancruzpa@yahoo.es;/contenido/entidadesYorganismos/TemplosIglesiasCatolicas; 
18324;Parroquia San Juan de Mirasierra;;;;Metro: Mirasierra (línea 9). Bus: 133, 134.;;3;http://www.madrid.es/sites/v/index.jsp?vgnextchannel=bfa48ab43d6bb410VgnVCM100000171f5a0aRCRD&vgnextoid=193a444a2951c010VgnVCM2000000c205a0aRCRD;MORALZARZAL;CALLE;V;75;;;;;MADRID;MADRID;28034;MIRASIERRA;FUENCARRAL-EL PARDO;439378;4483014;40.495.618.031.545.000;-3.715.402.412.292.600;917 350 285;;;/contenido/entidadesYorganismos/TemplosIglesiasCatolicas; 
3569;Parroquia San Juan de Ribera;;;;Metro: Concha Espina (línea, 9). Bus: 51, 7, 16, 29, 52, 19.;;3;http://www.madrid.es/sites/v/index.jsp?vgnextchannel=bfa48ab43d6bb410VgnVCM100000171f5a0aRCRD&vgnextoid=d6b3ef4d7f71c010VgnVCM1000000b205a0aRCRD;RODRIGUEZ MARIN;CALLE;V;57;;;;;MADRID;MADRID;28002;EL VISO;CHAMARTIN;442430;4477883;4.044.960.409.492.630;-36.789.229.187.078.700;915 637 278;;psjrmadrid@gmail.com;/contenido/entidadesYorganismos/TemplosIglesiasCatolicas; 
3567;Parroquia San Juan Evangelista;;;;Metro: Parque de las Avenidas (línea 7) Bus: 43, 53, 74, 122;;3;http://www.madrid.es/sites/v/index.jsp?vgnextchannel=bfa48ab43d6bb410VgnVCM100000171f5a0aRCRD&vgnextoid=69c3ef4d7f71c010VgnVCM1000000b205a0aRCRD;VENECIA;PLAZA;V;1;;;;;MADRID;MADRID;28028;GUINDALERA;SALAMANCA;443812;4476938;4.044.119.463.312.040;-36.625.428.159.583.400;917 269 603;;sanjuanevangelista@archimadrid.es;/contenido/entidadesYorganismos/TemplosIglesiasCatolicas; 
3568;Parroquia San Juan María Vianney;;;;Bus: 66, 124, 137.;;3;http://www.madrid.es/sites/v/index.jsp?vgnextchannel=bfa48ab43d6bb410VgnVCM100000171f5a0aRCRD&vgnextoid=fbd3ef4d7f71c010VgnVCM1000000b205a0aRCRD;SOTO PALACIOS;AVENIDA;V;7;;;;;MADRID;MADRID;28034;VALVERDE;FUENCARRAL-EL PARDO;442038;4482147;4.048.799.786.936.140;-36.839.232.445.361.200;;;;/contenido/entidadesYorganismos/TemplosIglesiasCatolicas; 
3574;Parroquia San Leandro;;;;Metro Campamento (línea 5).   Bus: 25.;;3;http://www.madrid.es/sites/v/index.jsp?vgnextchannel=bfa48ab43d6bb410VgnVCM100000171f5a0aRCRD&vgnextoid=8ee3ef4d7f71c010VgnVCM1000000b205a0aRCRD;ESCALONA;CALLE;V;59;;;;;MADRID;MADRID;28024;ALUCHE;LATINA;435411;4472120;4.039.718.226.159.850;-37.611.047.008.793.900;915 183 652;;;/contenido/entidadesYorganismos/TemplosIglesiasCatolicas; 
3575;Parroquia San León Magno;;;;Metro: Acacias (línea 5) Puerta de Toledo (línea 5). Bus: 23, 35, 17, 18, 41, 3, C2, 60. Bicimad: Estación 45 (glorieta de la Puerta de Toledo, 1).;;3;http://www.madrid.es/sites/v/index.jsp?vgnextchannel=bfa48ab43d6bb410VgnVCM100000171f5a0aRCRD&vgnextoid=1104ef4d7f71c010VgnVCM1000000b205a0aRCRD;CONCEJAL BENITO MARTIN LOZANO;CALLE;V;7;;;;;MADRID;MADRID;28005;ACACIAS;ARGANZUELA;439787;4472991;40.405.347.615.408.100;-37.096.139.281.928.400;913 541 602;;sanleonmagno@archimadrid.es;/contenido/entidadesYorganismos/TemplosIglesiasCatolicas; 
3576;Parroquia San Leopoldo;;;;Metro: Alto de Extremadura (línea 6). Bus: 31, 33, 36, 39, 65.;;3;http://www.madrid.es/sites/v/index.jsp?vgnextchannel=bfa48ab43d6bb410VgnVCM100000171f5a0aRCRD&vgnextoid=a314ef4d7f71c010VgnVCM1000000b205a0aRCRD;SAGRADOS CORAZONES;CALLE;V;28;;;;;MADRID;MADRID;28011;PUERTA DEL ANGEL;LATINA;437136;4473227;4.040.728.658.467.860;-37.408.888.972.009.900;914 633 796;;;/contenido/entidadesYorganismos/TemplosIglesiasCatolicas; 
3384;Parroquia San Lorenzo;;;;Metro: Lavapiés (línea 3). Bus: M1.;;3;http://www.madrid.es/sites/v/index.jsp?vgnextchannel=bfa48ab43d6bb410VgnVCM100000171f5a0aRCRD&vgnextoid=9c4a0713fb71c010VgnVCM1000000b205a0aRCRD;DOCTOR PIGA;CALLE;V;2;;;;;MADRID;MADRID;28012;EMBAJADORES;CENTRO;440691;4473362;4.040.875.465.706.080;-36.989.955.651.926.500;915 273 461;;parroquiasanlorenzo.lavapies@gmail.com;/contenido/entidadesYorganismos/TemplosIglesiasCatolicas; 
3578;Parroquia San Lucas;;;;Metro: San Cristóbal (línea 3). Bus: 59, 79. Cercanías Renfe: San Cristóbal de los Ángeles (línea C3).;;3;http://www.madrid.es/sites/v/index.jsp?vgnextchannel=bfa48ab43d6bb410VgnVCM100000171f5a0aRCRD&vgnextoid=3624ef4d7f71c010VgnVCM1000000b205a0aRCRD;PALOMA DE LA PAZ;PLAZA;V;1;;;;;MADRID;MADRID;28021;SAN CRISTOBAL;VILLAVERDE;441596;4466041;4.034.287.594.435.610;-36.876.595.507.400.500;917 972 609;;;/contenido/entidadesYorganismos/TemplosIglesiasCatolicas; 
3381;Parroquia San Luis de los Franceses;;;Parroquia personal de habla francesa.;Metro: Núñez de Balboa (Línea 9, 5) Bus: 1, 9 , 19 , 29, 51, 74;;3;http://www.madrid.es/sites/v/index.jsp?vgnextchannel=bfa48ab43d6bb410VgnVCM100000171f5a0aRCRD&vgnextoid=2f5a0713fb71c010VgnVCM1000000b205a0aRCRD;LAGASCA;CALLE;V;89;;;;;MADRID;MADRID;28006;CASTELLANA;SALAMANCA;441918;4475944;4.043.210.112.425.730;-3.684.771.362.675.980;914 355 160;;sanluisfranceses@archimadrid.es;/contenido/entidadesYorganismos/TemplosIglesiasCatolicas; 
3375;Parroquia San Manuel y San Benito;;;;Metro: Retiro (línea 2) Bus: 2, 20, 28;;3;http://www.madrid.es/sites/v/index.jsp?vgnextchannel=bfa48ab43d6bb410VgnVCM100000171f5a0aRCRD&vgnextoid=b17a0713fb71c010VgnVCM1000000b205a0aRCRD;ALCALA;CALLE;V;83;;;;;MADRID;MADRID;28009;RECOLETOS;SALAMANCA;441801;4474684;4.042.074.217.866.130;-36.860.471.147.515.600;914 357 682 / 915 756 005;;samasabe@archimadrid.es;/contenido/entidadesYorganismos/MonumentosEdificiosArtisticos; 
3372;Parroquia San Marcos;;;;Bus: 1, 138, 2, 44, 74, M2, 46.  Metro: Plaza de España (líneas 3, 10), Noviciado (línea 2). Bicimad: Estación 116b (plaza de España).;;3;http://www.madrid.es/sites/v/index.jsp?vgnextchannel=bfa48ab43d6bb410VgnVCM100000171f5a0aRCRD&vgnextoid=448a0713fb71c010VgnVCM1000000b205a0aRCRD;SAN LEONARDO;CALLE;V;10;;;;;MADRID;MADRID;28015;UNIVERSIDAD;CENTRO;439674;4475146;4.042.476.160.196.840;-37.111.617.863.516.700;915 471 079;;psmarcos@archimadrid.es;/contenido/entidadesYorganismos/MonumentosEdificiosArtisticos; 
3620;Parroquia San Martín de Porres;;;;Bus: 9, 107 Metro: Hortaleza (línea 4), Parque de Santa María (línea 4).;;3;http://www.madrid.es/sites/v/index.jsp?vgnextchannel=bfa48ab43d6bb410VgnVCM100000171f5a0aRCRD&vgnextoid=5b44ef4d7f71c010VgnVCM1000000b205a0aRCRD;ABEGONDO;CALLE;V;28;;;;;MADRID;MADRID;28033;PINAR DEL REY;HORTALEZA;444988;4481039;4.047.633.616.330.270;-36.503.003.188.997;913 820 494;;psmporres@gmail.com;/contenido/entidadesYorganismos/TemplosIglesiasCatolicas; 
3621;Parroquia San Mateo;;;;Metro: Ciudad de los Ángeles (línea 3). Bus: 18, 86, 116.;;3;http://www.madrid.es/sites/v/index.jsp?vgnextchannel=bfa48ab43d6bb410VgnVCM100000171f5a0aRCRD&vgnextoid=ed54ef4d7f71c010VgnVCM1000000b205a0aRCRD;LA VERBENA DE LA PALOMA;AVENIDA;V;16;;;;;MADRID;MADRID;28041;LOS ANGELES;VILLAVERDE;440881;4467720;40.357.941.932.775.100;-36.962.447.229.867.400;913 171 935;;contacto@parroquiasanmateo.org;/contenido/entidadesYorganismos/TemplosIglesiasCatolicas; 
3622;Parroquia San Matías;;;;Metro: San Lorenzo (línea 4), Mar de Cristal (líneas 4, 8). Bus: 87, 72.;;3;http://www.madrid.es/sites/v/index.jsp?vgnextchannel=bfa48ab43d6bb410VgnVCM100000171f5a0aRCRD&vgnextoid=7074ef4d7f71c010VgnVCM1000000b205a0aRCRD;IGLESIA;PLAZA;V;2;;;;;MADRID;MADRID;28033;PINAR DEL REY;HORTALEZA;445657;4480431;4.047.278.410.477.160;-364.107.636.456.447;917 645 949;;sanmatiasparroquia@gmail.com;/contenido/entidadesYorganismos/TemplosIglesiasCatolicas; 
3624;Parroquia San Miguel Arcángel de Carabanchel;;;;Metro: Marqués de Vadillo (línea 5). Bus: 34, 35, 119, 118.;;3;http://www.madrid.es/sites/v/index.jsp?vgnextchannel=bfa48ab43d6bb410VgnVCM100000171f5a0aRCRD&vgnextoid=9594ef4d7f71c010VgnVCM1000000b205a0aRCRD;GENERAL RICARDOS;CALLE;V;21;;;;;MADRID;MADRID;28019;OPAÑEL;CARABANCHEL;439073;4472001;4.039.637.721.346.990;-3.717.944.871.579.780;914 727 716;;sanmiguelarcangelcarabanchel@archimadrid.es;/contenido/entidadesYorganismos/TemplosIglesiasCatolicas; 
3626;Parroquia San Miguel Arcángel de Chamartín;;;;Metro: Duque de Pastrana (línea 9), Chamartín (líneas 1, 10). Bus: 129, 14, 174, 107, 70. Cercanías Renfe: Chamartín (líneas C1, C2, C3, C4, C7, C8, C10).;;3;http://www.madrid.es/sites/v/index.jsp?vgnextchannel=bfa48ab43d6bb410VgnVCM100000171f5a0aRCRD&vgnextoid=0384ef4d7f71c010VgnVCM1000000b205a0aRCRD;BURGOS;AVENIDA;V;2;;;;;MADRID;MADRID;28036;CASTILLA;CHAMARTIN;442623;4480026;40.468.931.638.303.700;-36.768.290.766.268.400;913 020 100;;parroquiasanmigueldechamartin@gmail.com;/contenido/entidadesYorganismos/TemplosIglesiasCatolicas; 
3625;Parroquia San Miguel Arcángel de Fuencarral;;;;Metro: Fuencarral (línea 10). Bus: 66, 137.;;3;http://www.madrid.es/sites/v/index.jsp?vgnextchannel=bfa48ab43d6bb410VgnVCM100000171f5a0aRCRD&vgnextoid=28a4ef4d7f71c010VgnVCM1000000b205a0aRCRD;ISLAS BERMUDAS;CALLE;V;28;;;;;MADRID;MADRID;28034;VALVERDE;FUENCARRAL-EL PARDO;441679;4482827;4.049.408.934.867.750;-3.688.233.267.356.290;917 340 692;;;/contenido/entidadesYorganismos/TemplosIglesiasCatolicas; 
3627;Parroquia San Miguel de los Santos;;;;Metro: Cruz del Rayo (línea 9), Prosperidad (línea 4), Avenida de América (líneas 4, 6, 7, 9) Bus: 73, 29, 52, 9, C2, C1.;;3;http://www.madrid.es/sites/v/index.jsp?vgnextchannel=bfa48ab43d6bb410VgnVCM100000171f5a0aRCRD&vgnextoid=bab4ef4d7f71c010VgnVCM1000000b205a0aRCRD;LOPEZ DE HOYOS;CALLE;V;39;;;;;MADRID;MADRID;28002;EL VISO;CHAMARTIN;442377;4476944;40.441.150.475.172.800;-36.794.627.982.734.900;915 635 333;;smigueldelossantos@hotmail.com;/contenido/entidadesYorganismos/TemplosIglesiasCatolicas; 
3369;Parroquia San Millán y San Cayetano;;;;Metro: Latina (línea 5), Tirso de Molina (línea 1), Lavapiés (línea 3). Bus: M1. Bicimad: Estación 44 (calle Mesón de Paredes, 35).;;3;http://www.madrid.es/sites/v/index.jsp?vgnextchannel=bfa48ab43d6bb410VgnVCM100000171f5a0aRCRD&vgnextoid=d69a0713fb71c010VgnVCM1000000b205a0aRCRD;EMBAJADORES;CALLE;NUM;15;;;;;MADRID;MADRID;28012;EMBAJADORES;CENTRO;440116;4473445;40.409.461.123.751.500;-3.705.791.428.982.770;915 270 790;;millanycayetano@gmail.com;/contenido/entidadesYorganismos/MonumentosEdificiosArtisticos; 
63393;Parroquia San Nicolás de Bari de los Servitas;;;;Metro: Opera (líneas 2, 5, ramal). Bus: 3, 148. Bicimad: Estación 68 (plaza de Ramales, 1).;;3;http://www.madrid.es/sites/v/index.jsp?vgnextchannel=bfa48ab43d6bb410VgnVCM100000171f5a0aRCRD&vgnextoid=7838f0bde551c010VgnVCM2000000c205a0aRCRD;SAN NICOLAS;PLAZA;V;6;;;;;MADRID;MADRID;28013;PALACIO;CENTRO;439605;4474152;40.415.793.260.849.800;-37.118.688.527.171.200;915 594 064;;sannicolasdebari@archimadrid.es;/contenido/entidadesYorganismos/MonumentosEdificiosArtisticos; 
3634;Parroquia San Pablo;;;;Metro: Buenos Aires (línea 1). Bus: 136, 10.;;3;http://www.madrid.es/sites/v/index.jsp?vgnextchannel=bfa48ab43d6bb410VgnVCM100000171f5a0aRCRD&vgnextoid=dfd4ef4d7f71c010VgnVCM1000000b205a0aRCRD;EL ESCRITOR;CALLE;NUM;25;;;;;MADRID;MADRID;28038;PALOMERAS BAJAS;PUENTE DE VALLECAS;444533;4471216;40.389.687.015.822.500;-3.653.542.772.631.350;913 030 175 / 913 030 801;;sanpablo@archimadrid.es;/contenido/entidadesYorganismos/TemplosIglesiasCatolicas; 
3635;Parroquia San Pablo de la Cruz;;;;Bus: 120, 122. Metro: Esperanza (línea 4).;;3;http://www.madrid.es/sites/v/index.jsp?vgnextchannel=bfa48ab43d6bb410VgnVCM100000171f5a0aRCRD&vgnextoid=4dc4ef4d7f71c010VgnVCM1000000b205a0aRCRD;"MADRO&amp;Ntilde;OS";AVENIDA;V;40;;;;;MADRID;MADRID;28043;PIOVERA;HORTALEZA;445831;4478676;4.045.698.546.073.520;-36.388.858.099.534.400;913 002 981;;spacruz@archimadrid.es;/contenido/entidadesYorganismos/TemplosIglesiasCatolicas; 
3637;Parroquia San Patricio;;;;Metro: Ventas (líneas 2, 5) Bus: 12, 106, 110, 146, 210, 38, 21, 53 Bicimad: Estación 187 (calle Alejandro González, 1);;3;http://www.madrid.es/sites/v/index.jsp?vgnextchannel=bfa48ab43d6bb410VgnVCM100000171f5a0aRCRD&vgnextoid=62f4ef4d7f71c010VgnVCM1000000b205a0aRCRD;ALEJANDRO GONZALEZ;CALLE;V;12;;;;;MADRID;MADRID;28028;FUENTE DEL BERRO;SALAMANCA;443767;4475645;4.042.953.463.528.200;-36.629.470.987.953.500;917 252 230 / 917 260 074;;sanpatricio@archimadrid.es;/contenido/entidadesYorganismos/TemplosIglesiasCatolicas; 
3641;Parroquia San Pedro Advíncula;;;;Metro: Villa de Vallecas (línea 1). Bus: 103, 142, 54, 58, 143.;;3;http://www.madrid.es/sites/v/index.jsp?vgnextchannel=bfa48ab43d6bb410VgnVCM100000171f5a0aRCRD&vgnextoid=48ddb069a541f010VgnVCM1000000b205a0aRCRD;SIERRA GORDA;CALLE;V;5;;;;;MADRID;MADRID;28031;CASCO H.VALLECAS;VILLA DE VALLECAS;447343;4470147;403.802.481.264.865;-3.620.348.016.062.300;913 311 222;;sanpedroadvincula@archimadrid.es;/contenido/entidadesYorganismos/TemplosIglesiasCatolicas; 
3643;Parroquia San Pedro Apóstol (Carabanchel);;;;Metro: Carabanchel Alto (línea 11). Bus: 139, 34, 35, 47.;;3;http://www.madrid.es/sites/v/index.jsp?vgnextchannel=bfa48ab43d6bb410VgnVCM100000171f5a0aRCRD&vgnextoid=830eb069a541f010VgnVCM1000000b205a0aRCRD;SEIS DE DICIEMBRE;PLAZA;V;1;;;;;MADRID;MADRID;28044;BUENAVISTA;CARABANCHEL;436298;4469491;40.373.567.429.555.500;-3.750.390.601.566.710;915 086 959;;sanpedrocarabanchel@archimadrid.es;/contenido/entidadesYorganismos/TemplosIglesiasCatolicas; 
3642;Parroquia San Pedro Apóstol. Calle Orión;;;;Metro: Barajas (línea 8). Bus: 101, 105, 115.;;3;http://www.madrid.es/sites/v/index.jsp?vgnextchannel=bfa48ab43d6bb410VgnVCM100000171f5a0aRCRD&vgnextoid=4eedb069a541f010VgnVCM1000000b205a0aRCRD;ORION;CALLE;V;2;;;;;MADRID;MADRID;28042;CASCO H.BARAJAS;BARAJAS;450995;4480602;4.047.465.668.024.860;-3.578.121.184.801.610;913 056 204;;p.sanpedroapostolbarajas@archimadrid.es;/contenido/entidadesYorganismos/TemplosIglesiasCatolicas; 
29840;Parroquia San Pedro Mártir de los Padres Dominicos;;;;Bus: 172, 173.;;3;http://www.madrid.es/sites/v/index.jsp?vgnextchannel=bfa48ab43d6bb410VgnVCM100000171f5a0aRCRD&vgnextoid=2e953d232e91f010VgnVCM1000000b205a0aRCRD;BURGOS;AVENIDA;V;204;;;;;MADRID;MADRID;28050;VALDEFUENTES;HORTALEZA;444256;4483921;4.050.224.958.387.760;-3.659.189.517.802.430;913 024 246;;sanpedromartir@dominicos.org;/contenido/entidadesYorganismos/TemplosIglesiasCatolicas; 
3644;Parroquia San Pedro Nolasco;;;;Metro: Ciudad de los Ángeles (línea 3). Bus: 18, 86, 116.;;3;http://www.madrid.es/sites/v/index.jsp?vgnextchannel=bfa48ab43d6bb410VgnVCM100000171f5a0aRCRD&vgnextoid=c91eb069a541f010VgnVCM1000000b205a0aRCRD;"DO&amp;Ntilde;A FRANCISQUITA";CALLE;V;27;;;;;MADRID;MADRID;28041;LOS ANGELES;VILLAVERDE;440579;4467515;40.356.082.791.035.500;-3.699.770.291.408.340;913 179 572 / 913 176 204;;sanpedronolasco@archimadrid.es;/contenido/entidadesYorganismos/TemplosIglesiasCatolicas; 
8174578;Parroquia San Pedro Poveda;;;;Metro: Las Tablas (líneas 10 y ML1). Bus: 172, 175.;;3;http://www.madrid.es/sites/v/index.jsp?vgnextchannel=bfa48ab43d6bb410VgnVCM100000171f5a0aRCRD&vgnextoid=4125ebdd8854f410VgnVCM2000000c205a0aRCRD;CAMINO DE SANTIAGO;AVENIDA;V;35;;;;;MADRID;MADRID;28050;VALVERDE;FUENCARRAL-EL PARDO;442949;4484060;40.505.298.509.834.800;-36.733.430.222.204.600;912 193 930;;;/contenido/entidadesYorganismos/TemplosIglesiasCatolicas; 
3646;Parroquia San Pedro Regalado y San José de Calasanz;;;;Bus: 57, 144, 103, 111. Metro: Portazgo (línea 1).;;3;http://www.madrid.es/sites/v/index.jsp?vgnextchannel=bfa48ab43d6bb410VgnVCM100000171f5a0aRCRD&vgnextoid=f43eb069a541f010VgnVCM1000000b205a0aRCRD;"PE&amp;Ntilde;A GUDINA";PLAZA;V;1;;;;;MADRID;MADRID;28018;PALOMERAS BAJAS;PUENTE DE VALLECAS;443667;4470894;403.867.371.429.162;-36.637.172.457.005.900;917 862 230;;sanpedroregalado@archimadrid.es;/contenido/entidadesYorganismos/TemplosIglesiasCatolicas; 
3653;Parroquia San Pío X;;;;Bus: 75, 41.;;3;http://www.madrid.es/sites/v/index.jsp?vgnextchannel=bfa48ab43d6bb410VgnVCM100000171f5a0aRCRD&vgnextoid=fa4eb069a541f010VgnVCM1000000b205a0aRCRD;DOCTOR CASAL;CALLE;V;9;;;;;MADRID;MADRID;28008;CASA DE CAMPO;MONCLOA-ARAVACA;437788;4475380;4.042.673.075.126.020;-3.733.404.209.361.850;915 472 127 / 915 475 22;;sanpioxparroquia@gmail.com;/contenido/entidadesYorganismos/TemplosIglesiasCatolicas; 
3659;Parroquia San Rafael Arcángel;;;;Bus: 64, 42. Metro: Avenida Ilustración (línea 7).;;3;http://www.madrid.es/sites/v/index.jsp?vgnextchannel=bfa48ab43d6bb410VgnVCM100000171f5a0aRCRD&vgnextoid=a16eb069a541f010VgnVCM1000000b205a0aRCRD;ISLA DE SAIPAN;CALLE;V;35;;;;;MADRID;MADRID;28035;PEÑA GRANDE;FUENCARRAL-EL PARDO;438094;4480819;40.475.748.885.061.100;-37.305.161.163.525.500;913 739 400;;;/contenido/entidadesYorganismos/TemplosIglesiasCatolicas; 
8174571;Parroquia San Rafael Arnáiz;;;;Bus: 172.;;3;http://www.madrid.es/sites/v/index.jsp?vgnextchannel=bfa48ab43d6bb410VgnVCM100000171f5a0aRCRD&vgnextoid=4742ebdd8854f410VgnVCM2000000c205a0aRCRD;OCTAVIO PAZ;CALLE;V;2;;;;;MADRID;MADRID;28050;VALDEFUENTES;HORTALEZA;444276;4482352;4.048.999.784.668.900;-36.575.356.472.619.200;917 048 661;;info@parroquiasanrafaelarnaiz.es;/contenido/entidadesYorganismos/TemplosIglesiasCatolicas; 
3660;Parroquia San Raimundo de Peñafort;;;;Bus : 24, 102, 103. Cercanías Renfe: El Pozo (líneas C2 y C7).;;3;http://www.madrid.es/sites/v/index.jsp?vgnextchannel=bfa48ab43d6bb410VgnVCM100000171f5a0aRCRD&vgnextoid=997eb069a541f010VgnVCM1000000b205a0aRCRD;ESTEBAN CARROS;CALLE;V;35;;;;;MADRID;MADRID;28053;ENTREVIAS;PUENTE DE VALLECAS;444301;4469686;4.037.401.627.968.450;-3.657.408.165.038.570;917 857 017;;parroquiapozo@archimadrid.es;/contenido/entidadesYorganismos/TemplosIglesiasCatolicas; 
3661;Parroquia San Ramón Nonato;;;;Metro: Puente de Vallecas (línea 1). Bus: 111, 37, 56, 58, 10, 24, 310, 113, 148, 136, 141, 54, 57, 8.;;3;http://www.madrid.es/sites/v/index.jsp?vgnextchannel=bfa48ab43d6bb410VgnVCM100000171f5a0aRCRD&vgnextoid=7995ef4d7f71c010VgnVCM1000000b205a0aRCRD;MELQUIADES BIENCINTO;CALLE;V;10;;;;;MADRID;MADRID;28053;SAN DIEGO;PUENTE DE VALLECAS;443199;4472062;40.397.227.380.925.400;-36.693.349.561.194.500;914 339 301;;parroquiasanramonnonato@archimadrid.es;/contenido/entidadesYorganismos/TemplosIglesiasCatolicas; 
3395;Parroquia San Ricardo;;;;"Metro: Arg&amp;uuml;elles (líneas 3, 4, 6) , Moncloa (líneas 3, 6)  Bus: 16, 61, 2. Bicimad: Estación 199 (Fernando el Católico, 61).";;3;http://www.madrid.es/sites/v/index.jsp?vgnextchannel=bfa48ab43d6bb410VgnVCM100000171f5a0aRCRD&vgnextoid=5a9eb069a541f010VgnVCM1000000b205a0aRCRD;GAZTAMBIDE;CALLE;V;22;;;;;MADRID;MADRID;28015;GAZTAMBIDE;CHAMBERI;439312;4476112;40.433.428.408.805.800;-37.155.210.177.417.100;915 432 291;;parroquiasanricardo@gmail.com;/contenido/entidadesYorganismos/TemplosIglesiasCatolicas; 
3666;Parroquia San Romualdo;;;;Metro: Ascao (línea 7) Bus: 28, 109;;3;http://www.madrid.es/sites/v/index.jsp?vgnextchannel=bfa48ab43d6bb410VgnVCM100000171f5a0aRCRD&vgnextoid=96ceb069a541f010VgnVCM1000000b205a0aRCRD;ASCAO;CALLE;V;30;;;;;MADRID;MADRID;28017;PUEBLO NUEVO;CIUDAD LINEAL;445664;4475681;4.042.999.396.282.740;-36.405.991.175.956.800;913 675 135;;sanromualdo@archimadrid.es;/contenido/entidadesYorganismos/TemplosIglesiasCatolicas; 
3667;Parroquia San Roque;;;;Metro: Vista Alegre (línea 5), Oporto (líneas 5, 6). Bus: 55.;;3;http://www.madrid.es/sites/v/index.jsp?vgnextchannel=bfa48ab43d6bb410VgnVCM100000171f5a0aRCRD&vgnextoid=9cdeb069a541f010VgnVCM1000000b205a0aRCRD;ABOLENGO;CALLE;V;10;;;;;MADRID;MADRID;28025;VISTA ALEGRE;CARABANCHEL;437501;4471210;4.038.913.511.955.550;-37.363.776.865.741.500;914 616 210;;psanroquemadrid@archimadrid.es;/contenido/entidadesYorganismos/TemplosIglesiasCatolicas; 
3682;Parroquia San Sebastián;;;;Metro: Antón Martín (línea 1). Bus : 6, 26, 32, M1. Bicimad: Estación 52 (plaza de Santa Ana, 10).;;3;http://www.madrid.es/sites/v/index.jsp?vgnextchannel=bfa48ab43d6bb410VgnVCM100000171f5a0aRCRD&vgnextoid=5e0fb069a541f010VgnVCM1000000b205a0aRCRD;ATOCHA;CALLE;V;39;;;;;MADRID;MADRID;28012;CORTES;CENTRO;440486;4473891;4.041.350.544.318.070;-3.701.472.719.930.400;914 291 361;;sansebastianatocha@archimadrid.es;/contenido/entidadesYorganismos/TemplosIglesiasCatolicas; 
3683;Parroquia San Sebastián Mártir;;;;Bus: 108.;;3;http://www.madrid.es/sites/v/index.jsp?vgnextchannel=bfa48ab43d6bb410VgnVCM100000171f5a0aRCRD&vgnextoid=97feb069a541f010VgnVCM1000000b205a0aRCRD;PARROQUIA;PLAZA;V;1;;;;;MADRID;MADRID;28025;PUERTA BONITA;CARABANCHEL;437074;4470204;40.380.040.400.811.300;-37.413.207.215.629.000;914 628 536;;sansebastiancarabanchel@archimadrid.es;/contenido/entidadesYorganismos/TemplosIglesiasCatolicas; 
3684;Parroquia San Simón y San Judas;;;;Metro: San Fermín-Orcasur (línea 3). Bus : 78, 116 Cercanías Renfe: Orcasitas (línea C5).;;3;http://www.madrid.es/sites/v/index.jsp?vgnextchannel=bfa48ab43d6bb410VgnVCM100000171f5a0aRCRD&vgnextoid=092fb069a541f010VgnVCM1000000b205a0aRCRD;ORCASUR;AVENIDA;V;0;;;;;MADRID;MADRID;28041;ORCASUR;USERA;440524;4469103;4.037.038.446.580.720;-370.056.603.706.231;913 178 059;;;/contenido/entidadesYorganismos/TemplosIglesiasCatolicas; 
3694;Parroquia San Valentín y San Casimiro;;;;Metro: Vicálvaro (línea 9). Bus: 100.;;3;http://www.madrid.es/sites/v/index.jsp?vgnextchannel=bfa48ab43d6bb410VgnVCM100000171f5a0aRCRD&vgnextoid=0e5fb069a541f010VgnVCM1000000b205a0aRCRD;VILLAJIMENA;CALLE;V;75;;;;;MADRID;MADRID;28032;AMBROZ;VICALVARO;448557;4473119;40.407.097.827.485.500;-3.606.275.317.900.550;913 718 941;;parroquiasvsc@archimadrid.es;/contenido/entidadesYorganismos/TemplosIglesiasCatolicas; 
3704;Parroquia San Vicente de Paúl;;;;Metro: Opañel (línea 6). Bus: 55, 108, 247, 81, 118.;;3;http://www.madrid.es/sites/v/index.jsp?vgnextchannel=bfa48ab43d6bb410VgnVCM100000171f5a0aRCRD&vgnextoid=047fb069a541f010VgnVCM1000000b205a0aRCRD;SAN VICENTE DE PAUL;PLAZA;V;1;;;;;MADRID;MADRID;28025;ABRANTES;CARABANCHEL;438382;4470785;403.853.810.852.385;-3.725.969.104.633.040;915 693 818;;sanvicpaul@archimadrid.es;/contenido/entidadesYorganismos/TemplosIglesiasCatolicas; 
3697;Parroquia San Vicente Ferrer;;;;Metro: Ibiza (línea 9), Sainz de Baranda (líneas 6, 9). Bus: 2, 15, 215.;;3;http://www.madrid.es/sites/v/index.jsp?vgnextchannel=bfa48ab43d6bb410VgnVCM100000171f5a0aRCRD&vgnextoid=4a8fb069a541f010VgnVCM1000000b205a0aRCRD;IBIZA;CALLE;V;43;;;;bis;MADRID;MADRID;28009;IBIZA;RETIRO;442945;4474396;404.182.359.609.083;-36.725.370.704.183.000;915 041 521;;sanvicenteferrer@archimadrid.es;/contenido/entidadesYorganismos/TemplosIglesiasCatolicas; 
3698;Parroquia San Víctor;;;;Metro: Lacoma (línea 7). Bus: 67.;;3;http://www.madrid.es/sites/v/index.jsp?vgnextchannel=bfa48ab43d6bb410VgnVCM100000171f5a0aRCRD&vgnextoid=75afb069a541f010VgnVCM1000000b205a0aRCRD;RAMON GOMEZ DE LA SERNA;CALLE;V;101;;;;;MADRID;MADRID;28035;PEÑA GRANDE;FUENCARRAL-EL PARDO;438390;4481536;4.048.222.205.249.460;-3.726.905.188.579.610;913 736 764;;;/contenido/entidadesYorganismos/TemplosIglesiasCatolicas; 
3402;Parroquia Santa Adela;;;;Metro: Canillejas (línea 5) Bus: 165, 77, 140, SE72;;3;http://www.madrid.es/sites/v/index.jsp?vgnextchannel=bfa48ab43d6bb410VgnVCM100000171f5a0aRCRD&vgnextoid=7bbfb069a541f010VgnVCM1000000b205a0aRCRD;SAN FAUSTINO;CALLE;V;6;;;;;MADRID;MADRID;28022;CANILLEJAS;SAN BLAS-CANILLEJAS;448347;4477568;4.044.715.519.402.980;-3.609.111.502.480.510;917 421 921 / 917 421 908;;santadela@archimadrid.es;/contenido/entidadesYorganismos/TemplosIglesiasCatolicas; 
3414;Parroquia Santa Ana y Nuestra Señora de la Esperanza;;;;Bus: 71.  Metro: Artilleros (línea 9).;;3;http://www.madrid.es/sites/v/index.jsp?vgnextchannel=bfa48ab43d6bb410VgnVCM100000171f5a0aRCRD&vgnextoid=71dfb069a541f010VgnVCM1000000b205a0aRCRD;"CA&amp;Ntilde;ADA";CALLE;V;35;;;;;MADRID;MADRID;28030;VINATEROS;MORATALAZ;445269;4472956;40.405.419.690.009.400;-3.645.021.156.304.460;914 303 298;;santaanaylaesperanza@archimadrid.es;/contenido/entidadesYorganismos/TemplosIglesiasCatolicas; 
3418;Parroquia Santa Ángela de la Cruz;;;;Metro: Antonio Machado (línea 7). Bus: 127, 42, 132, 137.;;3;http://www.madrid.es/sites/v/index.jsp?vgnextchannel=bfa48ab43d6bb410VgnVCM100000171f5a0aRCRD&vgnextoid=b7efb069a541f010VgnVCM1000000b205a0aRCRD;CESAR MANRIQUE;CALLE;V;7;;;;;MADRID;MADRID;28035;PEÑA GRANDE;FUENCARRAL-EL PARDO;438919;4480465;4.047.262.213.558.600;-37.205.729.912.660.600;913 733 691;;parsantangela@hotmail.com;/contenido/entidadesYorganismos/TemplosIglesiasCatolicas; 
3358;Parroquia Santa Bárbara;;;;Metro: Colón (línea 4). Bus: 5, 14, 27, 45, 53, 150. Cercanías Renfe: Recoletos (líneas C1, C2, C7, C8 y C10).;;3;http://www.madrid.es/sites/v/index.jsp?vgnextchannel=bfa48ab43d6bb410VgnVCM100000171f5a0aRCRD&vgnextoid=6effb069a541f010VgnVCM1000000b205a0aRCRD;"GENERAL CASTA&amp;Ntilde;OS";CALLE;V;2;;;;;MADRID;MADRID;28004;JUSTICIA;CENTRO;441121;4475082;4.042.428.879.388.520;-36.940.873.878.242.100;913 194 811;;info@paroquiadesantabarbara.es;/contenido/entidadesYorganismos/MonumentosEdificiosArtisticos; 
3438;Parroquia Santa Beatriz;;;;Metro: Laguna (línea 6). Bus: 55. Cercanías Renfe: Laguna (línea C5).;;3;http://www.madrid.es/sites/v/index.jsp?vgnextchannel=bfa48ab43d6bb410VgnVCM100000171f5a0aRCRD&vgnextoid=9c10b069a541f010VgnVCM1000000b205a0aRCRD;CONCEJAL FRANCISCO JOSE JIMENEZ MARTIN;CALLE;V;130;;;;;MADRID;MADRID;28047;LUCERO;LATINA;436540;4472468;40.400.403.986.918.700;-37.478.367.537.776.100;914 647 066;;parroquiastabeatriz@archimadrid.es;/contenido/entidadesYorganismos/TemplosIglesiasCatolicas; 
3444;Parroquia Santa Bibiana;;;;Metro: Villaverde Bajo Cruce (línea 3).   Bus: 116, 130, 18, 22.;;3;http://www.madrid.es/sites/v/index.jsp?vgnextchannel=bfa48ab43d6bb410VgnVCM100000171f5a0aRCRD&vgnextoid=4630b069a541f010VgnVCM1000000b205a0aRCRD;ALCOCER;CALLE;V;9;;;;;MADRID;MADRID;28021;LOS ANGELES;VILLAVERDE;440858;4466866;40.350.247.042.735.400;-36.964.246.403.270.200;917 965 881;;;/contenido/entidadesYorganismos/TemplosIglesiasCatolicas; 
3457;Parroquia Santa Casilda;;;;Metro: Marqués de Vadillo (linea 5). Bus: 23, 55, 60.;;3;http://www.madrid.es/sites/v/index.jsp?vgnextchannel=bfa48ab43d6bb410VgnVCM100000171f5a0aRCRD&vgnextoid=4c40b069a541f010VgnVCM1000000b205a0aRCRD;PARADOR DEL SOL;CALLE;V;10;;;;;MADRID;MADRID;28019;COMILLAS;CARABANCHEL;439778;4471659;40.393.347.659.705.800;-3.709.593.988.018.710;915 691 090;;parroquiasantacasilda@archimadrid.es;/contenido/entidadesYorganismos/TemplosIglesiasCatolicas; 
3380;Parroquia Santa Catalina de Alejandría;;;;Metro: El Capricho (línea 5). Bus: 101, 105, 151, 211, 212.;;3;http://www.madrid.es/sites/v/index.jsp?vgnextchannel=bfa48ab43d6bb410VgnVCM100000171f5a0aRCRD&vgnextoid=4260b069a541f010VgnVCM1000000b205a0aRCRD;RAMBLA;CALLE;V;5;;;;;MADRID;MADRID;28042;ALAMEDA DE OSUNA;BARAJAS;449607;4478951;4.045.782.898.468.120;-35.956.445.930.957.200;917 426 437;;catalinadealejandria@hotmail.com;/contenido/entidadesYorganismos/TemplosIglesiasCatolicas; 
3461;Parroquia Santa Catalina de Siena;;;;Metro: Conde de Casal (líneas 6). Bus : 14, 32, 63. Bicimad: Estación 76 (avenida del Mediterraneo, 19).;;3;http://www.madrid.es/sites/v/index.jsp?vgnextchannel=bfa48ab43d6bb410VgnVCM100000171f5a0aRCRD&vgnextoid=8770b069a541f010VgnVCM1000000b205a0aRCRD;JUAN DE URBIETA;CALLE;V;57;;;;;MADRID;MADRID;28007;NIÑO JESUS;RETIRO;442801;4473336;40.408.677.099.665.100;-36.741.272.429.417.000;915 512 507;;par.santacatalinadesiena@archimadrid.es;/contenido/entidadesYorganismos/TemplosIglesiasCatolicas; 
3460;Parroquia Santa Catalina Labouré;;;;Metro: Plaza Elíptica (líneas 6, 11), Opañel (línea 6). Bus: 55, 81.;;3;http://www.madrid.es/sites/v/index.jsp?vgnextchannel=bfa48ab43d6bb410VgnVCM100000171f5a0aRCRD&vgnextoid=bd80b069a541f010VgnVCM1000000b205a0aRCRD;"ARROYO OPA&amp;Ntilde;EL";CALLE;V;29;;;;;MADRID;MADRID;28019;OPAÑEL;CARABANCHEL;438971;4471212;4.038.739.838.831.170;-37.203.237.047.626.200;914 699 179;;santacatalinalaboure@archimadrid.es;/contenido/entidadesYorganismos/TemplosIglesiasCatolicas; 
3379;Parroquia Santa Cecilia;;;;Bus: 112, 114, 166.;;3;http://www.madrid.es/sites/v/index.jsp?vgnextchannel=bfa48ab43d6bb410VgnVCM100000171f5a0aRCRD&vgnextoid=2fa0b069a541f010VgnVCM1000000b205a0aRCRD;MEDINA DE POMAR;CALLE;V;11;;;;;MADRID;MADRID;28042;AEROPUERTO;BARAJAS;450432;4478089;4.045.198.463.362.450;-35.845.663.868.554.600;917 475 814;;parroquiasantacecilia@archimadrid.es;/contenido/entidadesYorganismos/TemplosIglesiasCatolicas; 
3471;Parroquia Santa Cristina;;;;Metro: Puerta del Angel (línea 6). Bus: 65, 36, 31, 33, 39, 138.;;3;http://www.madrid.es/sites/v/index.jsp?vgnextchannel=bfa48ab43d6bb410VgnVCM100000171f5a0aRCRD&vgnextoid=25c0b069a541f010VgnVCM1000000b205a0aRCRD;EXTREMADURA;PASEO;V;32;;;;;MADRID;MADRID;28011;PUERTA DEL ANGEL;LATINA;438239;4473945;4.041.383.727.525.870;-37.279.485.176.578.400;914 644 970;;psantacristina@archimadrid.es;/contenido/entidadesYorganismos/TemplosIglesiasCatolicas; 
3362;Parroquia Santa Cruz;;;;Metro: Sol (líneas 1, 2, 3), Tirso de Molina (línea 1). Bus: 50, 26, 32, 6, 65, 18, 23, 17, M1, 31. Cercanías Renfe: Sol (líneas C3 y C4). Bicimad: Estaciones 32 (plaza de la Provincia, 1), 34 (plaza de Jacinto Benavente), 40 (plaza del Conde Romanones, 9).;;3;http://www.madrid.es/sites/v/index.jsp?vgnextchannel=bfa48ab43d6bb410VgnVCM100000171f5a0aRCRD&vgnextoid=40e0b069a541f010VgnVCM1000000b205a0aRCRD;ATOCHA;CALLE;V;6;;;;;MADRID;MADRID;28012;SOL;CENTRO;440165;4474015;40.414.608.558.946.000;-3.705.255.882.048.690;913 691 239;;santacruz@archimadrid.es;/contenido/entidadesYorganismos/MonumentosEdificiosArtisticos; 
3496;Parroquia Santa Elena;;;;Metro: Alonso Martínez (líneas 4, 5 y 10). Bus: 21, 3, 7. Bicimad: Estación 8 (plaza de Alonso Martínez, 5).;;3;http://www.madrid.es/sites/v/index.jsp?vgnextchannel=bfa48ab43d6bb410VgnVCM100000171f5a0aRCRD&vgnextoid=67f0b069a541f010VgnVCM1000000b205a0aRCRD;ORFILA;CALLE;V;1;;;;;MADRID;MADRID;28010;ALMAGRO;CHAMBERI;441186;4475431;40.427.437.349.794.000;-36.933.534.811.225.400;913 191 875;;info@parroquiadesantabarbara.es;/contenido/entidadesYorganismos/TemplosIglesiasCatolicas; 
3508;Parroquia Santa Eugenia;;;;Bus: 58, 63, 145.;;3;http://www.madrid.es/sites/v/index.jsp?vgnextchannel=bfa48ab43d6bb410VgnVCM100000171f5a0aRCRD&vgnextoid=2e01b069a541f010VgnVCM1000000b205a0aRCRD;"VIRGEN DE LAS VI&amp;Ntilde;AS";CALLE;V;17;;;;;MADRID;MADRID;28031;SANTA EUGENIA;VILLA DE VALLECAS;448329;4470141;4.038.025.586.201.320;-36.087.206.082.757.100;913 317 190;;parroquiasantaeugenia@archimadrid.es;/contenido/entidadesYorganismos/TemplosIglesiasCatolicas; 
3509;Parroquia Santa Eulalia de Mérida;;;;Bus: 103, 111, 24.;;3;http://www.madrid.es/sites/v/index.jsp?vgnextchannel=bfa48ab43d6bb410VgnVCM100000171f5a0aRCRD&vgnextoid=9621b069a541f010VgnVCM1000000b205a0aRCRD;PEDROCHES;CALLE;V;5;;;;;MADRID;MADRID;28053;ENTREVIAS;PUENTE DE VALLECAS;443135;4470114;403.796.743.689.357;-3.669.903.376.835.290;917 858 383;;;/contenido/entidadesYorganismos/TemplosIglesiasCatolicas; 
3521;Parroquia Santa Florentina;;;;Bus: 38, 48, 140   Metro: Las Musas (línea 7);;3;http://www.madrid.es/sites/v/index.jsp?vgnextchannel=bfa48ab43d6bb410VgnVCM100000171f5a0aRCRD&vgnextoid=e651b069a541f010VgnVCM1000000b205a0aRCRD;LONGARES;CALLE;V;8;;;;;MADRID;MADRID;28022;ROSAS;SAN BLAS-CANILLEJAS;448286;4475821;4.043.142.237.577.190;-36.096.886.871.893.600;913 133 663;;p.santaflorentina@archimadrid.es;/contenido/entidadesYorganismos/TemplosIglesiasCatolicas; 
3532;Parroquia Santa Gema;;;;Metro: Cruz del Rayo (línea 9). Bus: 16, 19, 51, 7.;;3;http://www.madrid.es/sites/v/index.jsp?vgnextchannel=bfa48ab43d6bb410VgnVCM100000171f5a0aRCRD&vgnextoid=0d61b069a541f010VgnVCM1000000b205a0aRCRD;LEIZARAN;CALLE;V;24;;;;;MADRID;MADRID;28002;EL VISO;CHAMARTIN;442193;4477694;40.447.894.125.461.900;-3.681.688.718.771.780;915 635 068;;sec.cpsang@alfaexpress.net;/contenido/entidadesYorganismos/TemplosIglesiasCatolicas; 
3543;Parroquia Santa Inés;;;;Metro: Villaverde Alto (línea 3). Bus: 79. Renfe: Villaverde Alto (C4, C5).;;3;http://www.madrid.es/sites/v/index.jsp?vgnextchannel=bfa48ab43d6bb410VgnVCM100000171f5a0aRCRD&vgnextoid=0981b069a541f010VgnVCM1000000b205a0aRCRD;REAL DE PINTO;AVENIDA;V;72;;;;;MADRID;MADRID;28021;SAN ANDRES;VILLAVERDE;439933;4466054;4.034.287.492.199.270;-3.707.251.624.305.590;917 967 181;;santaines@archimadrid.es;/contenido/entidadesYorganismos/TemplosIglesiasCatolicas; 
3547;Parroquia Santa Irene;;;;Bus: 144, 54.;;3;http://www.madrid.es/sites/v/index.jsp?vgnextchannel=bfa48ab43d6bb410VgnVCM100000171f5a0aRCRD&vgnextoid=0f91b069a541f010VgnVCM1000000b205a0aRCRD;ANDALUCES;CALLE;V;7;;;;;MADRID;MADRID;28038;PALOMERAS SURESTE;PUENTE DE VALLECAS;445779;4471307;40.390.597.911.831.200;-3.638.858.903.756.560;915 157 951;;parroquiasantairene@archimadrid.es;/contenido/entidadesYorganismos/TemplosIglesiasCatolicas; 
3581;Parroquia Santa Luisa de Marillac;;;;Metro: Abrantes (línea  11). Bus: 108, 47, 116.;;3;http://www.madrid.es/sites/v/index.jsp?vgnextchannel=bfa48ab43d6bb410VgnVCM100000171f5a0aRCRD&vgnextoid=05b1b069a541f010VgnVCM1000000b205a0aRCRD;ABRANTES;AVENIDA;V;111;;;;;MADRID;MADRID;28025;ABRANTES;CARABANCHEL;437988;4470066;40.378.874.834.395.600;-37.305.289.359.271.800;914 691 960;;par.santaluisademarillac@archimadrid.es;/contenido/entidadesYorganismos/TemplosIglesiasCatolicas; 
4923174;Parroquia Santa Maravillas de Jesús;;;;Bus: 35, 155.;;3;http://www.madrid.es/sites/v/index.jsp?vgnextchannel=bfa48ab43d6bb410VgnVCM100000171f5a0aRCRD&vgnextoid=0a0b25a10f92a110VgnVCM1000000b205a0aRCRD;MORALES;CALLE;V;64;;;;;MADRID;MADRID;28054;BUENAVISTA;CARABANCHEL;435014;4468203;4.036.186.553.356.240;-3.765.371.191.569.050;917 524 136;;parroquiamaravillas@archimadrid.es;/contenido/entidadesYorganismos/TemplosIglesiasCatolicas; 
3590;Parroquia Santa Margarita María de Alacoque;;;;Metro: Puerta del Angel (línea 6). Bus: 138.;;3;http://www.madrid.es/sites/v/index.jsp?vgnextchannel=bfa48ab43d6bb410VgnVCM100000171f5a0aRCRD&vgnextoid=0bc1b069a541f010VgnVCM1000000b205a0aRCRD;JAIME VERA;CALLE;V;33;;;;;MADRID;MADRID;28011;PUERTA DEL ANGEL;LATINA;438294;4473706;4.040.980.649.816.470;-37.285.415.133.975.700;914 649 930;;santamargaritaalacoque@archimadrid.es;/contenido/entidadesYorganismos/TemplosIglesiasCatolicas; 
3727;Parroquia Santa María;;;Parroquia personal de habla alemana.;Metro: Bambú (línea 1). Bus: 129, 150, 174, T62.;;3;http://www.madrid.es/sites/v/index.jsp?vgnextchannel=bfa48ab43d6bb410VgnVCM100000171f5a0aRCRD&vgnextoid=bb04b069a541f010VgnVCM1000000b205a0aRCRD;BURGOS;AVENIDA;V;12;;;;;MADRID;MADRID;28036;CASTILLA;CHAMARTIN;442722;4480571;40.473.848.069.808.000;-36.757.105.430.292.000;917 680 725;;info@dkgmadrid.com;/contenido/entidadesYorganismos/TemplosIglesiasCatolicas; 
3551;Parroquia Santa María de Cervellón;;;;Metro: Arturo Soria (línea 4). Bus: 11, 70, 120, 122.;;3;http://www.madrid.es/sites/v/index.jsp?vgnextchannel=bfa48ab43d6bb410VgnVCM100000171f5a0aRCRD&vgnextoid=01e1b069a541f010VgnVCM1000000b205a0aRCRD;BELISANA;CALLE;V;2;;;;;MADRID;MADRID;28043;COLINA;CIUDAD LINEAL;444292;4478744;4.045.749.636.314.000;-3.657.029.970.531.770;913 002 902;;parroquia.cervellon@gmail.com;/contenido/entidadesYorganismos/TemplosIglesiasCatolicas; 
3599;Parroquia Santa María de la Caridad;;;;Metro: Herrera Oria (línea 9). Bus: 124, 67, 133, 83.;;3;http://www.madrid.es/sites/v/index.jsp?vgnextchannel=bfa48ab43d6bb410VgnVCM100000171f5a0aRCRD&vgnextoid=8132b069a541f010VgnVCM1000000b205a0aRCRD;FERMIN CABALLERO;CALLE;V;39;;;;;MADRID;MADRID;28034;LA PAZ;FUENCARRAL-EL PARDO;440289;4481813;4.048.486.511.548.350;-37.045.276.665.663.900;917 306 851;;smcaridad@archimadrid.es;/contenido/entidadesYorganismos/TemplosIglesiasCatolicas; 
3600;Parroquia Santa María de la Esperanza;;;;Metro: Herrera Oria (línea 9).   Bus: 124, 67, 133, 83.;;3;http://www.madrid.es/sites/v/index.jsp?vgnextchannel=bfa48ab43d6bb410VgnVCM100000171f5a0aRCRD&vgnextoid=9942b069a541f010VgnVCM1000000b205a0aRCRD;FERMIN CABALLERO;CALLE;V;53;;;;;MADRID;MADRID;28034;EL PILAR;FUENCARRAL-EL PARDO;440132;4481825;40.483.080.303.551.200;-37.076.474.197.617.900;917 392 222;;smesperanza@archimadrid.es;/contenido/entidadesYorganismos/TemplosIglesiasCatolicas; 
3601;Parroquia Santa María de la Fe;;;;Metro: Avenida de la Ilustración (línea 7).   Bus: 83.;;3;http://www.madrid.es/sites/v/index.jsp?vgnextchannel=bfa48ab43d6bb410VgnVCM100000171f5a0aRCRD&vgnextoid=7362b069a541f010VgnVCM1000000b205a0aRCRD;PUERTO DE MASPALOMAS;CALLE;V;16;;;;;MADRID;MADRID;28029;EL PILAR;FUENCARRAL-EL PARDO;439501;4481147;4.047.880.850.659.640;-3.713.761.015.315.400;913 860 220;;santamariadelafe@archimadrid.es;/contenido/entidadesYorganismos/TemplosIglesiasCatolicas; 
3607;Parroquia Santa María de Martala;;;;Bus: 30.;;3;http://www.madrid.es/sites/v/index.jsp?vgnextchannel=bfa48ab43d6bb410VgnVCM100000171f5a0aRCRD&vgnextoid=7972b069a541f010VgnVCM1000000b205a0aRCRD;FOBOS;CALLE;V;2;;;;;MADRID;MADRID;28030;MARROQUINA;MORATALAZ;446144;4473328;4.040.882.802.221.500;-36.347.295.106.313.400;913 713 294;;samama@archimadrid.es;/contenido/entidadesYorganismos/TemplosIglesiasCatolicas; 
8174584;Parroquia Santa María de Nazaret;;;;Metro: Las Suertes (línea 1).   Bus: 142.;;3;http://www.madrid.es/sites/v/index.jsp?vgnextchannel=bfa48ab43d6bb410VgnVCM100000171f5a0aRCRD&vgnextoid=98e83af83a54f410VgnVCM1000000b205a0aRCRD;"CA&amp;Ntilde;ADA DEL SANTISIMO";CALLE;V;27;;;;;MADRID;MADRID;28051;CASCO H.VALLECAS;VILLA DE VALLECAS;449322;4468606;4.036.648.844.495.450;-3.596.900.948.645.160;627 071 241;;santamariadenazaret@archimadrid.es;/contenido/entidadesYorganismos/TemplosIglesiasCatolicas; 
3595;Parroquia Santa María del Bosque;;;;Bus: 7, 70.;;3;http://www.madrid.es/sites/v/index.jsp?vgnextchannel=bfa48ab43d6bb410VgnVCM100000171f5a0aRCRD&vgnextoid=7f82b069a541f010VgnVCM1000000b205a0aRCRD;MANUEL URIBE;CALLE;V;1;;;;;MADRID;MADRID;28033;ATALAYA;CIUDAD LINEAL;443656;4479524;404.644.800.965.384;-36.645.998.357.162.100;913 000 646;;stamariadelbosque@gmail.com;/contenido/entidadesYorganismos/TemplosIglesiasCatolicas; 
3596;Parroquia Santa María del Buen Aire;;;;Bus: 8, 20.   Metro: Pavones (línea 9).;;3;http://www.madrid.es/sites/v/index.jsp?vgnextchannel=bfa48ab43d6bb410VgnVCM100000171f5a0aRCRD&vgnextoid=75a2b069a541f010VgnVCM1000000b205a0aRCRD;ENCOMIENDA DE PALACIOS;CALLE;V;192;;;;;MADRID;MADRID;28030;FONTARRON;MORATALAZ;445550;4472286;4.039.940.241.336.230;-3.641.640.649.015.930;917 730 363;;santamariadelbuenaire@archimadrid.es;/contenido/entidadesYorganismos/TemplosIglesiasCatolicas; 
3598;Parroquia Santa María del Camino;;;;Bus: 20, 8.   Metro: Pavones (línea 9).;;3;http://www.madrid.es/sites/v/index.jsp?vgnextchannel=bfa48ab43d6bb410VgnVCM100000171f5a0aRCRD&vgnextoid=bbb2b069a541f010VgnVCM1000000b205a0aRCRD;ENCOMIENDA DE PALACIOS;CALLE;V;334;;;;;MADRID;MADRID;28030;PAVONES;MORATALAZ;446115;4471953;4.039.643.929.309.240;-3.634.954.876.493.030;917 721 569;;smcaminoynspalabra@archimadrid.es;/contenido/entidadesYorganismos/TemplosIglesiasCatolicas; 
3611;Parroquia Santa María del Monte Carmelo;;;;Metro: Velázquez (línea 4) Bus: 1, 9, 19, 51, 74 Bicimad: Estación 87 (calle Ayala, 44);;3;http://www.madrid.es/sites/v/index.jsp?vgnextchannel=bfa48ab43d6bb410VgnVCM100000171f5a0aRCRD&vgnextoid=e6d2b069a541f010VgnVCM1000000b205a0aRCRD;AYALA;CALLE;V;35;;;;;MADRID;MADRID;28001;RECOLETOS;SALAMANCA;442037;4475462;4.042.777.634.196.350;-3.683.324.619.190.930;914 351 660 / 915 764 946;;smariamontecarmelo@archimadrid.es;/contenido/entidadesYorganismos/TemplosIglesiasCatolicas; 
3612;Parroquia Santa María del Parque;;;;Metro: Parque de Santa María (línea 4).;;3;http://www.madrid.es/sites/v/index.jsp?vgnextchannel=bfa48ab43d6bb410VgnVCM100000171f5a0aRCRD&vgnextoid=5ee2b069a541f010VgnVCM1000000b205a0aRCRD;SANTA VIRGILIA;CALLE;V;13;;;;;MADRID;MADRID;28033;PINAR DEL REY;HORTALEZA;445576;4480928;4.047.725.595.734.670;-36.420.862.978.327.000;917 631 228;;psmdelparque@gmail.com;/contenido/entidadesYorganismos/TemplosIglesiasCatolicas; 
3613;Parroquia Santa María del Pilar;;;;Sainz de Baranda (líneas 6, 9). Bus: 14, 32, 152, 26, 63, C2, 10, C1. Bicimad: Estación 75 (avenida Menéndez Pelayo, 90).;;3;http://www.madrid.es/sites/v/index.jsp?vgnextchannel=bfa48ab43d6bb410VgnVCM100000171f5a0aRCRD&vgnextoid=2603b069a541f010VgnVCM1000000b205a0aRCRD;REYES MAGOS;CALLE;V;3;;;;;MADRID;MADRID;28009;NIÑO JESUS;RETIRO;442799;4473716;40.412.100.206.424.100;-3.674.184.973.880.870;915 748 120;;santamariadelpilar@archimadrid.es;/contenido/entidadesYorganismos/TemplosIglesiasCatolicas; 
3614;Parroquia Santa María del Pinar;;;;Metro: Pinar de Chamartín (líneas 1, 4, ML1). Bus: 29, 125, 129, 150.;;3;http://www.madrid.es/sites/v/index.jsp?vgnextchannel=bfa48ab43d6bb410VgnVCM100000171f5a0aRCRD&vgnextoid=2c13b069a541f010VgnVCM1000000b205a0aRCRD;JAZMIN;CALLE;V;7;;;;;MADRID;MADRID;28033;COSTILLARES;CIUDAD LINEAL;443470;4481127;40.478.908.015.024.100;-3.666.936.492.853.300;913 024 071;;santamariadelpinar@archimadrid.es;/contenido/entidadesYorganismos/TemplosIglesiasCatolicas; 
3615;Parroquia Santa María del Pozo y Santa Marta;;;;Bus: 102, 111.;;1;http://www.madrid.es/sites/v/index.jsp?vgnextchannel=bfa48ab43d6bb410VgnVCM100000171f5a0aRCRD&vgnextoid=5733b069a541f010VgnVCM1000000b205a0aRCRD;MONTANCHEZ;CALLE;V;13;;;;;MADRID;MADRID;28053;ENTREVIAS;PUENTE DE VALLECAS;443183;4469543;40.374.533.733.474.300;-3.669.287.042.842.150;917 861 189;;stamariapozo@archimadrid.es;/contenido/entidadesYorganismos/TemplosIglesiasCatolicas; 
3392;Parroquia Santa María del Silencio;Parroquia de personas sordas y sordociegas.;;;Metro: Cuatro Caminos (líneas, 1, 2, 6). Bus: 149, C1, C2. Bicimad: Estación 133 (calle Raimundo Fernández Villaverde, 33-35).;Se encuentra ubicada dentrio del Hospital de Jornaleros de Maudes (edificio público de carácter benéfico promovido por doña Dolores Romero, viuda de Curiel, que fue Premio del Ayuntamiento en 1916).;3;http://www.madrid.es/sites/v/index.jsp?vgnextchannel=bfa48ab43d6bb410VgnVCM100000171f5a0aRCRD&vgnextoid=9c43b069a541f010VgnVCM1000000b205a0aRCRD;RAIMUNDO FERNANDEZ VILLAVERDE;CALLE;V;18;;;;;MADRID;MADRID;28003;RIOS ROSAS;CHAMBERI;440547;4477547;4.044.645.379.827.350;-370.108.404.423.672;915 546 236;;stamsilencio@stamsilencio.com;/contenido/entidadesYorganismos/TemplosIglesiasCatolicas; 
3618;Parroquia Santa María del Val;;;;Metro: Barrio del Pilar (línea 9). Bus: 49, 132, 137, 128, 83.;;3;http://www.madrid.es/sites/v/index.jsp?vgnextchannel=bfa48ab43d6bb410VgnVCM100000171f5a0aRCRD&vgnextoid=0863b069a541f010VgnVCM1000000b205a0aRCRD;MONFORTE DE LEMOS;AVENIDA;V;115;;;;;MADRID;MADRID;28029;EL PILAR;FUENCARRAL-EL PARDO;439930;4481079;40.478.227.081.663.000;-3.708.693.644.369.920;917 309 461;;smdelval@gmail.com;/contenido/entidadesYorganismos/TemplosIglesiasCatolicas; 
10471114;Parroquia Santa María Josefa del Corazón de Jesús;;;;Metro: La Gavia (línea 1). Bus: 145.;;3;http://www.madrid.es/sites/v/index.jsp?vgnextchannel=bfa48ab43d6bb410VgnVCM100000171f5a0aRCRD&vgnextoid=54aca0752bf0e510VgnVCM2000001f4a900aRCRD;LA GAVIA;AVENIDA;V;25;;;;;MADRID;MADRID;28051;CASCO H.VALLECAS;VILLA DE VALLECAS;448078;4469306;40.372.717.994.646.100;-3.611.609.383.129.390;914 254 468;;parroquiasantamariajosefa@gmail.com;/contenido/entidadesYorganismos/TemplosIglesiasCatolicas; 
3592;Parroquia Santa María La Antigua;;;;Metro: San Cipriano (línea 9) Bus: 4, 106.;;3;http://www.madrid.es/sites/v/index.jsp?vgnextchannel=bfa48ab43d6bb410VgnVCM100000171f5a0aRCRD&vgnextoid=9e73b069a541f010VgnVCM1000000b205a0aRCRD;VIRGEN DE LA ANTIGUA;CALLE;V;9;;;;;MADRID;MADRID;28032;CASCO H.VICALVARO;VICALVARO;448647;4472522;4.040.172.520.926.160;-36.051.665.218.853.500;917 765 202;;antiguavicalvaro@archimadrid.es;/contenido/entidadesYorganismos/TemplosIglesiasCatolicas; 
3594;Parroquia Santa María la Blanca;;;;Metro: Canillejas (línea 5)  Bus : 48, 77, 105, 140, 153;;3;http://www.madrid.es/sites/v/index.jsp?vgnextchannel=bfa48ab43d6bb410VgnVCM100000171f5a0aRCRD&vgnextoid=c993b069a541f010VgnVCM1000000b205a0aRCRD;VILLA DE CANILLEJAS;PLAZA;V;1;;;;;MADRID;MADRID;28022;CANILLEJAS;SAN BLAS-CANILLEJAS;448162;4477353;4.044.521.583.994.070;-36.112.755.082.967.000;917 410 355 / 917 418 040;;parroquialablanca@archimadrid.es;/contenido/entidadesYorganismos/TemplosIglesiasCatolicas; 
189092;Parroquia Santa María la Blanca de Montecarmelo;;;;Bus: 134, 178.;;3;http://www.madrid.es/sites/v/index.jsp?vgnextchannel=bfa48ab43d6bb410VgnVCM100000171f5a0aRCRD&vgnextoid=9d058aa6bd91f010VgnVCM1000000b205a0aRCRD;MONASTERIO DE OSEIRA;CALLE;V;25;;;;;MADRID;MADRID;28049;EL GOLOSO;FUENCARRAL-EL PARDO;441043;4484828;40.512.079.203.751.000;-3.695.912.476.173.430;914 109 815;;luisdelezama@santamarialablanca.es;/contenido/entidadesYorganismos/TemplosIglesiasCatolicas; 
3608;Parroquia Santa María la Mayor y San Julián;;;;Metro: Estrecho (línea 1). Bus: 126, 168, 64.;;3;http://www.madrid.es/sites/v/index.jsp?vgnextchannel=bfa48ab43d6bb410VgnVCM100000171f5a0aRCRD&vgnextoid=3328ff632081c010VgnVCM1000000b205a0aRCRD;CENICIENTOS;CALLE;V;1;;;;;MADRID;MADRID;28039;BERRUGUETE;TETUAN;440190;4478804;4.045.775.176.629.400;-3.705.411.974.831.110;913 114 170;;smlamayor@archimadrid.es;/contenido/entidadesYorganismos/TemplosIglesiasCatolicas; 
3616;Parroquia Santa María la Real de la Almudena;;;;Metro: Opera (líneas 2, 5, Ramal). Bus: 148, 3. Bicimad: Estación 166 (calle Segovia, 26).;;3;http://www.madrid.es/sites/v/index.jsp?vgnextchannel=bfa48ab43d6bb410VgnVCM100000171f5a0aRCRD&vgnextoid=0fa3b069a541f010VgnVCM1000000b205a0aRCRD;MAYOR;CALLE;V;90;;;;;MADRID;MADRID;28013;PALACIO;CENTRO;439405;4474088;4.041.521.119.054.690;-37.142.200.549.476.700;915 480 930;;almudena@archimadrid.es;/contenido/entidadesYorganismos/TemplosIglesiasCatolicas; 
3605;Parroquia Santa María Madre de la Iglesia;;;;Metro: Carabanchel Alto (línea 11). Bus: 35, 47.;;3;http://www.madrid.es/sites/v/index.jsp?vgnextchannel=bfa48ab43d6bb410VgnVCM100000171f5a0aRCRD&vgnextoid=45c3b069a541f010VgnVCM1000000b205a0aRCRD;GÓMEZ DE ARTECHE;CALLE;V;30;;;;;MADRID;MADRID;28044;BUENAVISTA;CARABANCHEL;435762;4468968;4.036.881.495.577.830;-37.566.394.279.327.900;915 082 374;;marianistas.smmi@archimadrid.es;/contenido/entidadesYorganismos/TemplosIglesiasCatolicas; 
3606;Parroquia Santa María Magdalena;;;;Metro: Pío XII (línea 9). Bus: 52.;;3;http://www.madrid.es/sites/v/index.jsp?vgnextchannel=bfa48ab43d6bb410VgnVCM100000171f5a0aRCRD&vgnextoid=4bd3b069a541f010VgnVCM1000000b205a0aRCRD;DRÁCENA;CALLE;V;23;;;;;MADRID;MADRID;28016;NUEVA ESPAÑA;CHAMARTIN;443154;4479409;4.046.340.992.767.370;-367.051.044.011.457;913 454 938;;psmmagdalena@hotmail.com;/contenido/entidadesYorganismos/TemplosIglesiasCatolicas; 
3610;Parroquia Santa María Micaela y San Enrique;;;;Metro: Estrecho (línea 1), Cuzco (línea 10). Bus: 3, 126, 5, 149.;;3;http://www.madrid.es/sites/v/index.jsp?vgnextchannel=bfa48ab43d6bb410VgnVCM100000171f5a0aRCRD&vgnextoid=80f3b069a541f010VgnVCM1000000b205a0aRCRD;SAN GERMÁN;CALLE;V;23;;;;;MADRID;MADRID;28020;CUATRO CAMINOS;TETUAN;441015;4478837;4.045.622.644.488.270;-3.696.963.415.991.360;915 794 269;;santamariamicaela@archimadrid.es;/contenido/entidadesYorganismos/TemplosIglesiasCatolicas; 
10482989;Parroquia Santa María Soledad Torres Acosta;;;;Bus: 172, 172S, 175. Metro: Las Tablas (línea 10).;;3;http://www.madrid.es/sites/v/index.jsp?vgnextchannel=bfa48ab43d6bb410VgnVCM100000171f5a0aRCRD&vgnextoid=e216acd02307e510VgnVCM2000001f4a900aRCRD;CAMINO DE SANTIAGO;AVENIDA;V;35;;;;;MADRID;MADRID;28050;VALVERDE;FUENCARRAL-EL PARDO;442949;4484060;40.505.294.054.780.600;-3.673.346.867.143.990;913 359 192;;iglesialastablas@archimadrid.es;/contenido/entidadesYorganismos/TemplosIglesiasCatolicas; 
3623;Parroquia Santa Matilde;;;;Metro: Alfonso XIII (línea 4). Bus: 9, 73.;;3;http://www.madrid.es/sites/v/index.jsp?vgnextchannel=bfa48ab43d6bb410VgnVCM100000171f5a0aRCRD&vgnextoid=b124b069a541f010VgnVCM1000000b205a0aRCRD;LOPEZ DE HOYOS;CALLE;V;166;;;;;MADRID;MADRID;28002;PROSPERIDAD;CHAMARTIN;443155;4477530;40.446.483.072.284.400;-3.670.330.403.563.390;914 132 820;;smatilde@hotmail.com;/contenido/entidadesYorganismos/TemplosIglesiasCatolicas; 
3629;Parroquia Santa Mónica;;;;Metro: Avenida de América (líneas 4, 6, 7, 9) Bus: 12, 29, 52, 61;;3;http://www.madrid.es/sites/v/index.jsp?vgnextchannel=bfa48ab43d6bb410VgnVCM100000171f5a0aRCRD&vgnextoid=ed34b069a541f010VgnVCM1000000b205a0aRCRD;PRINCIPE DE VERGARA;CALLE;V;87;;;;;MADRID;MADRID;28006;CASTELLANA;SALAMANCA;442375;4476404;4.043.628.582.493.570;-36.794.256.146.633.500;914 118 960;;santamonica@archimadrid.es;/contenido/entidadesYorganismos/TemplosIglesiasCatolicas; 
3639;Parroquia Santa Paula;;;;Metro: Mar de Cristal (líneas 4, 8), Canillas (línea 4). Bus: 112, 120, 153.;;3;http://www.madrid.es/sites/v/index.jsp?vgnextchannel=bfa48ab43d6bb410VgnVCM100000171f5a0aRCRD&vgnextoid=e354b069a541f010VgnVCM1000000b205a0aRCRD;CANILLAS;CARRETERA;V;115;;;;B;MADRID;MADRID;28043;CANILLAS;HORTALEZA;445808;4479739;4.046.656.008.335.920;-36.392.360.327.935.300;913 811 266;;p.santapaula@gmail.com;/contenido/entidadesYorganismos/TemplosIglesiasCatolicas; 
3396;Parroquia Santa Rita;;;;Metro: Islas Filipinas (línea 7). Bus: 12, 132, 82, C1, 1, 44, 62, 138. Bicimad: Estación 132 (calle Cea Bermúdez, 59).;;3;http://www.madrid.es/sites/v/index.jsp?vgnextchannel=bfa48ab43d6bb410VgnVCM100000171f5a0aRCRD&vgnextoid=e964b069a541f010VgnVCM1000000b205a0aRCRD;GAZTAMBIDE;CALLE;V;75;;;;;MADRID;MADRID;28015;GAZTAMBIDE;CHAMBERI;439328;4476669;4.043.845.634.670.500;-3.715.373.878.141.740;915 490 133;;rita@agustinosrecoletos.org;/contenido/entidadesYorganismos/TemplosIglesiasCatolicas; 
3668;Parroquia Santa Rosa de Lima;;;;Bus: 17, 25.;;3;http://www.madrid.es/sites/v/index.jsp?vgnextchannel=bfa48ab43d6bb410VgnVCM100000171f5a0aRCRD&vgnextoid=9084b069a541f010VgnVCM1000000b205a0aRCRD;VÍA CARPETANA;CALLE;V;47;;;;;MADRID;MADRID;28047;SAN ISIDRO;CARABANCHEL;437751;4472286;4.039.885.593.724.930;-3.733.537.635.392.130;914 281 170;;santarosadelima@archimadrid.es;/contenido/entidadesYorganismos/TemplosIglesiasCatolicas; 
3669;Parroquia Santa Rosalía;;;;Metro: Canillas (línea 4). Bus: 120, 73.;;3;http://www.madrid.es/sites/v/index.jsp?vgnextchannel=bfa48ab43d6bb410VgnVCM100000171f5a0aRCRD&vgnextoid=ad94b069a541f010VgnVCM1000000b205a0aRCRD;"LAS PEDRO&amp;Ntilde;ERAS";CALLE;V;13;;;;;MADRID;MADRID;28043;CANILLAS;HORTALEZA;446507;4479657;40.465.866.687.242.600;-36.309.843.583.716.800;913 001 988;;parroquiasantarosaliamadrid@gmail.com;/contenido/entidadesYorganismos/TemplosIglesiasCatolicas; 
59906;Parroquia Santa Teresa Benedicta de la Cruz;;;;Metro: Mirasierra (línea 9). Bus: 49, 64.;;3;http://www.madrid.es/sites/v/index.jsp?vgnextchannel=bfa48ab43d6bb410VgnVCM100000171f5a0aRCRD&vgnextoid=b3cf6fdb2541f010VgnVCM1000000b205a0aRCRD;SENDA DEL INFANTE;CALLE;V;22;;;;;MADRID;MADRID;28035;MIRASIERRA;FUENCARRAL-EL PARDO;438969;4482337;4.048.948.949.494.460;-37.201.515.921.425.000;913 763 479;;edithstein@archimadrid.es;/contenido/entidadesYorganismos/TemplosIglesiasCatolicas; 
8132680;Parroquia Santa Teresa de Calcuta;;;;Bus: 71.;;3;http://www.madrid.es/sites/v/index.jsp?vgnextchannel=bfa48ab43d6bb410VgnVCM100000171f5a0aRCRD&vgnextoid=3b898142a0d6e410VgnVCM2000000c205a0aRCRD;MINERVA;CALLE;V;58;;;;;MADRID;MADRID;28032;CASCO H.VICALVARO;VICALVARO;448561;4471973;4.039.677.413.854.550;-36.061.355.724.326.600;917 768 162;;bteresadecalcuta@archimadrid.es;/contenido/entidadesYorganismos/TemplosIglesiasCatolicas; 
3687;Parroquia Santa Teresa y San José;;;;Metro: Plaza de España (líneas 3, 10), Príncipe Pio (líneas 6, 10 y Ramal). Bus: 25, 39, 46, 62, 75, 138, 148, C1. Cercanías Renfe: Príncipe Pío (líneas C1, C7 y C10).;;3;http://www.madrid.es/sites/v/index.jsp?vgnextchannel=bfa48ab43d6bb410VgnVCM100000171f5a0aRCRD&vgnextoid=a3b4b069a541f010VgnVCM1000000b205a0aRCRD;"ESPA&amp;Ntilde;A";PLAZA;V;14;;;;;MADRID;MADRID;28008;ARGUELLES;MONCLOA-ARAVACA;439370;4474906;404.225.775.509.256;-3.714.710.539.571.380;915 479 105;;;/contenido/entidadesYorganismos/TemplosIglesiasCatolicas; 
3399;Parroquia Santa Teresa y Santa Isabel;;;;Metro: Iglesia (línea 1), Alonso Cano (línea 7). Bus: 16, 61, 3, 37, 5. Bicimad: Estación 126 (calle del General Álvarez de Castro, 2).;;3;http://www.madrid.es/sites/v/index.jsp?vgnextchannel=bfa48ab43d6bb410VgnVCM100000171f5a0aRCRD&vgnextoid=6fc4b069a541f010VgnVCM1000000b205a0aRCRD;PINTOR SOROLLA;GLORIETA;V;2;;;;;MADRID;MADRID;28010;TRAFALGAR;CHAMBERI;440701;4476283;4.043.507.812.578.090;-3.699.150.189.888.230;914 483 620;;santateresaysantaisabel@archimadrid.es;/contenido/entidadesYorganismos/TemplosIglesiasCatolicas; 
3572;Parroquia Santas Justa y Rufina.;;;;Metro: Alto de Extremadura (línea 6).;;3;http://www.madrid.es/sites/v/index.jsp?vgnextchannel=bfa48ab43d6bb410VgnVCM100000171f5a0aRCRD&vgnextoid=a5e4b069a541f010VgnVCM1000000b205a0aRCRD;SANTA ÁUREA;CALLE;V;7;;;;;MADRID;MADRID;28011;PUERTA DEL ANGEL;LATINA;437649;4473209;4.040.716.308.851.100;-37.348.299.146.743.100;914 639 960;;justayrufina@archimadrid.es;/contenido/entidadesYorganismos/TemplosIglesiasCatolicas; 
3648;Parroquia Santas Perpetua y Felicidad;;;;Metro: La Elipa (línea 2) Bus: 15, 28, 110, 113, 210;;3;http://www.madrid.es/sites/v/index.jsp?vgnextchannel=bfa48ab43d6bb410VgnVCM100000171f5a0aRCRD&vgnextoid=a105b069a541f010VgnVCM1000000b205a0aRCRD;SANTA FELICIDAD;CALLE;V;1;;;;;MADRID;MADRID;28017;VENTAS;CIUDAD LINEAL;444863;4475320;4.042.668.923.239.820;-36.499.987.334.929.000;914 052 783;;perpetuayfelicidad@archimadrid.es;/contenido/entidadesYorganismos/TemplosIglesiasCatolicas; 
3681;Parroquia Santiago el Mayor y Nuestra Señora de las Cruces;;;;Metro: San Bernardo (líneas 2, 4). Bus: M2, 21. Bicimad: Estación 12 (calle San Bernardo, 85).;;3;http://www.madrid.es/sites/v/index.jsp?vgnextchannel=bfa48ab43d6bb410VgnVCM100000171f5a0aRCRD&vgnextoid=ac15b069a541f010VgnVCM1000000b205a0aRCRD;SANTA CRUZ DE MARCENADO;CALLE;V;11;BAJO;;;;MADRID;MADRID;28015;UNIVERSIDAD;CENTRO;439898;4475577;4.042.866.052.669.560;-3.708.550.322.183.870;915 426 582;;parroquisantia@yahoo.es;/contenido/entidadesYorganismos/TemplosIglesiasCatolicas; 
3373;Parroquia Santiago y San Juan Bautista;;;;Metro: Ópera (línea 2, 5, Ramal). Bus: 3. Bicimad: Estación 9 (plaza de San Miguel, 9).;;3;http://www.madrid.es/sites/v/index.jsp?vgnextchannel=bfa48ab43d6bb410VgnVCM100000171f5a0aRCRD&vgnextoid=e235b069a541f010VgnVCM1000000b205a0aRCRD;SANTIAGO;PLAZA;V;24;;;;;MADRID;MADRID;28013;PALACIO;CENTRO;439693;4474231;4.041.652.031.892.380;-37.108.392.672.110.600;915 480 824;;santiagoysanjuanbautista@archimadrid.es;/contenido/entidadesYorganismos/MonumentosEdificiosArtisticos; 
3693;Parroquia Santísima Trinidad;;;;Metro: Barrio de la Concepción (línea 7) Bus:  21, 48, 53, 122, 146;;1;http://www.madrid.es/sites/v/index.jsp?vgnextchannel=bfa48ab43d6bb410VgnVCM100000171f5a0aRCRD&vgnextoid=0f45b069a541f010VgnVCM1000000b205a0aRCRD;MARTINEZ VILLERGAS;CALLE;V;8;;;;;MADRID;MADRID;28027;SAN PASCUAL;CIUDAD LINEAL;444686;4476782;40.439.847.970.639.000;-36.522.124.629.579.500;914 047 391;;parroquiastm@gmail.com;/contenido/entidadesYorganismos/TemplosIglesiasCatolicas; 
3474;Parroquia Santísimo Cristo de la Esperanza;;;;Metro: Pueblo Nuevo (líneas 4, 7) Bus: 48, 70, 146;;3;http://www.madrid.es/sites/v/index.jsp?vgnextchannel=bfa48ab43d6bb410VgnVCM100000171f5a0aRCRD&vgnextoid=7665b069a541f010VgnVCM1000000b205a0aRCRD;MISTERIOS;CALLE;V;38;;;;;MADRID;MADRID;28027;CONCEPCION;CIUDAD LINEAL;445515;4476935;40.441.281.010.385.700;-364.245.135.622.082;913 670 208;;scesperanza@archimadrid.es;/contenido/entidadesYorganismos/TemplosIglesiasCatolicas; 
3475;Parroquia Santísimo Cristo de la Guía - San Juan de Sahagún;;;;Metro: Vicálvaro (línea 9). Bus: 100, 130.;;3;http://www.madrid.es/sites/v/index.jsp?vgnextchannel=bfa48ab43d6bb410VgnVCM100000171f5a0aRCRD&vgnextoid=6385b069a541f010VgnVCM1000000b205a0aRCRD;VIEJO DE VICALVARO;CAMINO;V;18;;;;;MADRID;MADRID;28032;CASCO H.VICALVARO;VICALVARO;447744;4472893;4.040.501.123.774.930;-3.615.837.754.707.100;917 767 301;;xtosanjuan@archimadrid.es;/contenido/entidadesYorganismos/TemplosIglesiasCatolicas; 
3482;Parroquia Santísimo Cristo de la Salud;;;;Metro : Serrano (línea 4) Bus : 5, 14, 27, 45, 150, 1, 19, 51, 74, 9 Bicimad: Estación 105 (Calle Serrano, 54);;3;http://www.madrid.es/sites/v/index.jsp?vgnextchannel=bfa48ab43d6bb410VgnVCM100000171f5a0aRCRD&vgnextoid=c0a5b069a541f010VgnVCM1000000b205a0aRCRD;AYALA;CALLE;V;12;;;;;MADRID;MADRID;28001;RECOLETOS;SALAMANCA;441628;4475472;404.278.378.287.955;-3.688.146.901.277.830;914 359 803;;cristodesalud@archimadrid.es;/contenido/entidadesYorganismos/TemplosIglesiasCatolicas; 
3390;Parroquia Santísimo Cristo de la Victoria;;;;"Metro: Arg&amp;uuml;elles (línea 3, 4, 6), Quevedo (línea 2), San Bernardo (líneas 2 y 4). Bus: 2, 16, 61. Bicimad: Estación 127 (calle Fernando el Católico 19).";;3;http://www.madrid.es/sites/v/index.jsp?vgnextchannel=bfa48ab43d6bb410VgnVCM100000171f5a0aRCRD&vgnextoid=a1b53d232e91f010VgnVCM1000000b205a0aRCRD;BLASCO DE GARAY;CALLE;V;33;;;;;MADRID;MADRID;28015;GAZTAMBIDE;CHAMBERI;439746;4476336;4.043.360.527.552.800;-37.116.793.866.842.700;915 437 657;;crisvic@archimadrid.es;/contenido/entidadesYorganismos/TemplosIglesiasCatolicas; 
3472;Parroquia Santísimo Cristo del Amor;;;;Bus: 117, 17, 34, 139, 39. Cercanías Renfe: Fanjul (línea C5).;;3;http://www.madrid.es/sites/v/index.jsp?vgnextchannel=bfa48ab43d6bb410VgnVCM100000171f5a0aRCRD&vgnextoid=8cc53d232e91f010VgnVCM1000000b205a0aRCRD;RAFAEL FINAT;CALLE;V;46;;;;;MADRID;MADRID;28044;LAS AGUILAS;LATINA;434544;4470071;40.378.656.476.172.900;-3.771.097.909.474.070;917 064 939;;parroquiacristoamor@archimadrid.es;/contenido/entidadesYorganismos/TemplosIglesiasCatolicas; 
3663;Parroquia Santísimo Redentor;;;;Metro: Plaza de Castilla (líneas 1, 9, 10). Bus: 150.;;3;http://www.madrid.es/sites/v/index.jsp?vgnextchannel=bfa48ab43d6bb410VgnVCM100000171f5a0aRCRD&vgnextoid=bfd53d232e91f010VgnVCM1000000b205a0aRCRD;FELIX BOIX;CALLE;V;13;;;;;MADRID;MADRID;28036;NUEVA ESPAÑA;CHAMARTIN;441836;4479414;4.046.336.374.850.600;-36.860.559.380.181.900;913 453 600;;parroquia@santisimoredentor.org;/contenido/entidadesYorganismos/TemplosIglesiasCatolicas; 
3672;Parroquia Santísimo Sacramento;;;;Metro: Ibiza (línea 9). Bus: 152, 20, 26, 63, C1, 15, 215, 61, C2, 2. Bicimad: Estación 181 (calle Ibiza, 18).;;3;http://www.madrid.es/sites/v/index.jsp?vgnextchannel=bfa48ab43d6bb410VgnVCM100000171f5a0aRCRD&vgnextoid=5c063d232e91f010VgnVCM1000000b205a0aRCRD;ALCALDE SAINZ DE BARANDA;CALLE;V;3;;;;;MADRID;MADRID;28009;IBIZA;RETIRO;442519;4474280;404.171.617.249.341;-36.775.358.654.754.800;915 733 204;;santisimosacramento@archimadrid.es;/contenido/entidadesYorganismos/TemplosIglesiasCatolicas; 
3476;Parroquia Santo Cristo de la Misericordia;;;;Metro: Francos Rodríguez (línea 7). Bus: 127, 44, 132.;;3;http://www.madrid.es/sites/v/index.jsp?vgnextchannel=bfa48ab43d6bb410VgnVCM100000171f5a0aRCRD&vgnextoid=5f163d232e91f010VgnVCM1000000b205a0aRCRD;NUMANCIA;CALLE;V;8;;;;;MADRID;MADRID;28039;BELLAS VISTAS;TETUAN;439622;4478466;40.454.665.855.235.900;-3.712.078.453.348.980;914 504 847;;cristomisericordia@archimadrid.es;/contenido/entidadesYorganismos/TemplosIglesiasCatolicas; 
3477;Parroquia Santo Cristo del Olivar;;;;Metro: Antón Martín (línea 1). Bus: M1, 26, 32, 6.;;3;http://www.madrid.es/sites/v/index.jsp?vgnextchannel=bfa48ab43d6bb410VgnVCM100000171f5a0aRCRD&vgnextoid=52363d232e91f010VgnVCM1000000b205a0aRCRD;"CA&amp;Ntilde;IZARES";CALLE;V;4;;;;;MADRID;MADRID;28012;EMBAJADORES;CENTRO;440468;4473846;40.413.107.854.258.800;-370.166.895.865.617;913 693 000 / 913 694 243;;olivar.parroquia@dominicos.org;/contenido/entidadesYorganismos/TemplosIglesiasCatolicas; 
3492;Parroquia Santo Domingo de Guzmán;;;;Metro: Aluche (línea 5), Eugenia de Montijo (línea 5). Bus: 17, 31, 121. Cercanías Renfe: Aluche (línea C5).;;3;http://www.madrid.es/sites/v/index.jsp?vgnextchannel=bfa48ab43d6bb410VgnVCM100000171f5a0aRCRD&vgnextoid=fd0d0713fb71c010VgnVCM1000000b205a0aRCRD;CAMARENA;CALLE;V;183;;;;;MADRID;MADRID;28047;ALUCHE;LATINA;435915;4471052;4.038.760.029.746.730;-3.755.046.991.390.930;917 182 713;;stodomingoaluche@archimadrid.es;/contenido/entidadesYorganismos/TemplosIglesiasCatolicas; 
3491;Parroquia Santo Domingo de la Calzada;;;;;;3;http://www.madrid.es/sites/v/index.jsp?vgnextchannel=bfa48ab43d6bb410VgnVCM100000171f5a0aRCRD&vgnextoid=55463d232e91f010VgnVCM1000000b205a0aRCRD;REAL GALIANA;CAÑADA;V;17;;;;;MADRID;MADRID;28031;CASCO H.VALLECAS;VILLA DE VALLECAS;452101;4467587;4.035.747.277.692.350;-35.640.940.621.195.400;695 792 209;;;/contenido/entidadesYorganismos/TemplosIglesiasCatolicas; 
3493;Parroquia Santo Domingo Savio;;;;Metro: García Noblejas (línea 7) Bus: 4, 28, 38, 48, 70;;3;http://www.madrid.es/sites/v/index.jsp?vgnextchannel=bfa48ab43d6bb410VgnVCM100000171f5a0aRCRD&vgnextoid=58563d232e91f010VgnVCM1000000b205a0aRCRD;SANTO DOMINGO SAVIO;CALLE;V;2;;;;;MADRID;MADRID;28017;PUEBLO NUEVO;CIUDAD LINEAL;446198;4475724;40.430.416.107.246.900;-3.634.295.811.440.000;913 683 105;;p.salesianosdosa@archimadrid.es;/contenido/entidadesYorganismos/TemplosIglesiasCatolicas; 
3397;Parroquia Santo Niño de Cebu;;;;Metro: Canal (líneas 2, 7). Bus: 2, 12. Bicimad: Estación 202 (calle Santander esquina Avenida Filipinas).;;3;http://www.madrid.es/sites/v/index.jsp?vgnextchannel=bfa48ab43d6bb410VgnVCM100000171f5a0aRCRD&vgnextoid=1b663d232e91f010VgnVCM1000000b205a0aRCRD;LUCIO DEL VALLE;CALLE;V;4;;;;;MADRID;MADRID;28003;VALLEHERMOSO;CHAMBERI;439994;4476845;4.044.009.015.462.170;-3.707.538.371.382.540;915 331 033;;torcebu@telefonica.net;/contenido/entidadesYorganismos/TemplosIglesiasCatolicas; 
3689;Parroquia Santo Tomás Apóstol;;;;Metro: La Almudena (línea 2) Bus: 109;;3;http://www.madrid.es/sites/v/index.jsp?vgnextchannel=bfa48ab43d6bb410VgnVCM100000171f5a0aRCRD&vgnextoid=1e763d232e91f010VgnVCM1000000b205a0aRCRD;PORTUGALETE;CALLE;V;2;;;;;MADRID;MADRID;28017;PUEBLO NUEVO;CIUDAD LINEAL;446020;4475184;40.425.539.942.991.500;-3.636.348.358.571.610;913 040 849;;;/contenido/entidadesYorganismos/TemplosIglesiasCatolicas; 
3690;Parroquia Santo Tomás de Villanueva;;;;Bus: 57, 310, 10, 144.;;3;http://www.madrid.es/sites/v/index.jsp?vgnextchannel=bfa48ab43d6bb410VgnVCM100000171f5a0aRCRD&vgnextoid=11963d232e91f010VgnVCM1000000b205a0aRCRD;LEONESES;CALLE;V;6;;;;;MADRID;MADRID;28018;PALOMERAS SURESTE;PUENTE DE VALLECAS;445119;4470609;4.038.238.562.242.690;-3.647.852.675.119.800;913 038 646;;pstv@archimadrid.es;/contenido/entidadesYorganismos/TemplosIglesiasCatolicas; 
3515;Parroquia Santos Apóstoles Felipe y Santiago el Menor;;;;Metro: La Elipa (línea 2)  Bus: 110, 113, 210;;3;http://www.madrid.es/sites/v/index.jsp?vgnextchannel=bfa48ab43d6bb410VgnVCM100000171f5a0aRCRD&vgnextoid=14a63d232e91f010VgnVCM1000000b205a0aRCRD;POETA BLAS DE OTERO;CALLE;V;79;;;;;MADRID;MADRID;28017;VENTAS;CIUDAD LINEAL;444702;4474827;404.222.373.281.895;-36.518.537.374.797.600;913 554 246;;parroquiafelipeysantiago@archimadrid.es;/contenido/entidadesYorganismos/TemplosIglesiasCatolicas; 
3469;Parroquia Santos Cosme y Damián;;;;Metro: Alto del Arenal (línea 1). Bus: 143, 57, 103, 58.;;3;http://www.madrid.es/sites/v/index.jsp?vgnextchannel=bfa48ab43d6bb410VgnVCM100000171f5a0aRCRD&vgnextoid=d6b63d232e91f010VgnVCM1000000b205a0aRCRD;RAMÍREZ TOMÉ;CALLE;V;22;;;;;MADRID;MADRID;28038;PORTAZGO;PUENTE DE VALLECAS;444972;4471220;40.389.761.241.361.000;-3.648.359.291.453.020;917 774 769;;pcosmeydamian@archimadrid.es;/contenido/entidadesYorganismos/TemplosIglesiasCatolicas; 
3546;Parroquia Santos Inocentes;;;;Metro: Legazpi (líneas 3, 6). Bus: 62, 148, 156.;;1;http://www.madrid.es/sites/v/index.jsp?vgnextchannel=bfa48ab43d6bb410VgnVCM100000171f5a0aRCRD&vgnextoid=99c63d232e91f010VgnVCM1000000b205a0aRCRD;EMBAJADORES;CALLE;V;209;;;;;MADRID;MADRID;28045;LEGAZPI;ARGANZUELA;441414;4470956;4.038.714.034.837.890;-3.690.253.823.821.960;915 396 644;;parroquia@saninocentes.org;/contenido/entidadesYorganismos/TemplosIglesiasCatolicas; 
3573;Parroquia Santos Justo y Pastor;;;;Metro: Tribunal (líneas 1 y 10), Bilbao (líneas 1 y 4), Noviciado (línea 3). Bus: 142, M2. Bicimad: Estación 11 (calle San Andrés, 18).;;3;http://www.madrid.es/sites/v/index.jsp?vgnextchannel=bfa48ab43d6bb410VgnVCM100000171f5a0aRCRD&vgnextoid=dcd63d232e91f010VgnVCM1000000b205a0aRCRD;DOS DE MAYO;PLAZA;V;11;;;;;MADRID;MADRID;28004;UNIVERSIDAD;CENTRO;440242;4475354;4.042.667.642.437.810;-37.044.741.914.350.900;915 217 925;;;/contenido/entidadesYorganismos/TemplosIglesiasCatolicas; 
3691;Parroquia Transfiguración del Señor;;;;Metro: Usera (línea 6). Bus: 6.;;3;http://www.madrid.es/sites/v/index.jsp?vgnextchannel=bfa48ab43d6bb410VgnVCM100000171f5a0aRCRD&vgnextoid=9fe63d232e91f010VgnVCM1000000b205a0aRCRD;ISABELITA USERA;CALLE;V;34;;;;;MADRID;MADRID;28026;PRADOLONGO;USERA;439911;4470562;403.834.839.413.912;-37.079.235.781.732.600;914 751 875;;parroquiatransfi@gmail.com;/contenido/entidadesYorganismos/TemplosIglesiasCatolicas; 
3700;Parroquia Virgen de La Candelaria;;;;Metro: Las Musas (línea 7) Bus: 38, 165, 153;;3;http://www.madrid.es/sites/v/index.jsp?vgnextchannel=bfa48ab43d6bb410VgnVCM100000171f5a0aRCRD&vgnextoid=92073d232e91f010VgnVCM1000000b205a0aRCRD;NUESTRA SEÑORA DE LA CANDELARIA;PLAZA;V;1;;;;;MADRID;MADRID;28037;HELLIN;SAN BLAS-CANILLEJAS;448019;4476089;4.043.193.943.055.560;-36.141.262.628.461.500;913 203 905;;lacandelaria@archimadrid.es;/contenido/entidadesYorganismos/TemplosIglesiasCatolicas; 
3706;Parroquia Virgen de La Fuensanta;;;;Metro: Plaza Elíptica (líneas 6, 11). Bus: 247, 47, 81, 60, 55.;;3;http://www.madrid.es/sites/v/index.jsp?vgnextchannel=bfa48ab43d6bb410VgnVCM100000171f5a0aRCRD&vgnextoid=15173d232e91f010VgnVCM1000000b205a0aRCRD;SAN FILIBERTO;CALLE;V;9;;;;;MADRID;MADRID;28026;MOSCARDO;USERA;439345;4470816;4.038.573.108.884.350;-37.146.154.582.435.300;914 696 877;;pvfuensanta@archimadrid.es;/contenido/entidadesYorganismos/TemplosIglesiasCatolicas; 
3711;Parroquia Virgen de La Nueva;;;;Metro: Canillas y Esperanza (línea 4) . Bus: 120, 122.;;3;http://www.madrid.es/sites/v/index.jsp?vgnextchannel=bfa48ab43d6bb410VgnVCM100000171f5a0aRCRD&vgnextoid=18273d232e91f010VgnVCM1000000b205a0aRCRD;CALANDA;CALLE;V;28;;;;;MADRID;MADRID;28043;CANILLAS;HORTALEZA;445565;4479266;4.046.228.317.076.970;-3.642.061.657.641.840;913 002 127;;parroquiavirgendelanueva@gmail.com;/contenido/entidadesYorganismos/TemplosIglesiasCatolicas; 
3713;Parroquia Virgen de La Oliva;;;;Metro: Simancas (línea 7) Bus: 109;;3;http://www.madrid.es/sites/v/index.jsp?vgnextchannel=bfa48ab43d6bb410VgnVCM100000171f5a0aRCRD&vgnextoid=1b373d232e91f010VgnVCM1000000b205a0aRCRD;CASTILLO DE SIMANCAS;CALLE;V;1;;;;;MADRID;MADRID;28037;SIMANCAS;SAN BLAS-CANILLEJAS;446796;4475533;404.287.339.302.711;-36.272.301.391.916.800;913 043 762;;parroquiaoliva@archimadrid.es;/contenido/entidadesYorganismos/TemplosIglesiasCatolicas; 
3645;Parroquia Virgen de La Paloma y San Pedro el Real;;;;Metro: Puerta de Toledo (línea 5). Bus: 17, 18, 23, 35, 60, 148, 3.;;3;http://www.madrid.es/sites/v/index.jsp?vgnextchannel=bfa48ab43d6bb410VgnVCM100000171f5a0aRCRD&vgnextoid=5e473d232e91f010VgnVCM1000000b205a0aRCRD;TOLEDO;CALLE;V;98;;;;;MADRID;MADRID;28005;PALACIO;CENTRO;439666;4473301;4.040.814.049.050.010;-37.110.693.007.323.300;913 654 669;;virgenpaloma@archimadrid.es;/contenido/entidadesYorganismos/TemplosIglesiasCatolicas; 
3715;Parroquia Virgen de La Providencia y San Cayetano;;;;Metro: Diego de León (líneas 4, 5, 6) Bus: 1, 12, 43, 48, C1, C2;;3;http://www.madrid.es/sites/v/index.jsp?vgnextchannel=bfa48ab43d6bb410VgnVCM100000171f5a0aRCRD&vgnextoid=51673d232e91f010VgnVCM1000000b205a0aRCRD;FERRER DEL RIO;CALLE;V;18;;;;;MADRID;MADRID;28028;GUINDALERA;SALAMANCA;443014;4476194;4.043.443.807.055.460;-36.718.731.697.725.400;917 262 422;;vprovidenciayscayetano@archimadrid.es;/contenido/entidadesYorganismos/TemplosIglesiasCatolicas; 
3708;Parroquia Virgen de Los Llanos;;;;Bus: 117, 39, 34. Cercanías Renfe: Las Águilas (línea C5).;;3;http://www.madrid.es/sites/v/index.jsp?vgnextchannel=bfa48ab43d6bb410VgnVCM100000171f5a0aRCRD&vgnextoid=57873d232e91f010VgnVCM1000000b205a0aRCRD;VIRGEN DE LOS LLANOS;PLAZA;V;1;;;;;MADRID;MADRID;28044;LAS AGUILAS;LATINA;433820;4469920;40.377.239.028.819.600;-3.779.610.495.432.080;917 058 471;;virgendelosllanos@archimadrid.es;/contenido/entidadesYorganismos/TemplosIglesiasCatolicas; 
3717;Parroquia Virgen de Los Remedios;;;;Metro: Marqués de Vadillo (línea 5). Bus: 23.;;3;http://www.madrid.es/sites/v/index.jsp?vgnextchannel=bfa48ab43d6bb410VgnVCM100000171f5a0aRCRD&vgnextoid=5a973d232e91f010VgnVCM1000000b205a0aRCRD;TOMASA RUIZ;CALLE;V;8;;;;;MADRID;MADRID;28019;COMILLAS;CARABANCHEL;439655;4471955;40.396.014.279.260.900;-3.711.071.332.498.300;915 698 947;;virgendelosremedios@archimadrid.es;/contenido/entidadesYorganismos/TemplosIglesiasCatolicas; 
3712;Parroquia Virgen de Nuria;;;;Metro: Conde de Casal (línea 6), Menéndez Pelayo (línea 1), Pacífico (líneas 1 y 6).  Bus: 141, 24, 37, 54, 57.   Bicimad: Estación 79 (avenidad Menéndez Pelayo, 38).;;3;http://www.madrid.es/sites/v/index.jsp?vgnextchannel=bfa48ab43d6bb410VgnVCM100000171f5a0aRCRD&vgnextoid=357aff632081c010VgnVCM1000000b205a0aRCRD;JUAN DE URBIETA;CALLE;V;5;;;;;MADRID;MADRID;28007;PACIFICO;RETIRO;442451;4472808;40.403.887.392.280.700;-36.782.158.948.830.600;915 520 297;;;/contenido/entidadesYorganismos/TemplosIglesiasCatolicas; 
3702;Parroquia Virgen del Castillo;;;;Metro: Hortaleza (línea 4). Bus: 107, 125, 172, 120, 72, 9.;;3;http://www.madrid.es/sites/v/index.jsp?vgnextchannel=bfa48ab43d6bb410VgnVCM100000171f5a0aRCRD&vgnextoid=dda73d232e91f010VgnVCM1000000b205a0aRCRD;SAN LUIS;AVENIDA;V;42;;;;;MADRID;MADRID;28033;PINAR DEL REY;HORTALEZA;444875;4480523;40.473.561.352.383.800;-36.503.089.389.917.600;913 831 443;;pinardelrey@archimadrid.es;/contenido/entidadesYorganismos/TemplosIglesiasCatolicas; 
3703;Parroquia Virgen del Coro;;;;Metro: El Carmen (línea 5) Bus: 146, 21, 48, 106, 38;;3;http://www.madrid.es/sites/v/index.jsp?vgnextchannel=bfa48ab43d6bb410VgnVCM100000171f5a0aRCRD&vgnextoid=85c73d232e91f010VgnVCM1000000b205a0aRCRD;VIRGEN DE LA ALEGRIA;CALLE;V;12;;;;;MADRID;MADRID;28027;CONCEPCION;CIUDAD LINEAL;444305;4476104;404.337.147.571.673;-3.656.645.165.415.620;914 032 935;;virgendelcoro@archimadrid.es;/contenido/entidadesYorganismos/TemplosIglesiasCatolicas; 
3705;Parroquia Virgen del Cortijo;;;;Bus: 150, 174. Cercanías Renfe: Fuente de la Mora (líneas C1 y C10).;;3;http://www.madrid.es/sites/v/index.jsp?vgnextchannel=bfa48ab43d6bb410VgnVCM100000171f5a0aRCRD&vgnextoid=88d73d232e91f010VgnVCM1000000b205a0aRCRD;OÑA;CALLE;V;91;;;;;MADRID;MADRID;28050;VALDEFUENTES;HORTALEZA;443795;4482105;4.048.774.033.383.050;-3.663.189.118.552.130;917 663 081;;parroquia.virgendelcortigo@gmail.com;/contenido/entidadesYorganismos/TemplosIglesiasCatolicas; 
3710;Parroquia Virgen del Mar;;;;Metro: San Blas (línea 7) Bus: 48, 165;;3;http://www.madrid.es/sites/v/index.jsp?vgnextchannel=bfa48ab43d6bb410VgnVCM100000171f5a0aRCRD&vgnextoid=81f73d232e91f010VgnVCM1000000b205a0aRCRD;PEONES;CALLE;V;2;;;;;MADRID;MADRID;28037;ARCOS;SAN BLAS-CANILLEJAS;447728;4475492;4.042.655.202.493.090;-3.617.507.770.548.030;913 069 753;;parroquiavirgendelmar@archimadrid.es;/contenido/entidadesYorganismos/TemplosIglesiasCatolicas; 
3716;Parroquia Virgen del Refugio y Santa Lucía;;;;Metro: Fuencarral (línea 10). Bus: 124.;;3;http://www.madrid.es/sites/v/index.jsp?vgnextchannel=bfa48ab43d6bb410VgnVCM100000171f5a0aRCRD&vgnextoid=67088c7c0f91f010VgnVCM1000000b205a0aRCRD;MANRESA;CALLE;V;60;;;;;MADRID;MADRID;28034;VALVERDE;FUENCARRAL-EL PARDO;441161;4482583;40.491.863.823.601.100;-3.694.311.178.526.010;917 342 045;;pvdelrefugio@hotmail.com;/contenido/entidadesYorganismos/TemplosIglesiasCatolicas; 
3714;Parroquia Virgen Peregrina;;;;Metro: Núñez de Balboa (líneas 5, 9) Bus: 19, 29, 51, 52, 61, 9;;3;http://www.madrid.es/sites/v/index.jsp?vgnextchannel=bfa48ab43d6bb410VgnVCM100000171f5a0aRCRD&vgnextoid=82288c7c0f91f010VgnVCM1000000b205a0aRCRD;DIEGO DE LEON;CALLE;V;36;;;;;MADRID;MADRID;28006;CASTELLANA;SALAMANCA;442230;4476228;4.043.469.027.180.190;-36.811.191.182.941.500;914 111 212;;virgenperegrina@archimadrid.es;/contenido/entidadesYorganismos/TemplosIglesiasCatolicas; 
3719;Parroquia Visitación de Nuestra Señora;;;;Metro: Artilleros (línea 9). Bus: 30, 32.;;3;http://www.madrid.es/sites/v/index.jsp?vgnextchannel=bfa48ab43d6bb410VgnVCM100000171f5a0aRCRD&vgnextoid=b5388c7c0f91f010VgnVCM1000000b205a0aRCRD;PICO DE LOS ARTILLEROS;CALLE;V;82;;;;;MADRID;MADRID;28030;VINATEROS;MORATALAZ;445688;4473162;40.407.302.967.830.100;-36.400.892.956.674.300;917 733 705;;parroquia.visitacion@archimadrid.es;/contenido/entidadesYorganismos/TemplosIglesiasCatolicas; 
60224;Primer Monasterio de la Visitación (Las Salesas);;;;Metro: Alonso Martinez (líneas 4, 5 y 10). Bus: 3. Bicimad: Estación 122 (calle Santa Engracia, 14).;;3;http://www.madrid.es/sites/v/index.jsp?vgnextchannel=bfa48ab43d6bb410VgnVCM100000171f5a0aRCRD&vgnextoid=21a13d232e91f010VgnVCM1000000b205a0aRCRD;SANTA ENGRACIA;CALLE;V;20;;;;;MADRID;MADRID;28010;ALMAGRO;CHAMBERI;440922;4475743;4.043.022.928.515.630;-36.964.945.333.521.600;914 487 822;;;/contenido/entidadesYorganismos/TemplosIglesiasCatolicas; 
3432;Real Basílica Nuestra Señora de Atocha;;;;Bus: 141, 24, 37, 54, 57, 10, 14, 26, 32, C2, 102. C1.   Metro: Menéndez Pelayo (línea 1), Estación del Arte (Atocha) (línea 1).  Cercanías Renfe: Atocha (líneas C1, C2, C3, C4, C5, C7 y C10).;;3;http://www.madrid.es/sites/v/index.jsp?vgnextchannel=bfa48ab43d6bb410VgnVCM100000171f5a0aRCRD&vgnextoid=b22413db5b71c010VgnVCM1000000b205a0aRCRD;JULIAN GAYARRE;CALLE;V;1;;;;;MADRID;MADRID;28014;PACIFICO;RETIRO;442024;4473014;4.040.572.253.343.350;-368.326.652.731.545;914 344 020;;parroquiadeatocha@archimadrid.es;/contenido/entidadesYorganismos/TemplosIglesiasCatolicas; 
3359;Real Basílica San Francisco el Grande;Conjunto conventual que sustituyó al monasterio franciscano medieval, construido por Francisco de las Cabezas entre 1761 y 1768, que fue relevado por Antonio Polo y que concluye Francisco Sabatini en 1784 donde se exponen colecciones de pinturas de los siglos XVII al XIX.;Visita Guiada Museo:    De martes a viernes de 10:30 a 12:30 y de 16 a 18 horas.  Julio, agosto y septiembre: de martes a viernes de 10:30 a 12:30 y de 17 a 19 horas.   Sábados de 10:30 a 12:30 y de 16 a 18 horas (entrada libre sin guía).;;Metro: La Latina (línea 5) , Puerta de Toledo (línea 5).  Bus: 002, 17, 18, 23, 35, 60.  Bicimad: Estación 37 (Plaza San Francisco, 5).  Aparcamiento: Parking VOT (97), Ventosa.;;3;http://www.madrid.es/sites/v/index.jsp?vgnextchannel=bfa48ab43d6bb410VgnVCM100000171f5a0aRCRD&vgnextoid=ef8d0713fb71c010VgnVCM1000000b205a0aRCRD;SAN BUENAVENTURA;CALLE;V;1;;;;;MADRID;MADRID;28005;PALACIO;CENTRO;439377;4473603;4.041.084.005.024.220;-3.714.503.845.728.280;913 653 800;;;/contenido/entidadesYorganismos/MonumentosEdificiosArtisticos; 
3349;Real Monasterio de la Encarnación;Edificio construído por Juan Gómez de Mora de 1611 a 1616 como monasterio anejo al Alcázar Real, modelo de lo que se ha dado en llamar barroco madrileño. Cuenta con la reliquia de San Pantaleón.;Consultar horarios;;Metro: Ópera (líneas 2, 5 y Ramal Ópera Príncipe Pío), Plaza de España (líneas 3, 10)  Bus: 3, 25, 39, 148  Bicimad: Estación 25 a y b (Plaza Celenque, 1);;3;http://www.madrid.es/sites/v/index.jsp?vgnextchannel=bfa48ab43d6bb410VgnVCM100000171f5a0aRCRD&vgnextoid=72ad0713fb71c010VgnVCM1000000b205a0aRCRD;ENCARNACION;PLAZA;V;1;;;;;MADRID;MADRID;28013;PALACIO;CENTRO;439634;4474582;4.041.967.800.877.380;-3.711.567.962.866.150;914 548 700 (Información general);;info@patrimonionacional.es;/contenido/entidadesYorganismos/MonumentosEdificiosArtisticos; 
4707297;Real Monasterio de Santa Isabel;El Real Monasterio de Santa Isabel está situado en Madrid, dentro de la ciudad histórica, en una gran manzana, próxima a Atocha. Santa Isabel agrupa dos fundaciones, un colegio de niñas, establecido por Felipe II, y un convento de clausura de monjas agustinas recoletas, fundado por la esposa de Felipe III, doña Margarita de Austria. La arquitectura de la iglesia se debe a Gómez de Mora, de mediados del siglo XVIII. En la clausura se conservan numerosas obras pictóricas de los siglos XVII y XVIII.;El acceso al templo sólo es posible en horario de culto.;;Metro: Estación del Arte (Atocha) (línea 1)  Bus: 26, 32, 6, 27, 34, C1  Renfe: Atocha;;3;http://www.madrid.es/sites/v/index.jsp?vgnextchannel=bfa48ab43d6bb410VgnVCM100000171f5a0aRCRD&vgnextoid=545b544a249c6110VgnVCM1000000b205a0aRCRD;SANTA ISABEL;CALLE;V;48;;;;;MADRID;MADRID;28012;EMBAJADORES;CENTRO;440655;4473736;4.041.213.027.498.250;-36.994.547.941.964.900;914 548 700 (Información general);;info@patrimonionacional.es;/contenido/entidadesYorganismos/MonumentosEdificiosArtisticos; 
3360;Real Oratorio del Caballero de Gracia;"Construído por Juan de Villanueva entre 1786 y 1795 de planta basilical y en un sentir muy cercano al de las iglesias venecianas de Palladio. La fachada es de Custodio Moreno. Entre 1976 y 1981 el arquitecto Fernando Chueca Goitia emprendió un proyecto de restauración  con polémicos resultados. Los trabajos se interrumpieron durante largos años; convocándose finalmente un concurso de arquitectura que fue ganado en 1987 por Javier Feduchi Benlliure.";;;Metro: Gran Vía (líneas 1 y 5). Bus: 1, 2, 46, 74, 126.;;3;http://www.madrid.es/sites/v/index.jsp?vgnextchannel=bfa48ab43d6bb410VgnVCM100000171f5a0aRCRD&vgnextoid=ef153d232e91f010VgnVCM1000000b205a0aRCRD;CABALLERO DE GRACIA;CALLE;V;5;;;;;MADRID;MADRID;28013;SOL;CENTRO;440660;4474767;4.041.953.675.995.830;-3.700.769.178.078.410;915 326 937;;info.caballerodegracia@archimadrid.es;/contenido/entidadesYorganismos/MonumentosEdificiosArtisticos; 
60234;Santuario Nuestra Señora de los Peligros;;;;Bus: C2, 16, 19, 51, C1.  Metro: República Argentina (línea 6).;;3;http://www.madrid.es/sites/v/index.jsp?vgnextchannel=bfa48ab43d6bb410VgnVCM100000171f5a0aRCRD&vgnextoid=8d3a8c7c0f91f010VgnVCM1000000b205a0aRCRD;JOAQUIN COSTA;CALLE;V;49;;;;;MADRID;MADRID;28002;EL VISO;CHAMARTIN;442149;4477068;4.044.225.176.356.730;-3.682.150.539.114.880;915 613 241;;;/contenido/entidadesYorganismos/TemplosIglesiasCatolicas; 
3737;Santuario Nuestra Señora de Lourdes;;;;Bus: 7, 5, 14, 27, 45, 150.  Metro: Rubén Darío (línea 5), Alonso Martínez (líneas 4, 5 y 10).;;3;http://www.madrid.es/sites/v/index.jsp?vgnextchannel=bfa48ab43d6bb410VgnVCM100000171f5a0aRCRD&vgnextoid=4d561e79ee71c010VgnVCM1000000b205a0aRCRD;FORTUNY;CALLE;V;21;;;;;MADRID;MADRID;28010;ALMAGRO;CHAMBERI;441391;4475735;40.430.190.394.656.000;-3.690.964.947.193.250;913 197 780;;;/contenido/entidadesYorganismos/TemplosIglesiasCatolicas; 
190382;Santuario Nuestra Señora de Schönstatt;;;;Bus: 9, 16, 19, 51, 12.  Metro: Gregorio Marañón (líneas 7 y 10). Bicimad: Estación 140 (calle Velázquez, 130).;;3;http://www.madrid.es/sites/v/index.jsp?vgnextchannel=bfa48ab43d6bb410VgnVCM100000171f5a0aRCRD&vgnextoid=067f755cf659f010VgnVCM2000000c205a0aRCRD;SERRANO;CALLE;V;97;;;;;MADRID;MADRID;28006;EL VISO;CHAMARTIN;441781;4476632;404.382.983.860.259;-3.686.449.566.813.230;915 618 992;;padresschoenstatt@archimadrid.es;/contenido/entidadesYorganismos/TemplosIglesiasCatolicas; 
60225;Segundo Monasterio de la Visitación (Las Salesas);;;;Metro: San Bernardo (líneas 2 y 4). Bus: 3, 147. Bicimad: Estación 12 (calle San Bernardo, 85).;;3;http://www.madrid.es/sites/v/index.jsp?vgnextchannel=bfa48ab43d6bb410VgnVCM100000171f5a0aRCRD&vgnextoid=a4b13d232e91f010VgnVCM1000000b205a0aRCRD;SAN BERNARDO;CALLE;V;72;;;;;MADRID;MADRID;28015;UNIVERSIDAD;CENTRO;440096;4475443;4.042.746.767.635.850;-37.062.036.161.064.300;915 222 565;;;/contenido/entidadesYorganismos/TemplosIglesiasCatolicas; 
60226;Tercer Monasterio de la Visitación (Las Salesas);;;;Metro: Guzmán el Bueno (líneas 6 y 7). Bus: 2, 44.;;3;http://www.madrid.es/sites/v/index.jsp?vgnextchannel=bfa48ab43d6bb410VgnVCM100000171f5a0aRCRD&vgnextoid=67c13d232e91f010VgnVCM1000000b205a0aRCRD;SAN FRANCISCO DE SALES;PASEO;V;48;;;;;MADRID;MADRID;28003;VALLEHERMOSO;CHAMBERI;439725;4477237;4.044.360.221.440.590;-37.107.449.132.986.700;915 985 575;;c.inmaculadaconcepcionmadrid@servidoras.org;/contenido/entidadesYorganismos/TemplosIglesiasCatolicas; 
